{
"type": "FeatureCollection",
"name": "Sungai",
"crs": { "type": "name", "properties": { "name": "urn:ogc:def:crs:OGC:1.3:CRS84" } },
"features": [
{ "type": "Feature", "properties": { "NAMOBJ": null, "FCODE": "DA02050400", "REMARK": "Sungai Satu Garis", "METADATA": "RBI50KPROVINSILAMPUNG", "SRS_ID": "4326", "ADATGL": 0, "DMAX": 0.0, "FNGAIR": 0, "JNSSNG": 0, "KLSSNG": 0, "LTKSGI": 0, "NAMWS": null, "STATUS": null, "UKRSGI": 0, "WMAX": 0.0, "DBTMXS": 0.0, "NAMDAS": null, "Keterangan": null, "Panjang": 0.0, "SHAPE_Leng": 0.10306944692 }, "geometry": { "type": "MultiLineString", "coordinates": [ [ [ 105.6295320439107, -5.735080932843005, 0.0 ], [ 105.629421293000036, -5.734843436999925, 0.0 ], [ 105.629195600000102, -5.734492632999943, 0.0 ], [ 105.628748562000055, -5.733949829999973, 0.0 ], [ 105.628610591000012, -5.733690870999951, 0.0 ], [ 105.62855606600003, -5.733431820999923, 0.0 ], [ 105.628518035000084, -5.732993047999945, 0.0 ], [ 105.628500655000067, -5.732362008999957, 0.0 ], [ 105.628441749000075, -5.731910720999921, 0.0 ], [ 105.628299510000033, -5.731564003999922, 0.0 ], [ 105.628069679000106, -5.731242457999962, 0.0 ], [ 105.627610392000037, -5.730942059999976, 0.0 ], [ 105.627092639000097, -5.730591573999932, 0.0 ], [ 105.626787662000083, -5.730228317999985, 0.0 ], [ 105.626514757861301, -5.72985830704867, 0.0 ], [ 105.626408717797204, -5.729598026891349, 0.0 ], [ 105.626370157773891, -5.729396791769717, 0.0 ], [ 105.626273757715637, -5.728809956415017, 0.0 ], [ 105.626105057613671, -5.728703916350923, 0.0 ], [ 105.626018297561217, -5.728578596275177, 0.0 ], [ 105.625878517476735, -5.728544856254783, 0.0 ], [ 105.625786937421381, -5.728406281171025, 0.0 ], [ 105.625637517331072, -5.72827132108945, 0.0 ], [ 105.625664027347099, -5.728167088526449, 0.0 ], [ 105.625579677296116, -5.728065868465269, 0.0 ], [ 105.625502557249504, -5.727947778393893, 0.0 ], [ 105.625371212170108, -5.727730878262792, 0.0 ], [ 105.625085626997489, -5.727370583045019, 0.0 ], [ 105.62481088683144, -5.726922322774078, 0.0 ], [ 105.624598806703247, -5.72653672254101, 0.0 ], [ 105.624569886685762, -5.726440322482743, 0.0 ], [ 105.624540966668292, -5.726330667416464, 0.0 ], [ 105.624434926604195, -5.726227037353827, 0.0 ], [ 105.624358698, -5.726106216999981, 0.0 ], [ 105.62429389516349, -5.726063096156108, 0.0 ] ], [ [ 105.629811429700482, -5.735985684247912, 0.0 ], [ 105.629788776939932, -5.735884107443522, 0.0 ] ] ] } }
]
}
