{
  "type": "FeatureCollection",
  "name": "Batas",
  "crs": {
    "type": "name",
    "properties": {
      "name": "urn:ogc:def:crs:OGC:1.3:CRS84"
    }
  },
  "features": [
    {
      "type": "Feature",
      "properties": {
        "OBJECTID": 1,
        "Shape_Leng": 0.21319957196,
        "Shape_Area": 0.00099015471
      },
      "geometry": {
        "type": "MultiPolygon",
        "coordinates": [
          [
            [
              [
                105.64724225802382,
                -5.665447329530593,
                0.0
              ],
              [
                105.64724078763231,
                -5.665478211350319,
                0.0
              ],
              [
                105.64721246708177,
                -5.665478211350319,
                0.0
              ],
              [
                105.64721246708177,
                -5.665468771166786,
                0.0
              ],
              [
                105.64721246708177,
                -5.66545933098331,
                0.0
              ],
              [
                105.64721246708177,
                -5.665449890799778,
                0.0
              ],
              [
                105.64722190726525,
                -5.665431010432712,
                0.0
              ],
              [
                105.64724078763231,
                -5.665431010432712,
                0.0
              ],
              [
                105.64724225802382,
                -5.665447329530593,
                0.0
              ]
            ]
          ],
          [
            [
              [
                105.64724225802382,
                -5.665447329530593,
                0.0
              ],
              [
                105.64725966889864,
                -5.665081717347334,
                0.0
              ],
              [
                105.64748623600104,
                -5.664713544794211,
                0.0
              ],
              [
                105.6474956770839,
                -5.664571939343489,
                0.0
              ],
              [
                105.64725022781585,
                -5.664430334792087,
                0.0
              ],
              [
                105.64732575108263,
                -5.664026760426623,
                0.0
              ],
              [
                105.64733519126611,
                -5.664026760426623,
                0.0
              ],
              [
                105.64740127345004,
                -5.663526422606253,
                0.0
              ],
              [
                105.64759007981837,
                -5.663384818054851,
                0.0
              ],
              [
                105.64785440945349,
                -5.663328176054449,
                0.0
              ],
              [
                105.64807153727168,
                -5.663290414421056,
                0.0
              ],
              [
                105.64815649982268,
                -5.663214892053588,
                0.0
              ],
              [
                105.64836418745733,
                -5.663129928603269,
                0.0
              ],
              [
                105.64855299382566,
                -5.663016644602408,
                0.0
              ],
              [
                105.64860019564259,
                -5.662875040051006,
                0.0
              ],
              [
                105.64874416091436,
                -5.662469105864488,
                0.0
              ],
              [
                105.64897072891608,
                -5.662374702230693,
                0.0
              ],
              [
                105.64924449873467,
                -5.662270858413365,
                0.0
              ],
              [
                105.6493389014692,
                -5.662214216412906,
                0.0
              ],
              [
                105.64946162565354,
                -5.662015969861045,
                0.0
              ],
              [
                105.64963155165486,
                -5.661959327860643,
                0.0
              ],
              [
                105.64997140365739,
                -5.661846043859782,
                0.0
              ],
              [
                105.65018853147564,
                -5.661808282226389,
                0.0
              ],
              [
                105.65062278711201,
                -5.661761080409462,
                0.0
              ],
              [
                105.65105704274839,
                -5.661723319675389,
                0.0
              ],
              [
                105.65120808748333,
                -5.661798842042856,
                0.0
              ],
              [
                105.65112312493233,
                -5.662223656596439,
                0.0
              ],
              [
                105.65114200529939,
                -5.662572949681817,
                0.0
              ],
              [
                105.65131193130065,
                -5.66282783823408,
                0.0
              ],
              [
                105.65155792825584,
                -5.663322247723499,
                0.0
              ],
              [
                105.65162852503647,
                -5.663779567373069,
                0.0
              ],
              [
                105.65165061148662,
                -5.663867915871549,
                0.0
              ],
              [
                105.65166901791093,
                -5.663941539770178,
                0.0
              ],
              [
                105.65168374251078,
                -5.664000438169637,
                0.0
              ],
              [
                105.65168246457415,
                -5.664070421612621,
                0.0
              ],
              [
                105.65172494584965,
                -5.664141224337982,
                0.0
              ],
              [
                105.65180990929991,
                -5.664267489153247,
                0.0
              ],
              [
                105.65182878966698,
                -5.664338291878607,
                0.0
              ],
              [
                105.65183350930909,
                -5.664385492796214,
                0.0
              ],
              [
                105.65180046821712,
                -5.664503497338501,
                0.0
              ],
              [
                105.65178158785005,
                -5.664583740247394,
                0.0
              ],
              [
                105.65177214766652,
                -5.664753666248657,
                0.0
              ],
              [
                105.65174854675809,
                -5.664909431525018,
                0.0
              ],
              [
                105.65172966639108,
                -5.665065196801322,
                0.0
              ],
              [
                105.65170134494116,
                -5.665216242435577,
                0.0
              ],
              [
                105.65165886366566,
                -5.665372007711937,
                0.0
              ],
              [
                105.65164470294076,
                -5.665485291712798,
                0.0
              ],
              [
                105.65163526275722,
                -5.665589135530126,
                0.0
              ],
              [
                105.65148421712297,
                -5.665678818622553,
                0.0
              ],
              [
                105.6513898143885,
                -5.665728380260475,
                0.0
              ],
              [
                105.65136621348,
                -5.665751981168967,
                0.0
              ],
              [
                105.65130485093817,
                -5.665770862435295,
                0.0
              ],
              [
                105.65131901166313,
                -5.665884146436156,
                0.0
              ],
              [
                105.6513898143885,
                -5.665936067895188,
                0.0
              ],
              [
                105.65139925457203,
                -5.66607767244659,
                0.0
              ],
              [
                105.65133317238804,
                -5.666200397530247,
                0.0
              ],
              [
                105.65135677329653,
                -5.666266479714238,
                0.0
              ],
              [
                105.65142285548046,
                -5.666401593858438,
                0.0
              ],
              [
                105.65142757512257,
                -5.666453516216734,
                0.0
              ],
              [
                105.65147713676049,
                -5.666521958221722,
                0.0
              ],
              [
                105.65140161439302,
                -5.666540839488107,
                0.0
              ],
              [
                105.65134261257157,
                -5.666517238579672,
                0.0
              ],
              [
                105.65124348929567,
                -5.666503077854713,
                0.0
              ],
              [
                105.65101692129394,
                -5.666498357313287,
                0.0
              ],
              [
                105.65085171493473,
                -5.666427555487246,
                0.0
              ],
              [
                105.65084699529268,
                -5.666441715312885,
                0.0
              ],
              [
                105.65084227475126,
                -5.666498357313287,
                0.0
              ],
              [
                105.65096499893559,
                -5.666611641314148,
                0.0
              ],
              [
                105.65090835693519,
                -5.666847650398722,
                0.0
              ],
              [
                105.65114436512039,
                -5.666857090582198,
                0.0
              ],
              [
                105.65124820893777,
                -5.666942053133198,
                0.0
              ],
              [
                105.65119156693731,
                -5.667074218400387,
                0.0
              ],
              [
                105.65109716330352,
                -5.667432950770035,
                0.0
              ],
              [
                105.65113492493691,
                -5.667621757138306,
                0.0
              ],
              [
                105.65130485093817,
                -5.667753921506232,
                0.0
              ],
              [
                105.65138037330564,
                -5.667895526956954,
                0.0
              ],
              [
                105.6513898143885,
                -5.668150415509217,
                0.0
              ],
              [
                105.651451176031,
                -5.668136255683578,
                0.0
              ],
              [
                105.65148421712297,
                -5.668098494050241,
                0.0
              ],
              [
                105.65153613948132,
                -5.668081973504229,
                0.0
              ],
              [
                105.65164706276181,
                -5.668048932412262,
                0.0
              ],
              [
                105.65179574857501,
                -5.668171656596655,
                0.0
              ],
              [
                105.65183114948803,
                -5.668235378959537,
                0.0
              ],
              [
                105.65190431203445,
                -5.668303820964525,
                0.0
              ],
              [
                105.65205771748975,
                -5.668284940597459,
                0.0
              ],
              [
                105.65215920148603,
                -5.668221218234578,
                0.0
              ],
              [
                105.65221348276606,
                -5.668256620046918,
                0.0
              ],
              [
                105.6523338471294,
                -5.668313262047377,
                0.0
              ],
              [
                105.65248489276365,
                -5.668332142414386,
                0.0
              ],
              [
                105.65254153476405,
                -5.668453686688224,
                0.0
              ],
              [
                105.65254153476405,
                -5.668505608147257,
                0.0
              ],
              [
                105.65254153476405,
                -5.668552809964183,
                0.0
              ],
              [
                105.65260761694805,
                -5.668600011781052,
                0.0
              ],
              [
                105.65259817676451,
                -5.668666093965044,
                0.0
              ],
              [
                105.65256513567255,
                -5.668821859241348,
                0.0
              ],
              [
                105.6528153045827,
                -5.669273815334236,
                0.0
              ],
              [
                105.65290970731718,
                -5.669415420785015,
                0.0
              ],
              [
                105.65300883149246,
                -5.669523984244449,
                0.0
              ],
              [
                105.65312683513537,
                -5.669632547703884,
                0.0
              ],
              [
                105.65317875749372,
                -5.66984023533854,
                0.0
              ],
              [
                105.65328732095315,
                -5.669986560431369,
                0.0
              ],
              [
                105.65352332913841,
                -5.669953519339401,
                0.0
              ],
              [
                105.65359649168482,
                -5.670111055380858,
                0.0
              ],
              [
                105.6535610907718,
                -5.670226699202772,
                0.0
              ],
              [
                105.65361065240972,
                -5.670465067209022,
                0.0
              ],
              [
                105.65362481313468,
                -5.670547670838289,
                0.0
              ],
              [
                105.65365313368522,
                -5.670646794114191,
                0.0
              ],
              [
                105.65371921586916,
                -5.670778958482117,
                0.0
              ],
              [
                105.65380417931948,
                -5.670894602304031,
                0.0
              ],
              [
                105.65386082131988,
                -5.670939444299847,
                0.0
              ],
              [
                105.65394342404983,
                -5.670965405029392,
                0.0
              ],
              [
                105.65403369709747,
                -5.670977205933241,
                0.0
              ],
              [
                105.65403133727648,
                -5.670977205933241,
                0.0
              ],
              [
                105.65401481673047,
                -5.671029127392273,
                0.0
              ],
              [
                105.65387793182117,
                -5.671477542854291,
                0.0
              ],
              [
                105.65384017018778,
                -5.671746593030775,
                0.0
              ],
              [
                105.65386377109621,
                -5.672058123583497,
                0.0
              ],
              [
                105.65388253904803,
                -5.672423867967098,
                0.0
              ],
              [
                105.6540384176389,
                -5.673500134323717,
                0.0
              ],
              [
                105.65397233545497,
                -5.67391550869371,
                0.0
              ],
              [
                105.65321710818307,
                -5.674234120508231,
                0.0
              ],
              [
                105.65315102599914,
                -5.674404046509494,
                0.0
              ],
              [
                105.65316046618261,
                -5.674536210877363,
                0.0
              ],
              [
                105.65325486981646,
                -5.674630614511216,
                0.0
              ],
              [
                105.65346255745112,
                -5.674706136878683,
                0.0
              ],
              [
                105.65369856563638,
                -5.674677816328142,
                0.0
              ],
              [
                105.6538024094537,
                -5.674809980696011,
                0.0
              ],
              [
                105.65387793182117,
                -5.674970466513798,
                0.0
              ],
              [
                105.65386849163764,
                -5.675178153249135,
                0.0
              ],
              [
                105.65378352818732,
                -5.675215914882529,
                0.0
              ],
              [
                105.65420834364022,
                -5.675291437249996,
                0.0
              ],
              [
                105.65474644219461,
                -5.676405396891482,
                0.0
              ],
              [
                105.65468036001067,
                -5.676620164888675,
                0.0
              ],
              [
                105.65471812164407,
                -5.677054419625733,
                0.0
              ],
              [
                105.65445379200895,
                -5.67717714381007,
                0.0
              ],
              [
                105.65456707600981,
                -5.677845047810649,
                0.0
              ],
              [
                105.65467091982714,
                -5.678005533628436,
                0.0
              ],
              [
                105.65477476364447,
                -5.678024413995445,
                0.0
              ],
              [
                105.65502021201326,
                -5.678081055995904,
                0.0
              ],
              [
                105.65511461564705,
                -5.678166018546847,
                0.0
              ],
              [
                105.65513349601412,
                -5.678317064181101,
                0.0
              ],
              [
                105.65518069783099,
                -5.678666356367216,
                0.0
              ],
              [
                105.65530342201538,
                -5.678722998367618,
                0.0
              ],
              [
                105.65532230238239,
                -5.679213896004455,
                0.0
              ],
              [
                105.65522789964791,
                -5.679296498734402,
                0.0
              ],
              [
                105.65556303110907,
                -5.681491376026145,
                0.0
              ],
              [
                105.65567631510993,
                -5.681859549478588,
                0.0
              ],
              [
                105.65570463655979,
                -5.682265483665105,
                0.0
              ],
              [
                105.65570463655979,
                -5.682312685481975,
                0.0
              ],
              [
                105.65584624111119,
                -5.682558133850762,
                0.0
              ],
              [
                105.65620497348078,
                -5.683587130041985,
                0.0
              ],
              [
                105.65603504747952,
                -5.684427319864881,
                0.0
              ],
              [
                105.65585868772831,
                -5.684362189163664,
                0.0
              ],
              [
                105.65552700696588,
                -5.686851684357691,
                0.0
              ],
              [
                105.65536124842293,
                -5.688168233377212,
                0.0
              ],
              [
                105.65527215528579,
                -5.688798044793884,
                0.0
              ],
              [
                105.65521902873525,
                -5.689173615170148,
                0.0
              ],
              [
                105.65529168046675,
                -5.690035149502478,
                0.0
              ],
              [
                105.65538817592363,
                -5.690848790439304,
                0.0
              ],
              [
                105.65538982887756,
                -5.692308750748225,
                0.0
              ],
              [
                105.65505657250287,
                -5.69341008570683,
                0.0
              ],
              [
                105.65559333286609,
                -5.69486287841903,
                0.0
              ],
              [
                105.65542743672688,
                -5.694856419488133,
                0.0
              ],
              [
                105.6546420398983,
                -5.694825843437854,
                0.0
              ],
              [
                105.65435571284593,
                -5.695170816180166,
                0.0
              ],
              [
                105.65387891208218,
                -5.696109563605432,
                0.0
              ],
              [
                105.65372668923538,
                -5.696722441687314,
                0.0
              ],
              [
                105.65344100969492,
                -5.697641824910249,
                0.0
              ],
              [
                105.653307705886,
                -5.698082357814542,
                0.0
              ],
              [
                105.65302122504954,
                -5.698293300994976,
                0.0
              ],
              [
                105.65256245389418,
                -5.698274674236757,
                0.0
              ],
              [
                105.65200813067077,
                -5.698275301963577,
                0.0
              ],
              [
                105.65164497543532,
                -5.698294858620784,
                0.0
              ],
              [
                105.6514356222562,
                -5.699099272513365,
                0.0
              ],
              [
                105.6512641080522,
                -5.699558996950088,
                0.0
              ],
              [
                105.65074835854995,
                -5.699865933765807,
                0.0
              ],
              [
                105.65034714490486,
                -5.700038709718626,
                0.0
              ],
              [
                105.64998396808573,
                -5.700039119809503,
                0.0
              ],
              [
                105.64963975257257,
                -5.699905478754772,
                0.0
              ],
              [
                105.64893264082878,
                -5.700021157650269,
                0.0
              ],
              [
                105.64849291731434,
                -5.699945065112615,
                0.0
              ],
              [
                105.64849373389876,
                -5.700672652620767,
                0.0
              ],
              [
                105.64841776996417,
                -5.701113121673188,
                0.0
              ],
              [
                105.64826549675536,
                -5.701687704823655,
                0.0
              ],
              [
                105.64813227388538,
                -5.702204826691343,
                0.0
              ],
              [
                105.64815194655517,
                -5.702702630222177,
                0.0
              ],
              [
                105.64803775244036,
                -5.703143138844723,
                0.0
              ],
              [
                105.64792383801478,
                -5.703832562722539,
                0.0
              ],
              [
                105.64763799569698,
                -5.704617913685695,
                0.0
              ],
              [
                105.64737077474155,
                -5.704962863045637,
                0.0
              ],
              [
                105.64712223989949,
                -5.704924848702774,
                0.0
              ],
              [
                105.64710361943656,
                -5.705365252104627,
                0.0
              ],
              [
                105.64721852401573,
                -5.705556593661811,
                0.0
              ],
              [
                105.64737217048935,
                -5.706207423134003,
                0.0
              ],
              [
                105.64744959762089,
                -5.707068952969735,
                0.0
              ],
              [
                105.64716349809703,
                -5.707624540639983,
                0.0
              ],
              [
                105.64647634680603,
                -5.708506077693301,
                0.0
              ],
              [
                105.64611335704586,
                -5.708678810478659,
                0.0
              ],
              [
                105.64569285024493,
                -5.708698430088418,
                0.0
              ],
              [
                105.64546327670894,
                -5.708526363700685,
                0.0
              ],
              [
                105.644908966076,
                -5.708546132597917,
                0.0
              ],
              [
                105.64454603567106,
                -5.708776305082381,
                0.0
              ],
              [
                105.64418338855262,
                -5.709255389224779,
                0.0
              ],
              [
                105.64383929804524,
                -5.70923662666894,
                0.0
              ],
              [
                105.64353311666008,
                -5.708930616154987,
                0.0
              ],
              [
                105.64330369510952,
                -5.708892578429698,
                0.0
              ],
              [
                105.64305543456072,
                -5.709103473946129,
                0.0
              ],
              [
                105.6430366818974,
                -5.709428996151189,
                0.0
              ],
              [
                105.64255882982621,
                -5.70944867781418,
                0.0
              ],
              [
                105.64246344683067,
                -5.709621107528051,
                0.0
              ],
              [
                105.64248394777604,
                -5.710865646932007,
                0.0
              ],
              [
                105.64235082563016,
                -5.711478501631518,
                0.0
              ],
              [
                105.64193116778921,
                -5.712264000982827,
                0.0
              ],
              [
                105.6418173756714,
                -5.712521230470372,
                0.0
              ],
              [
                105.64162609167084,
                -5.712953637999931,
                0.0
              ],
              [
                105.64145446325296,
                -5.713317624208969,
                0.0
              ],
              [
                105.64141682752461,
                -5.713853784724336,
                0.0
              ],
              [
                105.64132165766841,
                -5.714217683699076,
                0.0
              ],
              [
                105.64128436368247,
                -5.715060200068137,
                0.0
              ],
              [
                105.64082751527769,
                -5.715560286078301,
                0.0
              ],
              [
                105.64001579889009,
                -5.71617150491096,
                0.0
              ],
              [
                105.63992632084307,
                -5.71615240331073,
                0.0
              ],
              [
                105.64001430871343,
                -5.716197125696738,
                0.0
              ],
              [
                105.63988751779476,
                -5.716306545310772,
                0.0
              ],
              [
                105.63985070674477,
                -5.716365444609551,
                0.0
              ],
              [
                105.63978444559575,
                -5.716564228056654,
                0.0
              ],
              [
                105.63971818354742,
                -5.716770374253315,
                0.0
              ],
              [
                105.63968873434766,
                -5.71691025840164,
                0.0
              ],
              [
                105.63962983594826,
                -5.717050143449342,
                0.0
              ],
              [
                105.6394752263007,
                -5.717293101595317,
                0.0
              ],
              [
                105.63926171735443,
                -5.71738881194409,
                0.0
              ],
              [
                105.63913655780595,
                -5.71738881194409,
                0.0
              ],
              [
                105.63891568700939,
                -5.71738881194409,
                0.0
              ],
              [
                105.6387684401115,
                -5.717285738845703,
                0.0
              ],
              [
                105.63844449621661,
                -5.716991245049883,
                0.0
              ],
              [
                105.63823098727033,
                -5.716814548052923,
                0.0
              ],
              [
                105.63799539187391,
                -5.71671883770415,
                0.0
              ],
              [
                105.63799539187391,
                -5.716932345751104,
                0.0
              ],
              [
                105.63792913072484,
                -5.717341877225806,
                0.0
              ],
              [
                105.6376070277422,
                -5.717336355388454,
                0.0
              ],
              [
                105.6375904622301,
                -5.71797319950349,
                0.0
              ],
              [
                105.63758770131142,
                -5.718191309381382,
                0.0
              ],
              [
                105.63759414315524,
                -5.718212475825055,
                0.0
              ],
              [
                105.63760334681706,
                -5.718218917668878,
                0.0
              ],
              [
                105.63761899142338,
                -5.718255729618193,
                0.0
              ],
              [
                105.637626354173,
                -5.718285179717213,
                0.0
              ],
              [
                105.63763279601676,
                -5.718322911672999,
                0.0
              ],
              [
                105.63764936152887,
                -5.718349599954024,
                0.0
              ],
              [
                105.63767144797902,
                -5.718385490997548,
                0.0
              ],
              [
                105.63768709348466,
                -5.718423223852653,
                0.0
              ],
              [
                105.6376852525724,
                -5.718456353977501,
                0.0
              ],
              [
                105.63767696981637,
                -5.718491325014611,
                0.0
              ],
              [
                105.63766132521005,
                -5.718520775113632,
                0.0
              ],
              [
                105.63763923786058,
                -5.718576912594415,
                0.0
              ],
              [
                105.63758217947407,
                -5.718677685226965,
                0.0
              ],
              [
                105.63754352751187,
                -5.71872922177613,
                0.0
              ],
              [
                105.63750763556897,
                -5.718780758325295,
                0.0
              ],
              [
                105.63747910637574,
                -5.718825852131317,
                0.0
              ],
              [
                105.63747818636926,
                -5.71886726591157,
                0.0
              ],
              [
                105.63746438177589,
                -5.718919722467149,
                0.0
              ],
              [
                105.63745517901339,
                -5.718958375328725,
                0.0
              ],
              [
                105.63739996153907,
                -5.719006230053424,
                0.0
              ],
              [
                105.63727019926034,
                -5.719043042002738,
                0.0
              ],
              [
                105.63718921351148,
                -5.719072491202439,
                0.0
              ],
              [
                105.63685054501673,
                -5.719116665901367,
                0.0
              ],
              [
                105.63675483466795,
                -5.719175564300826,
                0.0
              ],
              [
                105.63667384891903,
                -5.719411159697188,
                0.0
              ],
              [
                105.63623210732595,
                -5.719617305893905,
                0.0
              ],
              [
                105.63582717768219,
                -5.719713017141999,
                0.0
              ],
              [
                105.63579036573287,
                -5.719816089341009,
                0.0
              ],
              [
                105.63579036573287,
                -5.719992786337968,
                0.0
              ],
              [
                105.63576091653312,
                -5.720176845185222,
                0.0
              ],
              [
                105.6357020172344,
                -5.720243106334237,
                0.0
              ],
              [
                105.63570937998395,
                -5.720633311378151,
                0.0
              ],
              [
                105.63573882918371,
                -5.720861544924333,
                0.0
              ],
              [
                105.6357314664341,
                -5.721008791822214,
                0.0
              ],
              [
                105.63559158228577,
                -5.721008791822214,
                0.0
              ],
              [
                105.63495841909582,
                -5.7209719798729,
                0.0
              ],
              [
                105.6348847951972,
                -5.721052965621823,
                0.0
              ],
              [
                105.63492804899033,
                -5.721732143523582,
                0.0
              ],
              [
                105.63489675887837,
                -5.721768955472896,
                0.0
              ],
              [
                105.63488939702813,
                -5.721792882835246,
                0.0
              ],
              [
                105.63484890415367,
                -5.721842579371469,
                0.0
              ],
              [
                105.63481761404171,
                -5.721881231333725,
                0.0
              ],
              [
                105.63481761404171,
                -5.721923565120392,
                0.0
              ],
              [
                105.63479000485489,
                -5.721930926970629,
                0.0
              ],
              [
                105.6347421501302,
                -5.721958536157445,
                0.0
              ],
              [
                105.63473294646838,
                -5.72198154351338,
                0.0
              ],
              [
                105.63472006278073,
                -5.722005470875729,
                0.0
              ],
              [
                105.63471086001823,
                -5.722022036387841,
                0.0
              ],
              [
                105.63471822186852,
                -5.722055167412009,
                0.0
              ],
              [
                105.63474951198043,
                -5.722075413849211,
                0.0
              ],
              [
                105.63475135289269,
                -5.722108543974059,
                0.0
              ],
              [
                105.6347715993299,
                -5.722160080523224,
                0.0
              ],
              [
                105.63476423658034,
                -5.722264994533816,
                0.0
              ],
              [
                105.63475319290558,
                -5.722329414770627,
                0.0
              ],
              [
                105.63472006278073,
                -5.722382792232054,
                0.0
              ],
              [
                105.63466116348195,
                -5.722506111767586,
                0.0
              ],
              [
                105.6346556416446,
                -5.722585256604248,
                0.0
              ],
              [
                105.63466484530642,
                -5.722680967852341,
                0.0
              ],
              [
                105.63466484530642,
                -5.722745388089152,
                0.0
              ],
              [
                105.63466576531289,
                -5.722860424868657,
                0.0
              ],
              [
                105.63467312806245,
                -5.722885273136797,
                0.0
              ],
              [
                105.63468417083789,
                -5.722924846004787,
                0.0
              ],
              [
                105.63468969267524,
                -5.722949693373607,
                0.0
              ],
              [
                105.63468969267524,
                -5.722992947166745,
                0.0
              ],
              [
                105.63468877266877,
                -5.723003070834977,
                0.0
              ],
              [
                105.63467772899406,
                -5.723022397265765,
                0.0
              ],
              [
                105.63466576531289,
                -5.723038961878558,
                0.0
              ],
              [
                105.63465748255686,
                -5.723047244634586,
                0.0
              ],
              [
                105.63463631611313,
                -5.723048165540376,
                0.0
              ],
              [
                105.63462251151975,
                -5.723048165540376,
                0.0
              ],
              [
                105.63460962693279,
                -5.723048165540376,
                0.0
              ],
              [
                105.63460870692637,
                -5.723050005553262,
                0.0
              ],
              [
                105.63460594600764,
                -5.723064730153112,
                0.0
              ],
              [
                105.63460410599475,
                -5.723092339339928,
                0.0
              ],
              [
                105.63458201864529,
                -5.723107063939779,
                0.0
              ],
              [
                105.63456729404544,
                -5.723139734511108,
                0.0
              ],
              [
                105.63457833772014,
                -5.723155379117429,
                0.0
              ],
              [
                105.63458661957691,
                -5.723187590135126,
                0.0
              ],
              [
                105.63458938049558,
                -5.723201394728562,
                0.0
              ],
              [
                105.63459030140137,
                -5.723221641165765,
                0.0
              ],
              [
                105.63459030140137,
                -5.723232683941148,
                0.0
              ],
              [
                105.63459674324514,
                -5.723237285772086,
                0.0
              ],
              [
                105.63461330875725,
                -5.723261213134435,
                0.0
              ],
              [
                105.63461330875725,
                -5.723274097721401,
                0.0
              ],
              [
                105.6346188305946,
                -5.723296185070865,
                0.0
              ],
              [
                105.63462251151975,
                -5.723321953345419,
                0.0
              ],
              [
                105.63462527243843,
                -5.723341278876887,
                0.0
              ],
              [
                105.63463355519445,
                -5.723368888063703,
                0.0
              ],
              [
                105.63464459886922,
                -5.723392815426052,
                0.0
              ],
              [
                105.63464275795695,
                -5.723413061863255,
                0.0
              ],
              [
                105.63463815612607,
                -5.723441591056542,
                0.0
              ],
              [
                105.63464091704475,
                -5.72347564208718,
                0.0
              ],
              [
                105.63464275795695,
                -5.723479323012327,
                0.0
              ],
              [
                105.63465380163171,
                -5.72350049035532,
                0.0
              ],
              [
                105.63466300439421,
                -5.723523497711199,
                0.0
              ],
              [
                105.63466484530642,
                -5.723547425073548,
                0.0
              ],
              [
                105.63466944623804,
                -5.723573193348159,
                0.0
              ],
              [
                105.63467404806892,
                -5.723590678866685,
                0.0
              ],
              [
                105.63467588898118,
                -5.723624729897324,
                0.0
              ],
              [
                105.63466484530642,
                -5.723655100002816,
                0.0
              ],
              [
                105.63465196071945,
                -5.723668903696876,
                0.0
              ],
              [
                105.63463999703828,
                -5.723695592877277,
                0.0
              ],
              [
                105.63462435243196,
                -5.723725502529874,
                0.0
              ],
              [
                105.6346280333571,
                -5.723750349898694,
                0.0
              ],
              [
                105.63463355519445,
                -5.723778879091924,
                0.0
              ],
              [
                105.63463355519445,
                -5.723795444604036,
                0.0
              ],
              [
                105.6346372361196,
                -5.723813850129034,
                0.0
              ],
              [
                105.63464091704475,
                -5.723835937478498,
                0.0
              ],
              [
                105.6346464388821,
                -5.723859864840847,
                0.0
              ],
              [
                105.6346464388821,
                -5.72389115495281,
                0.0
              ],
              [
                105.6346464388821,
                -5.723912322295803,
                0.0
              ],
              [
                105.63465150116593,
                -5.723926356216339,
                0.0
              ],
              [
                105.63465656255039,
                -5.723933718965895,
                0.0
              ],
              [
                105.63465426118529,
                -5.723944762640656,
                0.0
              ],
              [
                105.63465196071945,
                -5.723959947693402,
                0.0
              ],
              [
                105.63463861657897,
                -5.723987555980898,
                0.0
              ],
              [
                105.6346188305946,
                -5.724008262870996,
                0.0
              ],
              [
                105.63460594600764,
                -5.72401792608639,
                0.0
              ],
              [
                105.63460226508255,
                -5.724026208842417,
                0.0
              ],
              [
                105.63460226508255,
                -5.724045534373886,
                0.0
              ],
              [
                105.63460410599475,
                -5.724063019892412,
                0.0
              ],
              [
                105.63461054783858,
                -5.724077745391583,
                0.0
              ],
              [
                105.63462757290421,
                -5.724093389997904,
                0.0
              ],
              [
                105.63464183795054,
                -5.724135263331675,
                0.0
              ],
              [
                105.63468233082494,
                -5.724193471951139,
                0.0
              ],
              [
                105.63468785266235,
                -5.724201294254271,
                0.0
              ],
              [
                105.63469383405328,
                -5.72421049791609,
                0.0
              ],
              [
                105.63470119680284,
                -5.724221540691531,
                0.0
              ],
              [
                105.63470533818088,
                -5.72423304481913,
                0.0
              ],
              [
                105.63470533818088,
                -5.724247308966085,
                0.0
              ],
              [
                105.63469981634353,
                -5.724263874478197,
                0.0
              ],
              [
                105.63469153358744,
                -5.724293094350799,
                0.0
              ],
              [
                105.63468233082494,
                -5.724321163091133,
                0.0
              ],
              [
                105.63468233082494,
                -5.724342789987702,
                0.0
              ],
              [
                105.63469015312813,
                -5.724336348143879,
                0.0
              ],
              [
                105.63469383405328,
                -5.724363956431375,
                0.0
              ],
              [
                105.63469015312813,
                -5.724387884693101,
                0.0
              ],
              [
                105.63467726944049,
                -5.724389724705986,
                0.0
              ],
              [
                105.63470303681578,
                -5.72441181205545,
                0.0
              ],
              [
                105.63469751587769,
                -5.72443666032359,
                0.0
              ],
              [
                105.63470119680284,
                -5.724455065848588,
                0.0
              ],
              [
                105.63470890399276,
                -5.724483134588922,
                0.0
              ],
              [
                105.63474755685434,
                -5.725272747439305,
                0.0
              ],
              [
                105.6338852401118,
                -5.725177037090532,
                0.0
              ],
              [
                105.63282716973816,
                -5.728510723191278,
                0.0
              ],
              [
                105.63352575411034,
                -5.729992855385944,
                0.0
              ],
              [
                105.63419601793197,
                -5.73144430720896,
                0.0
              ],
              [
                105.63409217411458,
                -5.73144430720896,
                0.0
              ],
              [
                105.63427154029938,
                -5.731972965579871,
                0.0
              ],
              [
                105.6341204955645,
                -5.732100410305634,
                0.0
              ],
              [
                105.63429042156577,
                -5.732732912493873,
                0.0
              ],
              [
                105.6345358699345,
                -5.733360694140686,
                0.0
              ],
              [
                105.63470876279922,
                -5.73367213476115,
                0.0
              ],
              [
                105.63497868351948,
                -5.734038454710856,
                0.0
              ],
              [
                105.63511364298029,
                -5.734327655097161,
                0.0
              ],
              [
                105.63530644323782,
                -5.734693975046866,
                0.0
              ],
              [
                105.63540284336659,
                -5.734944615201755,
                0.0
              ],
              [
                105.635460683264,
                -5.73507957556194,
                0.0
              ],
              [
                105.63565348352148,
                -5.735407335280229,
                0.0
              ],
              [
                105.6358270032137,
                -5.735792935795303,
                0.0
              ],
              [
                105.63588484401038,
                -5.73594717582148,
                0.0
              ],
              [
                105.63590412367643,
                -5.736005015718831,
                0.0
              ],
              [
                105.63601980347119,
                -5.736409895899953,
                0.0
              ],
              [
                105.63623188429409,
                -5.737065416235907,
                0.0
              ],
              [
                105.63625116396008,
                -5.737393176853573,
                0.0
              ],
              [
                105.6363668437549,
                -5.73766309667451,
                0.0
              ],
              [
                105.6363668437549,
                -5.737990857292175,
                0.0
              ],
              [
                105.6362897241915,
                -5.73831861701052,
                0.0
              ],
              [
                105.63625116396008,
                -5.738492137602009,
                0.0
              ],
              [
                105.63596371994976,
                -5.738971791914594,
                0.0
              ],
              [
                105.63372293406621,
                -5.740283436931009,
                0.0
              ],
              [
                105.63347147193093,
                -5.740312319557859,
                0.0
              ],
              [
                105.63271624555836,
                -5.740293439190793,
                0.0
              ],
              [
                105.63226310955491,
                -5.740123513189531,
                0.0
              ],
              [
                105.63152676354935,
                -5.739651495919759,
                0.0
              ],
              [
                105.6310169855455,
                -5.739330525183561,
                0.0
              ],
              [
                105.63037504317379,
                -5.738745223912929,
                0.0
              ],
              [
                105.62986638482585,
                -5.73791316306199,
                0.0
              ],
              [
                105.62860306398028,
                -5.736392355522753,
                0.0
              ],
              [
                105.62684525090765,
                -5.730679502157273,
                0.0
              ],
              [
                105.62666554477914,
                -5.730224954218215,
                0.0
              ],
              [
                105.62629096725442,
                -5.729405792343414,
                0.0
              ],
              [
                105.62631770230018,
                -5.728968802768009,
                0.0
              ],
              [
                105.62629310494287,
                -5.728322614696879,
                0.0
              ],
              [
                105.62605336457119,
                -5.727592893097494,
                0.0
              ],
              [
                105.62589733309551,
                -5.726934878941449,
                0.0
              ],
              [
                105.62531172155877,
                -5.726756012779731,
                0.0
              ],
              [
                105.62489326880939,
                -5.726481229425133,
                0.0
              ],
              [
                105.624719737426,
                -5.726365623374761,
                0.0
              ],
              [
                105.62435525209327,
                -5.726122806422325,
                0.0
              ],
              [
                105.62390077699933,
                -5.725680523437347,
                0.0
              ],
              [
                105.62343434092213,
                -5.725226286663769,
                0.0
              ],
              [
                105.62277662174375,
                -5.724652585748174,
                0.0
              ],
              [
                105.62245359425805,
                -5.724234092529286,
                0.0
              ],
              [
                105.6222261035519,
                -5.723779594952305,
                0.0
              ],
              [
                105.62168822083476,
                -5.723540838438907,
                0.0
              ],
              [
                105.62157514997324,
                -5.723505878193691,
                0.0
              ],
              [
                105.62083968710192,
                -5.723278482815658,
                0.0
              ],
              [
                105.6200988193051,
                -5.7231476494444,
                0.0
              ],
              [
                105.61915561573915,
                -5.723022122972566,
                0.0
              ],
              [
                105.6193072459327,
                -5.722641227710426,
                0.0
              ],
              [
                105.6203928940169,
                -5.721204017551315,
                0.0
              ],
              [
                105.62135941160761,
                -5.720090043520656,
                0.0
              ],
              [
                105.62197984669262,
                -5.719335452069402,
                0.0
              ],
              [
                105.62221774255482,
                -5.71836586868983,
                0.0
              ],
              [
                105.62199021767447,
                -5.71787547017675,
                0.0
              ],
              [
                105.62196579478564,
                -5.717384849531129,
                0.0
              ],
              [
                105.62204895869257,
                -5.716953947466664,
                0.0
              ],
              [
                105.6224418275284,
                -5.715673056566288,
                0.0
              ],
              [
                105.62267845624581,
                -5.71353071047389,
                0.0
              ],
              [
                105.62288063553297,
                -5.71268083495255,
                0.0
              ],
              [
                105.62317849459191,
                -5.711926595136219,
                0.0
              ],
              [
                105.6238108034259,
                -5.711112152903468,
                0.0
              ],
              [
                105.62453942515441,
                -5.710979725933555,
                0.0
              ],
              [
                105.62510069743928,
                -5.710763708778074,
                0.0
              ],
              [
                105.62551859350833,
                -5.710535882624811,
                0.0
              ],
              [
                105.62732208404702,
                -5.710079172715609,
                0.0
              ],
              [
                105.62973417099528,
                -5.708987541441843,
                0.0
              ],
              [
                105.63057056927641,
                -5.709094327840887,
                0.0
              ],
              [
                105.63159802762692,
                -5.709117133748691,
                0.0
              ],
              [
                105.63220697657079,
                -5.708805323506851,
                0.0
              ],
              [
                105.63256502995222,
                -5.708481822078397,
                0.0
              ],
              [
                105.63254075725018,
                -5.708137200971009,
                0.0
              ],
              [
                105.63223420444501,
                -5.707486535175406,
                0.0
              ],
              [
                105.63227195078997,
                -5.707046110189765,
                0.0
              ],
              [
                105.63196443571019,
                -5.705514678059899,
                0.0
              ],
              [
                105.63213529520777,
                -5.704442249110457,
                0.0
              ],
              [
                105.63209427982719,
                -5.701895725207521,
                0.0
              ],
              [
                105.63257072266077,
                -5.700593196618684,
                0.0
              ],
              [
                105.63316206287897,
                -5.699482014083628,
                0.0
              ],
              [
                105.63463147506258,
                -5.697278475421228,
                0.0
              ],
              [
                105.6372493754584,
                -5.694265659332643,
                0.0
              ],
              [
                105.63724465581629,
                -5.694264146672992,
                0.0
              ],
              [
                105.63728826664027,
                -5.693506554184069,
                0.0
              ],
              [
                105.63728241655036,
                -5.693136026306547,
                0.0
              ],
              [
                105.63730129781669,
                -5.69306050393908,
                0.0
              ],
              [
                105.63733905855077,
                -5.693022742305686,
                0.0
              ],
              [
                105.63747122381801,
                -5.692815055570293,
                0.0
              ],
              [
                105.63764114981927,
                -5.692588487568571,
                0.0
              ],
              [
                105.63766003018628,
                -5.692512964301841,
                0.0
              ],
              [
                105.63766003018628,
                -5.692305277566447,
                0.0
              ],
              [
                105.63752786581841,
                -5.692078709564726,
                0.0
              ],
              [
                105.63747122381801,
                -5.691927663930471,
                0.0
              ],
              [
                105.63735793981715,
                -5.691606693194274,
                0.0
              ],
              [
                105.63735793981715,
                -5.691474527927085,
                0.0
              ],
              [
                105.63733905855077,
                -5.690794823921919,
                0.0
              ],
              [
                105.63741458181755,
                -5.690492733552787,
                0.0
              ],
              [
                105.63741458181755,
                -5.690360569184861,
                0.0
              ],
              [
                105.63752786581841,
                -5.690190643183598,
                0.0
              ],
              [
                105.637886598188,
                -5.689888551915089,
                0.0
              ],
              [
                105.63816980819018,
                -5.68975638754722,
                0.0
              ],
              [
                105.63830197255805,
                -5.68975638754722,
                0.0
              ],
              [
                105.63856630219317,
                -5.689492057912105,
                0.0
              ],
              [
                105.6387173469281,
                -5.689227729176309,
                0.0
              ],
              [
                105.6387173469281,
                -5.689208847909981,
                0.0
              ],
              [
                105.63873622819443,
                -5.688699069906079,
                0.0
              ],
              [
                105.63903831856362,
                -5.688510263537808,
                0.0
              ],
              [
                105.63903831856362,
                -5.688208173168618,
                0.0
              ],
              [
                105.63901943819656,
                -5.688189291902233,
                0.0
              ],
              [
                105.63888727292937,
                -5.687736155898847,
                0.0
              ],
              [
                105.63934040893281,
                -5.687174456435969,
                0.0
              ],
              [
                105.63940649201606,
                -5.68715557606896,
                0.0
              ],
              [
                105.6394348125666,
                -5.687117814435567,
                0.0
              ],
              [
                105.63960473856787,
                -5.687117814435567,
                0.0
              ],
              [
                105.63977466456919,
                -5.687089493884969,
                0.0
              ],
              [
                105.63991627001991,
                -5.686966768801312,
                0.0
              ],
              [
                105.64006731475484,
                -5.686815724066378,
                0.0
              ],
              [
                105.64005787457131,
                -5.686787402616517,
                0.0
              ],
              [
                105.64002955402077,
                -5.686532514064254,
                0.0
              ],
              [
                105.63994459057045,
                -5.686173781694606,
                0.0
              ],
              [
                105.63998235220384,
                -5.686098258427819,
                0.0
              ],
              [
                105.64013339693878,
                -5.686041616427417,
                0.0
              ],
              [
                105.64037884620683,
                -5.685956653876417,
                0.0
              ],
              [
                105.64046380875783,
                -5.685890571692482,
                0.0
              ],
              [
                105.64056765257516,
                -5.685777287691621,
                0.0
              ],
              [
                105.64062429457562,
                -5.685579040240441,
                0.0
              ],
              [
                105.64070925712656,
                -5.685427994606243,
                0.0
              ],
              [
                105.64099246712874,
                -5.685163665870448,
                0.0
              ],
              [
                105.64088862421067,
                -5.68460196550825,
                0.0
              ],
              [
                105.64085794293976,
                -5.684500482411295,
                0.0
              ],
              [
                105.64082254112742,
                -5.684375397506528,
                0.0
              ],
              [
                105.64076589912702,
                -5.684243233138659,
                0.0
              ],
              [
                105.64075881966386,
                -5.684140569231829,
                0.0
              ],
              [
                105.64075881966386,
                -5.684062687043308,
                0.0
              ],
              [
                105.64075881966386,
                -5.684010764685013,
                0.0
              ],
              [
                105.64076353930596,
                -5.683977723593046,
                0.0
              ],
              [
                105.64081074112289,
                -5.68383847886264,
                0.0
              ],
              [
                105.64086030276081,
                -5.683762956495173,
                0.0
              ],
              [
                105.64094526621113,
                -5.683626071585877,
                0.0
              ],
              [
                105.64095942603672,
                -5.683574149227582,
                0.0
              ],
              [
                105.64095706621572,
                -5.683500986681167,
                0.0
              ],
              [
                105.64098774748663,
                -5.683430184855126,
                0.0
              ],
              [
                105.64105382967057,
                -5.683267339216286,
                0.0
              ],
              [
                105.64119307440092,
                -5.683134583993819,
                0.0
              ],
              [
                105.64121667530935,
                -5.683030740176491,
                0.0
              ],
              [
                105.64117891367596,
                -5.68287497490013,
                0.0
              ],
              [
                105.64114587258399,
                -5.682775851624228,
                0.0
              ],
              [
                105.64108923058359,
                -5.682653127439835,
                0.0
              ],
              [
                105.64103258858313,
                -5.682563444347409,
                0.0
              ],
              [
                105.64098538766558,
                -5.68245960053008,
                0.0
              ],
              [
                105.64090514475669,
                -5.68230383525372,
                0.0
              ],
              [
                105.64084850275628,
                -5.682138628894563,
                0.0
              ],
              [
                105.64084850275628,
                -5.681536807977238,
                0.0
              ],
              [
                105.64085794293976,
                -5.681181025383978,
                0.0
              ],
              [
                105.64086030276081,
                -5.681147984292011,
                0.0
              ],
              [
                105.64085794293976,
                -5.680794561519747,
                0.0
              ],
              [
                105.64083737004864,
                -5.680176113936454,
                0.0
              ],
              [
                105.64096178675709,
                -5.680169139693987,
                0.0
              ],
              [
                105.64107507075795,
                -5.680121937877061,
                0.0
              ],
              [
                105.64112227167556,
                -5.680074736060192,
                0.0
              ],
              [
                105.64115059312542,
                -5.679914250242405,
                0.0
              ],
              [
                105.64121667530935,
                -5.679697123323535,
                0.0
              ],
              [
                105.64123555567642,
                -5.679451674055485,
                0.0
              ],
              [
                105.64123555567642,
                -5.67910238186937,
                0.0
              ],
              [
                105.64117891367596,
                -5.678894694234714,
                0.0
              ],
              [
                105.64152018390939,
                -5.678700193359191,
                0.0
              ],
              [
                105.641575407679,
                -5.678762529866788,
                0.0
              ],
              [
                105.6416698113128,
                -5.678753089683312,
                0.0
              ],
              [
                105.64173117385462,
                -5.678762529866788,
                0.0
              ],
              [
                105.64181613640562,
                -5.678786130775279,
                0.0
              ],
              [
                105.64191054003948,
                -5.678833332592205,
                0.0
              ],
              [
                105.64203326422381,
                -5.678875813867649,
                0.0
              ],
              [
                105.64211822677481,
                -5.678937176409534,
                0.0
              ],
              [
                105.64228815277608,
                -5.679116542594329,
                0.0
              ],
              [
                105.64249112076868,
                -5.679234546237296,
                0.0
              ],
              [
                105.64251944131922,
                -5.679163744411255,
                0.0
              ],
              [
                105.64256664313615,
                -5.679003258593468,
                0.0
              ],
              [
                105.64258552350316,
                -5.67889941477614,
                0.0
              ],
              [
                105.64256664313615,
                -5.67877197005032,
                0.0
              ],
              [
                105.64268936732049,
                -5.677881038678947,
                0.0
              ],
              [
                105.64273420931636,
                -5.677614349222779,
                0.0
              ],
              [
                105.6428179919568,
                -5.677623199451034,
                0.0
              ],
              [
                105.64293599559977,
                -5.676919895436754,
                0.0
              ],
              [
                105.64282743214034,
                -5.676860892715979,
                0.0
              ],
              [
                105.64300679832513,
                -5.676030143975936,
                0.0
              ],
              [
                105.64310356178004,
                -5.675501484705705,
                0.0
              ],
              [
                105.6431082823214,
                -5.675477883797271,
                0.0
              ],
              [
                105.64312244304637,
                -5.675437762342824,
                0.0
              ],
              [
                105.6431318832299,
                -5.675390561425218,
                0.0
              ],
              [
                105.64314604305548,
                -5.675293797970369,
                0.0
              ],
              [
                105.64315784395939,
                -5.675244236332389,
                0.0
              ],
              [
                105.64319560559278,
                -5.67515927288207,
                0.0
              ],
              [
                105.64324752705181,
                -5.675107351423094,
                0.0
              ],
              [
                105.64329000832726,
                -5.675093190698135,
                0.0
              ],
              [
                105.6433726110572,
                -5.675038908518786,
                0.0
              ],
              [
                105.64338913160321,
                -5.675010587968188,
                0.0
              ],
              [
                105.64324083879376,
                -5.67479458700052,
                0.0
              ],
              [
                105.64316728414292,
                -5.674640054694748,
                0.0
              ],
              [
                105.64305400014206,
                -5.674479568876961,
                0.0
              ],
              [
                105.6429973581416,
                -5.674385165243109,
                0.0
              ],
              [
                105.64282743214034,
                -5.67416803832424,
                0.0
              ],
              [
                105.64269526777247,
                -5.674016992689985,
                0.0
              ],
              [
                105.64225433826715,
                -5.673347009456847,
                0.0
              ],
              [
                105.64217604958509,
                -5.672940794681892,
                0.0
              ],
              [
                105.64267638650608,
                -5.672549021220334,
                0.0
              ],
              [
                105.64280855177333,
                -5.672530139953949,
                0.0
              ],
              [
                105.64275190977287,
                -5.672341333585621,
                0.0
              ],
              [
                105.64261974450568,
                -5.671774913581373,
                0.0
              ],
              [
                105.64292183577419,
                -5.671548345579652,
                0.0
              ],
              [
                105.64314840377585,
                -5.671548345579652,
                0.0
              ],
              [
                105.64341273251165,
                -5.671510583946258,
                0.0
              ],
              [
                105.6436204201463,
                -5.671359539211323,
                0.0
              ],
              [
                105.6439225105155,
                -5.671340657944938,
                0.0
              ],
              [
                105.64401691414935,
                -5.6710763292092,
                0.0
              ],
              [
                105.64403579451636,
                -5.670793119207019,
                0.0
              ],
              [
                105.64435676615187,
                -5.670509909204895,
                0.0
              ],
              [
                105.64490430578917,
                -5.670151176835304,
                0.0
              ],
              [
                105.64541408379301,
                -5.669634318468979,
                0.0
              ],
              [
                105.64549432580253,
                -5.669502153201734,
                0.0
              ],
              [
                105.64557928925285,
                -5.669384149558823,
                0.0
              ],
              [
                105.64561233034482,
                -5.669275585200069,
                0.0
              ],
              [
                105.64560289016129,
                -5.669049017198347,
                0.0
              ],
              [
                105.64561233034482,
                -5.668751647370584,
                0.0
              ],
              [
                105.64563121071188,
                -5.668548680277354,
                0.0
              ],
              [
                105.64560289016129,
                -5.668241869366739,
                0.0
              ],
              [
                105.64563593125331,
                -5.668133305007984,
                0.0
              ],
              [
                105.64573505452921,
                -5.66806722282405,
                0.0
              ],
              [
                105.64594274216387,
                -5.668020021007123,
                0.0
              ],
              [
                105.64615986998206,
                -5.668005861181484,
                0.0
              ],
              [
                105.64639115762589,
                -5.668010580823591,
                0.0
              ],
              [
                105.64642419871785,
                -5.668048342456984,
                0.0
              ],
              [
                105.6467546105369,
                -5.668114424640919,
                0.0
              ],
              [
                105.64680653289525,
                -5.668043621915558,
                0.0
              ],
              [
                105.64678293198676,
                -5.667576326086532,
                0.0
              ],
              [
                105.64706614198894,
                -5.667458321544245,
                0.0
              ],
              [
                105.64699533926358,
                -5.667214053086013,
                0.0
              ],
              [
                105.64678293198676,
                -5.666605151806266,
                0.0
              ],
              [
                105.6471794259898,
                -5.666472986539077,
                0.0
              ],
              [
                105.64732575108263,
                -5.666373863263118,
                0.0
              ],
              [
                105.64724225802382,
                -5.665447329530593,
                0.0
              ]
            ]
          ]
        ]
      }
    }
  ]
}