{
  "type": "FeatureCollection",
  "name": "Batas_Desa_Negeri_Pandan",
  "features": [
    {
      "type": "Feature",
      "properties": {
        "nama": "Negeri Pandan",
        "kecamatan": "Kalianda",
        "kabupaten": "Lampung Selatan",
        "provinsi": "Lampung",
        "luasHa": 773.8159297
      },
      "geometry": {
        "type": "Polygon",
        "coordinates": [
          [
            [
              105.6472423,
              -5.6654473
            ],
            [
              105.6472408,
              -5.6654782
            ],
            [
              105.6472125,
              -5.6654782
            ],
            [
              105.6472125,
              -5.6654688
            ],
            [
              105.6472125,
              -5.6654593
            ],
            [
              105.6472125,
              -5.6654499
            ],
            [
              105.6472219,
              -5.665431
            ],
            [
              105.6472408,
              -5.665431
            ],
            [
              105.6472423,
              -5.6654473
            ],
            [
              105.6472423,
              -5.6654473
            ],
            [
              105.6472597,
              -5.6650817
            ],
            [
              105.6474862,
              -5.6647135
            ],
            [
              105.6474957,
              -5.6645719
            ],
            [
              105.6472502,
              -5.6644303
            ],
            [
              105.6473258,
              -5.6640268
            ],
            [
              105.6473352,
              -5.6640268
            ],
            [
              105.6474013,
              -5.6635264
            ],
            [
              105.6475901,
              -5.6633848
            ],
            [
              105.6478544,
              -5.6633282
            ],
            [
              105.6480715,
              -5.6632904
            ],
            [
              105.6481565,
              -5.6632149
            ],
            [
              105.6483642,
              -5.6631299
            ],
            [
              105.648553,
              -5.6630166
            ],
            [
              105.6486002,
              -5.662875
            ],
            [
              105.6487442,
              -5.6624691
            ],
            [
              105.6489707,
              -5.6623747
            ],
            [
              105.6492445,
              -5.6622709
            ],
            [
              105.6493389,
              -5.6622142
            ],
            [
              105.6494616,
              -5.662016
            ],
            [
              105.6496316,
              -5.6619593
            ],
            [
              105.6499714,
              -5.661846
            ],
            [
              105.6501885,
              -5.6618083
            ],
            [
              105.6506228,
              -5.6617611
            ],
            [
              105.651057,
              -5.6617233
            ],
            [
              105.6512081,
              -5.6617988
            ],
            [
              105.6511231,
              -5.6622237
            ],
            [
              105.651142,
              -5.6625729
            ],
            [
              105.6513119,
              -5.6628278
            ],
            [
              105.6515579,
              -5.6633222
            ],
            [
              105.6516285,
              -5.6637796
            ],
            [
              105.6516506,
              -5.6638679
            ],
            [
              105.651669,
              -5.6639415
            ],
            [
              105.6516837,
              -5.6640004
            ],
            [
              105.6516825,
              -5.6640704
            ],
            [
              105.6517249,
              -5.6641412
            ],
            [
              105.6518099,
              -5.6642675
            ],
            [
              105.6518288,
              -5.6643383
            ],
            [
              105.6518335,
              -5.6643855
            ],
            [
              105.6518005,
              -5.6645035
            ],
            [
              105.6517816,
              -5.6645837
            ],
            [
              105.6517721,
              -5.6647537
            ],
            [
              105.6517485,
              -5.6649094
            ],
            [
              105.6517297,
              -5.6650652
            ],
            [
              105.6517013,
              -5.6652162
            ],
            [
              105.6516589,
              -5.665372
            ],
            [
              105.6516447,
              -5.6654853
            ],
            [
              105.6516353,
              -5.6655891
            ],
            [
              105.6514842,
              -5.6656788
            ],
            [
              105.6513898,
              -5.6657284
            ],
            [
              105.6513662,
              -5.665752
            ],
            [
              105.6513049,
              -5.6657709
            ],
            [
              105.651319,
              -5.6658841
            ],
            [
              105.6513898,
              -5.6659361
            ],
            [
              105.6513993,
              -5.6660777
            ],
            [
              105.6513332,
              -5.6662004
            ],
            [
              105.6513568,
              -5.6662665
            ],
            [
              105.6514229,
              -5.6664016
            ],
            [
              105.6514276,
              -5.6664535
            ],
            [
              105.6514771,
              -5.666522
            ],
            [
              105.6514016,
              -5.6665408
            ],
            [
              105.6513426,
              -5.6665172
            ],
            [
              105.6512435,
              -5.6665031
            ],
            [
              105.6510169,
              -5.6664984
            ],
            [
              105.6508517,
              -5.6664276
            ],
            [
              105.650847,
              -5.6664417
            ],
            [
              105.6508423,
              -5.6664984
            ],
            [
              105.650965,
              -5.6666116
            ],
            [
              105.6509084,
              -5.6668477
            ],
            [
              105.6511444,
              -5.6668571
            ],
            [
              105.6512482,
              -5.6669421
            ],
            [
              105.6511916,
              -5.6670742
            ],
            [
              105.6510972,
              -5.667433
            ],
            [
              105.6511349,
              -5.6676218
            ],
            [
              105.6513049,
              -5.6677539
            ],
            [
              105.6513804,
              -5.6678955
            ],
            [
              105.6513898,
              -5.6681504
            ],
            [
              105.6514512,
              -5.6681363
            ],
            [
              105.6514842,
              -5.6680985
            ],
            [
              105.6515361,
              -5.668082
            ],
            [
              105.6516471,
              -5.6680489
            ],
            [
              105.6517957,
              -5.6681717
            ],
            [
              105.6518311,
              -5.6682354
            ],
            [
              105.6519043,
              -5.6683038
            ],
            [
              105.6520577,
              -5.6682849
            ],
            [
              105.6521592,
              -5.6682212
            ],
            [
              105.6522135,
              -5.6682566
            ],
            [
              105.6523338,
              -5.6683133
            ],
            [
              105.6524849,
              -5.6683321
            ],
            [
              105.6525415,
              -5.6684537
            ],
            [
              105.6525415,
              -5.6685056
            ],
            [
              105.6525415,
              -5.6685528
            ],
            [
              105.6526076,
              -5.6686
            ],
            [
              105.6525982,
              -5.6686661
            ],
            [
              105.6525651,
              -5.6688219
            ],
            [
              105.6528153,
              -5.6692738
            ],
            [
              105.6529097,
              -5.6694154
            ],
            [
              105.6530088,
              -5.669524
            ],
            [
              105.6531268,
              -5.6696325
            ],
            [
              105.6531788,
              -5.6698402
            ],
            [
              105.6532873,
              -5.6699866
            ],
            [
              105.6535233,
              -5.6699535
            ],
            [
              105.6535965,
              -5.6701111
            ],
            [
              105.6535611,
              -5.6702267
            ],
            [
              105.6536107,
              -5.6704651
            ],
            [
              105.6536248,
              -5.6705477
            ],
            [
              105.6536531,
              -5.6706468
            ],
            [
              105.6537192,
              -5.670779
            ],
            [
              105.6538042,
              -5.6708946
            ],
            [
              105.6538608,
              -5.6709394
            ],
            [
              105.6539434,
              -5.6709654
            ],
            [
              105.6540337,
              -5.6709772
            ],
            [
              105.6540313,
              -5.6709772
            ],
            [
              105.6540148,
              -5.6710291
            ],
            [
              105.6538779,
              -5.6714775
            ],
            [
              105.6538402,
              -5.6717466
            ],
            [
              105.6538638,
              -5.6720581
            ],
            [
              105.6538825,
              -5.6724239
            ],
            [
              105.6540384,
              -5.6735001
            ],
            [
              105.6539723,
              -5.6739155
            ],
            [
              105.6532171,
              -5.6742341
            ],
            [
              105.653151,
              -5.674404
            ],
            [
              105.6531605,
              -5.6745362
            ],
            [
              105.6532549,
              -5.6746306
            ],
            [
              105.6534626,
              -5.6747061
            ],
            [
              105.6536986,
              -5.6746778
            ],
            [
              105.6538024,
              -5.67481
            ],
            [
              105.6538779,
              -5.6749705
            ],
            [
              105.6538685,
              -5.6751782
            ],
            [
              105.6537835,
              -5.6752159
            ],
            [
              105.6542083,
              -5.6752914
            ],
            [
              105.6547464,
              -5.6764054
            ],
            [
              105.6546804,
              -5.6766202
            ],
            [
              105.6547181,
              -5.6770544
            ],
            [
              105.6544538,
              -5.6771771
            ],
            [
              105.6545671,
              -5.677845
            ],
            [
              105.6546709,
              -5.6780055
            ],
            [
              105.6547748,
              -5.6780244
            ],
            [
              105.6550202,
              -5.6780811
            ],
            [
              105.6551146,
              -5.678166
            ],
            [
              105.6551335,
              -5.6783171
            ],
            [
              105.6551807,
              -5.6786664
            ],
            [
              105.6553034,
              -5.678723
            ],
            [
              105.6553223,
              -5.6792139
            ],
            [
              105.6552279,
              -5.6792965
            ],
            [
              105.655563,
              -5.6814914
            ],
            [
              105.6556763,
              -5.6818595
            ],
            [
              105.6557046,
              -5.6822655
            ],
            [
              105.6557046,
              -5.6823127
            ],
            [
              105.6558462,
              -5.6825581
            ],
            [
              105.656205,
              -5.6835871
            ],
            [
              105.656035,
              -5.6844273
            ],
            [
              105.6558587,
              -5.6843622
            ],
            [
              105.655527,
              -5.6868517
            ],
            [
              105.6553612,
              -5.6881682
            ],
            [
              105.6552722,
              -5.688798
            ],
            [
              105.655219,
              -5.6891736
            ],
            [
              105.6552917,
              -5.6900351
            ],
            [
              105.6553882,
              -5.6908488
            ],
            [
              105.6553898,
              -5.6923088
            ],
            [
              105.6550566,
              -5.6934101
            ],
            [
              105.6555933,
              -5.6948629
            ],
            [
              105.6554274,
              -5.6948564
            ],
            [
              105.654642,
              -5.6948258
            ],
            [
              105.6543557,
              -5.6951708
            ],
            [
              105.6538789,
              -5.6961096
            ],
            [
              105.6537267,
              -5.6967224
            ],
            [
              105.653441,
              -5.6976418
            ],
            [
              105.6533077,
              -5.6980824
            ],
            [
              105.6530212,
              -5.6982933
            ],
            [
              105.6525625,
              -5.6982747
            ],
            [
              105.6520081,
              -5.6982753
            ],
            [
              105.651645,
              -5.6982949
            ],
            [
              105.6514356,
              -5.6990993
            ],
            [
              105.6512641,
              -5.699559
            ],
            [
              105.6507484,
              -5.6998659
            ],
            [
              105.6503471,
              -5.7000387
            ],
            [
              105.649984,
              -5.7000391
            ],
            [
              105.6496398,
              -5.6999055
            ],
            [
              105.6489326,
              -5.7000212
            ],
            [
              105.6484929,
              -5.6999451
            ],
            [
              105.6484937,
              -5.7006727
            ],
            [
              105.6484178,
              -5.7011131
            ],
            [
              105.6482655,
              -5.7016877
            ],
            [
              105.6481323,
              -5.7022048
            ],
            [
              105.6481519,
              -5.7027026
            ],
            [
              105.6480378,
              -5.7031431
            ],
            [
              105.6479238,
              -5.7038326
            ],
            [
              105.647638,
              -5.7046179
            ],
            [
              105.6473708,
              -5.7049629
            ],
            [
              105.6471222,
              -5.7049248
            ],
            [
              105.6471036,
              -5.7053653
            ],
            [
              105.6472185,
              -5.7055566
            ],
            [
              105.6473722,
              -5.7062074
            ],
            [
              105.6474496,
              -5.707069
            ],
            [
              105.6471635,
              -5.7076245
            ],
            [
              105.6464763,
              -5.7085061
            ],
            [
              105.6461134,
              -5.7086788
            ],
            [
              105.6456929,
              -5.7086984
            ],
            [
              105.6454633,
              -5.7085264
            ],
            [
              105.644909,
              -5.7085461
            ],
            [
              105.644546,
              -5.7087763
            ],
            [
              105.6441834,
              -5.7092554
            ],
            [
              105.6438393,
              -5.7092366
            ],
            [
              105.6435331,
              -5.7089306
            ],
            [
              105.6433037,
              -5.7088926
            ],
            [
              105.6430554,
              -5.7091035
            ],
            [
              105.6430367,
              -5.709429
            ],
            [
              105.6425588,
              -5.7094487
            ],
            [
              105.6424634,
              -5.7096211
            ],
            [
              105.6424839,
              -5.7108656
            ],
            [
              105.6423508,
              -5.7114785
            ],
            [
              105.6419312,
              -5.712264
            ],
            [
              105.6418174,
              -5.7125212
            ],
            [
              105.6416261,
              -5.7129536
            ],
            [
              105.6414545,
              -5.7133176
            ],
            [
              105.6414168,
              -5.7138538
            ],
            [
              105.6413217,
              -5.7142177
            ],
            [
              105.6412844,
              -5.7150602
            ],
            [
              105.6408275,
              -5.7155603
            ],
            [
              105.6400158,
              -5.7161715
            ],
            [
              105.6399263,
              -5.7161524
            ],
            [
              105.6400143,
              -5.7161971
            ],
            [
              105.6398875,
              -5.7163065
            ],
            [
              105.6398507,
              -5.7163654
            ],
            [
              105.6397844,
              -5.7165642
            ],
            [
              105.6397182,
              -5.7167704
            ],
            [
              105.6396887,
              -5.7169103
            ],
            [
              105.6396298,
              -5.7170501
            ],
            [
              105.6394752,
              -5.7172931
            ],
            [
              105.6392617,
              -5.7173888
            ],
            [
              105.6391366,
              -5.7173888
            ],
            [
              105.6389157,
              -5.7173888
            ],
            [
              105.6387684,
              -5.7172857
            ],
            [
              105.6384445,
              -5.7169912
            ],
            [
              105.638231,
              -5.7168145
            ],
            [
              105.6379954,
              -5.7167188
            ],
            [
              105.6379954,
              -5.7169323
            ],
            [
              105.6379291,
              -5.7173419
            ],
            [
              105.637607,
              -5.7173364
            ],
            [
              105.6375905,
              -5.7179732
            ],
            [
              105.6375877,
              -5.7181913
            ],
            [
              105.6375941,
              -5.7182125
            ],
            [
              105.6376033,
              -5.7182189
            ],
            [
              105.637619,
              -5.7182557
            ],
            [
              105.6376264,
              -5.7182852
            ],
            [
              105.6376328,
              -5.7183229
            ],
            [
              105.6376494,
              -5.7183496
            ],
            [
              105.6376714,
              -5.7183855
            ],
            [
              105.6376871,
              -5.7184232
            ],
            [
              105.6376853,
              -5.7184564
            ],
            [
              105.637677,
              -5.7184913
            ],
            [
              105.6376613,
              -5.7185208
            ],
            [
              105.6376392,
              -5.7185769
            ],
            [
              105.6375822,
              -5.7186777
            ],
            [
              105.6375435,
              -5.7187292
            ],
            [
              105.6375076,
              -5.7187808
            ],
            [
              105.6374791,
              -5.7188259
            ],
            [
              105.6374782,
              -5.7188673
            ],
            [
              105.6374644,
              -5.7189197
            ],
            [
              105.6374552,
              -5.7189584
            ],
            [
              105.6374,
              -5.7190062
            ],
            [
              105.6372702,
              -5.719043
            ],
            [
              105.6371892,
              -5.7190725
            ],
            [
              105.6368505,
              -5.7191167
            ],
            [
              105.6367548,
              -5.7191756
            ],
            [
              105.6366738,
              -5.7194112
            ],
            [
              105.6362321,
              -5.7196173
            ],
            [
              105.6358272,
              -5.719713
            ],
            [
              105.6357904,
              -5.7198161
            ],
            [
              105.6357904,
              -5.7199928
            ],
            [
              105.6357609,
              -5.7201768
            ],
            [
              105.635702,
              -5.7202431
            ],
            [
              105.6357094,
              -5.7206333
            ],
            [
              105.6357388,
              -5.7208615
            ],
            [
              105.6357315,
              -5.7210088
            ],
            [
              105.6355916,
              -5.7210088
            ],
            [
              105.6349584,
              -5.720972
            ],
            [
              105.6348848,
              -5.721053
            ],
            [
              105.634928,
              -5.7217321
            ],
            [
              105.6348968,
              -5.721769
            ],
            [
              105.6348894,
              -5.7217929
            ],
            [
              105.6348489,
              -5.7218426
            ],
            [
              105.6348176,
              -5.7218812
            ],
            [
              105.6348176,
              -5.7219236
            ],
            [
              105.63479,
              -5.7219309
            ],
            [
              105.6347422,
              -5.7219585
            ],
            [
              105.6347329,
              -5.7219815
            ],
            [
              105.6347201,
              -5.7220055
            ],
            [
              105.6347109,
              -5.722022
            ],
            [
              105.6347182,
              -5.7220552
            ],
            [
              105.6347495,
              -5.7220754
            ],
            [
              105.6347514,
              -5.7221085
            ],
            [
              105.6347716,
              -5.7221601
            ],
            [
              105.6347642,
              -5.722265
            ],
            [
              105.6347532,
              -5.7223294
            ],
            [
              105.6347201,
              -5.7223828
            ],
            [
              105.6346612,
              -5.7225061
            ],
            [
              105.6346556,
              -5.7225853
            ],
            [
              105.6346648,
              -5.722681
            ],
            [
              105.6346648,
              -5.7227454
            ],
            [
              105.6346658,
              -5.7228604
            ],
            [
              105.6346731,
              -5.7228853
            ],
            [
              105.6346842,
              -5.7229248
            ],
            [
              105.6346897,
              -5.7229497
            ],
            [
              105.6346897,
              -5.7229929
            ],
            [
              105.6346888,
              -5.7230031
            ],
            [
              105.6346777,
              -5.7230224
            ],
            [
              105.6346658,
              -5.723039
            ],
            [
              105.6346575,
              -5.7230472
            ],
            [
              105.6346363,
              -5.7230482
            ],
            [
              105.6346225,
              -5.7230482
            ],
            [
              105.6346096,
              -5.7230482
            ],
            [
              105.6346087,
              -5.72305
            ],
            [
              105.6346059,
              -5.7230647
            ],
            [
              105.6346041,
              -5.7230923
            ],
            [
              105.634582,
              -5.7231071
            ],
            [
              105.6345673,
              -5.7231397
            ],
            [
              105.6345783,
              -5.7231554
            ],
            [
              105.6345866,
              -5.7231876
            ],
            [
              105.6345894,
              -5.7232014
            ],
            [
              105.6345903,
              -5.7232216
            ],
            [
              105.6345903,
              -5.7232327
            ],
            [
              105.6345967,
              -5.7232373
            ],
            [
              105.6346133,
              -5.7232612
            ],
            [
              105.6346133,
              -5.7232741
            ],
            [
              105.6346188,
              -5.7232962
            ],
            [
              105.6346225,
              -5.723322
            ],
            [
              105.6346253,
              -5.7233413
            ],
            [
              105.6346336,
              -5.7233689
            ],
            [
              105.6346446,
              -5.7233928
            ],
            [
              105.6346428,
              -5.7234131
            ],
            [
              105.6346382,
              -5.7234416
            ],
            [
              105.6346409,
              -5.7234756
            ],
            [
              105.6346428,
              -5.7234793
            ],
            [
              105.6346538,
              -5.7235005
            ],
            [
              105.634663,
              -5.7235235
            ],
            [
              105.6346648,
              -5.7235474
            ],
            [
              105.6346694,
              -5.7235732
            ],
            [
              105.634674,
              -5.7235907
            ],
            [
              105.6346759,
              -5.7236247
            ],
            [
              105.6346648,
              -5.7236551
            ],
            [
              105.634652,
              -5.7236689
            ],
            [
              105.63464,
              -5.7236956
            ],
            [
              105.6346244,
              -5.7237255
            ],
            [
              105.634628,
              -5.7237503
            ],
            [
              105.6346336,
              -5.7237789
            ],
            [
              105.6346336,
              -5.7237954
            ],
            [
              105.6346372,
              -5.7238139
            ],
            [
              105.6346409,
              -5.7238359
            ],
            [
              105.6346464,
              -5.7238599
            ],
            [
              105.6346464,
              -5.7238912
            ],
            [
              105.6346464,
              -5.7239123
            ],
            [
              105.6346515,
              -5.7239264
            ],
            [
              105.6346566,
              -5.7239337
            ],
            [
              105.6346543,
              -5.7239448
            ],
            [
              105.634652,
              -5.7239599
            ],
            [
              105.6346386,
              -5.7239876
            ],
            [
              105.6346188,
              -5.7240083
            ],
            [
              105.6346059,
              -5.7240179
            ],
            [
              105.6346023,
              -5.7240262
            ],
            [
              105.6346023,
              -5.7240455
            ],
            [
              105.6346041,
              -5.724063
            ],
            [
              105.6346105,
              -5.7240777
            ],
            [
              105.6346276,
              -5.7240934
            ],
            [
              105.6346418,
              -5.7241353
            ],
            [
              105.6346823,
              -5.7241935
            ],
            [
              105.6346879,
              -5.7242013
            ],
            [
              105.6346938,
              -5.7242105
            ],
            [
              105.6347012,
              -5.7242215
            ],
            [
              105.6347053,
              -5.724233
            ],
            [
              105.6347053,
              -5.7242473
            ],
            [
              105.6346998,
              -5.7242639
            ],
            [
              105.6346915,
              -5.7242931
            ],
            [
              105.6346823,
              -5.7243212
            ],
            [
              105.6346823,
              -5.7243428
            ],
            [
              105.6346902,
              -5.7243363
            ],
            [
              105.6346938,
              -5.724364
            ],
            [
              105.6346902,
              -5.7243879
            ],
            [
              105.6346773,
              -5.7243897
            ],
            [
              105.634703,
              -5.7244118
            ],
            [
              105.6346975,
              -5.7244367
            ],
            [
              105.6347012,
              -5.7244551
            ],
            [
              105.6347089,
              -5.7244831
            ],
            [
              105.6347476,
              -5.7252727
            ],
            [
              105.6338852,
              -5.725177
            ],
            [
              105.6328272,
              -5.7285107
            ],
            [
              105.6335258,
              -5.7299929
            ],
            [
              105.634196,
              -5.7314443
            ],
            [
              105.6340922,
              -5.7314443
            ],
            [
              105.6342715,
              -5.731973
            ],
            [
              105.6341205,
              -5.7321004
            ],
            [
              105.6342904,
              -5.7327329
            ],
            [
              105.6345359,
              -5.7333607
            ],
            [
              105.6347088,
              -5.7336721
            ],
            [
              105.6349787,
              -5.7340385
            ],
            [
              105.6351136,
              -5.7343277
            ],
            [
              105.6353064,
              -5.734694
            ],
            [
              105.6354028,
              -5.7349446
            ],
            [
              105.6354607,
              -5.7350796
            ],
            [
              105.6356535,
              -5.7354073
            ],
            [
              105.635827,
              -5.7357929
            ],
            [
              105.6358848,
              -5.7359472
            ],
            [
              105.6359041,
              -5.736005
            ],
            [
              105.6360198,
              -5.7364099
            ],
            [
              105.6362319,
              -5.7370654
            ],
            [
              105.6362512,
              -5.7373932
            ],
            [
              105.6363668,
              -5.7376631
            ],
            [
              105.6363668,
              -5.7379909
            ],
            [
              105.6362897,
              -5.7383186
            ],
            [
              105.6362512,
              -5.7384921
            ],
            [
              105.6359637,
              -5.7389718
            ],
            [
              105.6337229,
              -5.7402834
            ],
            [
              105.6334715,
              -5.7403123
            ],
            [
              105.6327162,
              -5.7402934
            ],
            [
              105.6322631,
              -5.7401235
            ],
            [
              105.6315268,
              -5.7396515
            ],
            [
              105.631017,
              -5.7393305
            ],
            [
              105.630375,
              -5.7387452
            ],
            [
              105.6298664,
              -5.7379132
            ],
            [
              105.6286031,
              -5.7363924
            ],
            [
              105.6268453,
              -5.7306795
            ],
            [
              105.6266655,
              -5.730225
            ],
            [
              105.626291,
              -5.7294058
            ],
            [
              105.6263177,
              -5.7289688
            ],
            [
              105.6262931,
              -5.7283226
            ],
            [
              105.6260534,
              -5.7275929
            ],
            [
              105.6258973,
              -5.7269349
            ],
            [
              105.6253117,
              -5.726756
            ],
            [
              105.6248933,
              -5.7264812
            ],
            [
              105.6247197,
              -5.7263656
            ],
            [
              105.6243553,
              -5.7261228
            ],
            [
              105.6239008,
              -5.7256805
            ],
            [
              105.6234343,
              -5.7252263
            ],
            [
              105.6227766,
              -5.7246526
            ],
            [
              105.6224536,
              -5.7242341
            ],
            [
              105.6222261,
              -5.7237796
            ],
            [
              105.6216882,
              -5.7235408
            ],
            [
              105.6215751,
              -5.7235059
            ],
            [
              105.6208397,
              -5.7232785
            ],
            [
              105.6200988,
              -5.7231476
            ],
            [
              105.6191556,
              -5.7230221
            ],
            [
              105.6193072,
              -5.7226412
            ],
            [
              105.6203929,
              -5.721204
            ],
            [
              105.6213594,
              -5.72009
            ],
            [
              105.6219798,
              -5.7193355
            ],
            [
              105.6222177,
              -5.7183659
            ],
            [
              105.6219902,
              -5.7178755
            ],
            [
              105.6219658,
              -5.7173848
            ],
            [
              105.622049,
              -5.7169539
            ],
            [
              105.6224418,
              -5.7156731
            ],
            [
              105.6226785,
              -5.7135307
            ],
            [
              105.6228806,
              -5.7126808
            ],
            [
              105.6231785,
              -5.7119266
            ],
            [
              105.6238108,
              -5.7111122
            ],
            [
              105.6245394,
              -5.7109797
            ],
            [
              105.6251007,
              -5.7107637
            ],
            [
              105.6255186,
              -5.7105359
            ],
            [
              105.6273221,
              -5.7100792
            ],
            [
              105.6297342,
              -5.7089875
            ],
            [
              105.6305706,
              -5.7090943
            ],
            [
              105.631598,
              -5.7091171
            ],
            [
              105.632207,
              -5.7088053
            ],
            [
              105.632565,
              -5.7084818
            ],
            [
              105.6325408,
              -5.7081372
            ],
            [
              105.6322342,
              -5.7074865
            ],
            [
              105.632272,
              -5.7070461
            ],
            [
              105.6319644,
              -5.7055147
            ],
            [
              105.6321353,
              -5.7044422
            ],
            [
              105.6320943,
              -5.7018957
            ],
            [
              105.6325707,
              -5.7005932
            ],
            [
              105.6331621,
              -5.699482
            ],
            [
              105.6346315,
              -5.6972785
            ],
            [
              105.6372494,
              -5.6942657
            ],
            [
              105.6372447,
              -5.6942641
            ],
            [
              105.6372883,
              -5.6935066
            ],
            [
              105.6372824,
              -5.693136
            ],
            [
              105.6373013,
              -5.6930605
            ],
            [
              105.6373391,
              -5.6930227
            ],
            [
              105.6374712,
              -5.6928151
            ],
            [
              105.6376411,
              -5.6925885
            ],
            [
              105.63766,
              -5.692513
            ],
            [
              105.63766,
              -5.6923053
            ],
            [
              105.6375279,
              -5.6920787
            ],
            [
              105.6374712,
              -5.6919277
            ],
            [
              105.6373579,
              -5.6916067
            ],
            [
              105.6373579,
              -5.6914745
            ],
            [
              105.6373391,
              -5.6907948
            ],
            [
              105.6374146,
              -5.6904927
            ],
            [
              105.6374146,
              -5.6903606
            ],
            [
              105.6375279,
              -5.6901906
            ],
            [
              105.6378866,
              -5.6898886
            ],
            [
              105.6381698,
              -5.6897564
            ],
            [
              105.638302,
              -5.6897564
            ],
            [
              105.6385663,
              -5.6894921
            ],
            [
              105.6387173,
              -5.6892277
            ],
            [
              105.6387173,
              -5.6892088
            ],
            [
              105.6387362,
              -5.6886991
            ],
            [
              105.6390383,
              -5.6885103
            ],
            [
              105.6390383,
              -5.6882082
            ],
            [
              105.6390194,
              -5.6881893
            ],
            [
              105.6388873,
              -5.6877362
            ],
            [
              105.6393404,
              -5.6871745
            ],
            [
              105.6394065,
              -5.6871556
            ],
            [
              105.6394348,
              -5.6871178
            ],
            [
              105.6396047,
              -5.6871178
            ],
            [
              105.6397747,
              -5.6870895
            ],
            [
              105.6399163,
              -5.6869668
            ],
            [
              105.6400673,
              -5.6868157
            ],
            [
              105.6400579,
              -5.6867874
            ],
            [
              105.6400296,
              -5.6865325
            ],
            [
              105.6399446,
              -5.6861738
            ],
            [
              105.6399824,
              -5.6860983
            ],
            [
              105.6401334,
              -5.6860416
            ],
            [
              105.6403788,
              -5.6859567
            ],
            [
              105.6404638,
              -5.6858906
            ],
            [
              105.6405677,
              -5.6857773
            ],
            [
              105.6406243,
              -5.685579
            ],
            [
              105.6407093,
              -5.685428
            ],
            [
              105.6409925,
              -5.6851637
            ],
            [
              105.6408886,
              -5.684602
            ],
            [
              105.6408579,
              -5.6845005
            ],
            [
              105.6408225,
              -5.6843754
            ],
            [
              105.6407659,
              -5.6842432
            ],
            [
              105.6407588,
              -5.6841406
            ],
            [
              105.6407588,
              -5.6840627
            ],
            [
              105.6407588,
              -5.6840108
            ],
            [
              105.6407635,
              -5.6839777
            ],
            [
              105.6408107,
              -5.6838385
            ],
            [
              105.6408603,
              -5.683763
            ],
            [
              105.6409453,
              -5.6836261
            ],
            [
              105.6409594,
              -5.6835741
            ],
            [
              105.6409571,
              -5.683501
            ],
            [
              105.6409877,
              -5.6834302
            ],
            [
              105.6410538,
              -5.6832673
            ],
            [
              105.6411931,
              -5.6831346
            ],
            [
              105.6412167,
              -5.6830307
            ],
            [
              105.6411789,
              -5.682875
            ],
            [
              105.6411459,
              -5.6827759
            ],
            [
              105.6410892,
              -5.6826531
            ],
            [
              105.6410326,
              -5.6825634
            ],
            [
              105.6409854,
              -5.6824596
            ],
            [
              105.6409051,
              -5.6823038
            ],
            [
              105.6408485,
              -5.6821386
            ],
            [
              105.6408485,
              -5.6815368
            ],
            [
              105.6408579,
              -5.681181
            ],
            [
              105.6408603,
              -5.681148
            ],
            [
              105.6408579,
              -5.6807946
            ],
            [
              105.6408374,
              -5.6801761
            ],
            [
              105.6409618,
              -5.6801691
            ],
            [
              105.6410751,
              -5.6801219
            ],
            [
              105.6411223,
              -5.6800747
            ],
            [
              105.6411506,
              -5.6799143
            ],
            [
              105.6412167,
              -5.6796971
            ],
            [
              105.6412356,
              -5.6794517
            ],
            [
              105.6412356,
              -5.6791024
            ],
            [
              105.6411789,
              -5.6788947
            ],
            [
              105.6415202,
              -5.6787002
            ],
            [
              105.6415754,
              -5.6787625
            ],
            [
              105.6416698,
              -5.6787531
            ],
            [
              105.6417312,
              -5.6787625
            ],
            [
              105.6418161,
              -5.6787861
            ],
            [
              105.6419105,
              -5.6788333
            ],
            [
              105.6420333,
              -5.6788758
            ],
            [
              105.6421182,
              -5.6789372
            ],
            [
              105.6422882,
              -5.6791165
            ],
            [
              105.6424911,
              -5.6792345
            ],
            [
              105.6425194,
              -5.6791637
            ],
            [
              105.6425666,
              -5.6790033
            ],
            [
              105.6425855,
              -5.6788994
            ],
            [
              105.6425666,
              -5.678772
            ],
            [
              105.6426894,
              -5.677881
            ],
            [
              105.6427342,
              -5.6776143
            ],
            [
              105.642818,
              -5.6776232
            ],
            [
              105.642936,
              -5.6769199
            ],
            [
              105.6428274,
              -5.6768609
            ],
            [
              105.6430068,
              -5.6760301
            ],
            [
              105.6431036,
              -5.6755015
            ],
            [
              105.6431083,
              -5.6754779
            ],
            [
              105.6431224,
              -5.6754378
            ],
            [
              105.6431319,
              -5.6753906
            ],
            [
              105.643146,
              -5.6752938
            ],
            [
              105.6431578,
              -5.6752442
            ],
            [
              105.6431956,
              -5.6751593
            ],
            [
              105.6432475,
              -5.6751074
            ],
            [
              105.64329,
              -5.6750932
            ],
            [
              105.6433726,
              -5.6750389
            ],
            [
              105.6433891,
              -5.6750106
            ],
            [
              105.6432408,
              -5.6747946
            ],
            [
              105.6431673,
              -5.6746401
            ],
            [
              105.643054,
              -5.6744796
            ],
            [
              105.6429974,
              -5.6743852
            ],
            [
              105.6428274,
              -5.674168
            ],
            [
              105.6426953,
              -5.674017
            ],
            [
              105.6422543,
              -5.673347
            ],
            [
              105.642176,
              -5.6729408
            ],
            [
              105.6426764,
              -5.672549
            ],
            [
              105.6428086,
              -5.6725301
            ],
            [
              105.6427519,
              -5.6723413
            ],
            [
              105.6426197,
              -5.6717749
            ],
            [
              105.6429218,
              -5.6715483
            ],
            [
              105.6431484,
              -5.6715483
            ],
            [
              105.6434127,
              -5.6715106
            ],
            [
              105.6436204,
              -5.6713595
            ],
            [
              105.6439225,
              -5.6713407
            ],
            [
              105.6440169,
              -5.6710763
            ],
            [
              105.6440358,
              -5.6707931
            ],
            [
              105.6443568,
              -5.6705099
            ],
            [
              105.6449043,
              -5.6701512
            ],
            [
              105.6454141,
              -5.6696343
            ],
            [
              105.6454943,
              -5.6695022
            ],
            [
              105.6455793,
              -5.6693841
            ],
            [
              105.6456123,
              -5.6692756
            ],
            [
              105.6456029,
              -5.669049
            ],
            [
              105.6456123,
              -5.6687516
            ],
            [
              105.6456312,
              -5.6685487
            ],
            [
              105.6456029,
              -5.6682419
            ],
            [
              105.6456359,
              -5.6681333
            ],
            [
              105.6457351,
              -5.6680672
            ],
            [
              105.6459427,
              -5.66802
            ],
            [
              105.6461599,
              -5.6680059
            ],
            [
              105.6463912,
              -5.6680106
            ],
            [
              105.6464242,
              -5.6680483
            ],
            [
              105.6467546,
              -5.6681144
            ],
            [
              105.6468065,
              -5.6680436
            ],
            [
              105.6467829,
              -5.6675763
            ],
            [
              105.6470661,
              -5.6674583
            ],
            [
              105.6469953,
              -5.6672141
            ],
            [
              105.6467829,
              -5.6666052
            ],
            [
              105.6471794,
              -5.666473
            ],
            [
              105.6473258,
              -5.6663739
            ],
            [
              105.6472423,
              -5.6654473
            ]
          ]
        ]
      }
    }
  ]
}