{
  "type": "FeatureCollection",
  "name": "Jaringan_Jalan_Desa_Negeri_Pandan",
  "crs": {
    "type": "name",
    "properties": {
      "name": "urn:ogc:def:crs:OGC:1.3:CRS84"
    }
  },
  "features": [
    {
      "type": "Feature",
      "properties": {
        "id": "jalan-0-0",
        "name": "Jalan Lain",
        "type": "Jalan Lain"
      },
      "geometry": {
        "type": "LineString",
        "coordinates": [
          [
            105.64715450667518,
            -5.706904940010929
          ],
          [
            105.64743773376443,
            -5.706936936990019
          ]
        ]
      }
    },
    {
      "type": "Feature",
      "properties": {
        "id": "jalan-1-0",
        "name": "Jalan Lain",
        "type": "Jalan Lain"
      },
      "geometry": {
        "type": "LineString",
        "coordinates": [
          [
            105.64715450667518,
            -5.706904940010929
          ],
          [
            105.64734966855241,
            -5.706188243292729
          ],
          [
            105.64736320784584,
            -5.70616945555588
          ]
        ]
      }
    },
    {
      "type": "Feature",
      "properties": {
        "id": "jalan-2-0",
        "name": "Jalan Lain",
        "type": "Jalan Lain"
      },
      "geometry": {
        "type": "LineString",
        "coordinates": [
          [
            105.64686081417528,
            -5.708012849913018
          ],
          [
            105.6469790849169,
            -5.707749205561356
          ],
          [
            105.64715450667518,
            -5.706904940010929
          ]
        ]
      }
    },
    {
      "type": "Feature",
      "properties": {
        "id": "jalan-3-0",
        "name": "Jalan Lain",
        "type": "Jalan Lain"
      },
      "geometry": {
        "type": "LineString",
        "coordinates": [
          [
            105.63637274420682,
            -5.70897812464068
          ],
          [
            105.63415034316387,
            -5.709096410670782
          ],
          [
            105.63338891506646,
            -5.709762659918795
          ],
          [
            105.63245616701857,
            -5.710257587417686
          ],
          [
            105.63230388121923,
            -5.710809622765851
          ],
          [
            105.63114270447227,
            -5.711323585315142
          ],
          [
            105.63131402532207,
            -5.712256334262349
          ],
          [
            105.63081909782318,
            -5.713493654808303
          ],
          [
            105.63118077637182,
            -5.714883259354906
          ],
          [
            105.63087620477307,
            -5.715263973853268
          ],
          [
            105.63064777607406,
            -5.715777936402617
          ],
          [
            105.63030513437451,
            -5.715987330051178
          ],
          [
            105.63059066912416,
            -5.716862970249849
          ],
          [
            105.63049549117403,
            -5.717319827647884
          ],
          [
            105.63089523982353,
            -5.718918825843105
          ],
          [
            105.63083813287358,
            -5.719337610442324
          ],
          [
            105.63068584797355,
            -5.71966121709147
          ],
          [
            105.63070488302401,
            -5.719927716790664
          ],
          [
            105.62998152682604,
            -5.72038457328938
          ],
          [
            105.6305716340737,
            -5.722478498983492
          ],
          [
            105.63043020578942,
            -5.722744717194871
          ]
        ]
      }
    },
    {
      "type": "Feature",
      "properties": {
        "id": "jalan-4-0",
        "name": "Jalan Lain",
        "type": "Jalan Lain"
      },
      "geometry": {
        "type": "LineString",
        "coordinates": [
          [
            105.62525125294303,
            -5.725267094300932
          ],
          [
            105.62721411953606,
            -5.727821505258191
          ]
        ]
      }
    },
    {
      "type": "Feature",
      "properties": {
        "id": "jalan-5-0",
        "name": "Jalan Tol",
        "type": "Jalan Tol"
      },
      "geometry": {
        "type": "LineString",
        "coordinates": [
          [
            105.64439370310697,
            -5.708977547275936
          ],
          [
            105.64406125342418,
            -5.708758432855348
          ],
          [
            105.64076570037685,
            -5.706593123473795
          ],
          [
            105.63712512422518,
            -5.704094689917952
          ],
          [
            105.63448392329451,
            -5.702369579792219
          ],
          [
            105.6324361804854,
            -5.700961017536883
          ]
        ]
      }
    },
    {
      "type": "Feature",
      "properties": {
        "id": "jalan-6-0",
        "name": "Jalan Desa",
        "type": "Jalan Desa"
      },
      "geometry": {
        "type": "LineString",
        "coordinates": [
          [
            105.62938086963146,
            -5.725052868594958
          ],
          [
            105.62922868635485,
            -5.72463130778857
          ]
        ]
      }
    },
    {
      "type": "Feature",
      "properties": {
        "id": "jalan-7-0",
        "name": "Jalan Lain",
        "type": "Jalan Lain"
      },
      "geometry": {
        "type": "LineString",
        "coordinates": [
          [
            105.65513718413382,
            -5.688681744466862
          ],
          [
            105.65502313480988,
            -5.689555702033999
          ],
          [
            105.65521646207014,
            -5.690269028992475
          ],
          [
            105.65527503851229,
            -5.691506872044442
          ],
          [
            105.6552138531369,
            -5.692254546809863
          ],
          [
            105.65499049481554,
            -5.693008577983449
          ],
          [
            105.6547585119958,
            -5.693820508409715
          ],
          [
            105.65467585620587,
            -5.69437022710423
          ],
          [
            105.65425528015709,
            -5.69502337952531
          ],
          [
            105.65384911304619,
            -5.695426244325688
          ],
          [
            105.65320390073947,
            -5.696717618623154
          ],
          [
            105.65299868534112,
            -5.697198773904233
          ],
          [
            105.6525580661019,
            -5.69745935876233
          ],
          [
            105.65200367183206,
            -5.697729099618186
          ],
          [
            105.65180252316799,
            -5.698030101807717
          ],
          [
            105.65171557761187,
            -5.698291056287189
          ]
        ]
      }
    },
    {
      "type": "Feature",
      "properties": {
        "id": "jalan-8-0",
        "name": "Jalan Lain",
        "type": "Jalan Lain"
      },
      "geometry": {
        "type": "LineString",
        "coordinates": [
          [
            105.6534242841035,
            -5.687942586281281
          ],
          [
            105.65254574988649,
            -5.688382483364876
          ],
          [
            105.65106907927463,
            -5.689121878971491
          ]
        ]
      }
    },
    {
      "type": "Feature",
      "properties": {
        "id": "jalan-9-0",
        "name": "Jalan Lain",
        "type": "Jalan Lain"
      },
      "geometry": {
        "type": "LineString",
        "coordinates": [
          [
            105.64849323747302,
            -5.700230498238852
          ],
          [
            105.6480223218727,
            -5.700207205797881
          ],
          [
            105.64724403508421,
            -5.699530547796485
          ],
          [
            105.64615608833287,
            -5.698930219753777
          ],
          [
            105.6453585650458,
            -5.698006627703649
          ],
          [
            105.64482048807514,
            -5.697323363282521
          ],
          [
            105.64466154279603,
            -5.696506701522992
          ],
          [
            105.64459775837992,
            -5.695993873018779
          ],
          [
            105.64419872469148,
            -5.695285123609494
          ],
          [
            105.64385031204233,
            -5.694620642428674
          ],
          [
            105.64335464440137,
            -5.692278319488821
          ],
          [
            105.64228328204791,
            -5.691641255939146
          ],
          [
            105.64192160439859,
            -5.690822721791108
          ],
          [
            105.64192160439859,
            -5.690180824385493
          ]
        ]
      }
    },
    {
      "type": "Feature",
      "properties": {
        "id": "jalan-10-0",
        "name": "Jalan Lain",
        "type": "Jalan Lain"
      },
      "geometry": {
        "type": "LineString",
        "coordinates": [
          [
            105.63113429221386,
            -5.72840162103796
          ],
          [
            105.63136771574756,
            -5.729386317524472
          ]
        ]
      }
    },
    {
      "type": "Feature",
      "properties": {
        "id": "jalan-11-0",
        "name": "Jalan Lain",
        "type": "Jalan Lain"
      },
      "geometry": {
        "type": "LineString",
        "coordinates": [
          [
            105.61928334644932,
            -5.723039121957868
          ],
          [
            105.61928824685515,
            -5.723026043117329
          ]
        ]
      }
    },
    {
      "type": "Feature",
      "properties": {
        "id": "jalan-12-0",
        "name": "Jalan Lain",
        "type": "Jalan Lain"
      },
      "geometry": {
        "type": "LineString",
        "coordinates": [
          [
            105.65513718413382,
            -5.688681744466862
          ],
          [
            105.65476580100096,
            -5.688537558861185
          ],
          [
            105.65407812630457,
            -5.688324866499329
          ],
          [
            105.6534242841035,
            -5.687942586281281
          ],
          [
            105.6531494827625,
            -5.687781919699773
          ],
          [
            105.65241303513352,
            -5.686990842753119
          ],
          [
            105.65197246625638,
            -5.686447332977991
          ],
          [
            105.65178629220367,
            -5.685944856569847
          ],
          [
            105.651492396457,
            -5.685351190704864
          ]
        ]
      }
    },
    {
      "type": "Feature",
      "properties": {
        "id": "jalan-13-0",
        "name": "Jalan Lain",
        "type": "Jalan Lain"
      },
      "geometry": {
        "type": "LineString",
        "coordinates": [
          [
            105.61928824685515,
            -5.723026043117329
          ],
          [
            105.6195998439577,
            -5.722414874646688
          ],
          [
            105.62181274186463,
            -5.719571418885835
          ]
        ]
      }
    },
    {
      "type": "Feature",
      "properties": {
        "id": "jalan-14-0",
        "name": "Jalan Lain",
        "type": "Jalan Lain"
      },
      "geometry": {
        "type": "LineString",
        "coordinates": [
          [
            105.63199512597436,
            -5.733967620509247
          ],
          [
            105.63208524703657,
            -5.733849399230337
          ]
        ]
      }
    },
    {
      "type": "Feature",
      "properties": {
        "id": "jalan-15-0",
        "name": "Jalan Lain",
        "type": "Jalan Lain"
      },
      "geometry": {
        "type": "LineString",
        "coordinates": [
          [
            105.65254574988649,
            -5.688382483364876
          ],
          [
            105.65268711341963,
            -5.689426449670862
          ],
          [
            105.65255386267069,
            -5.690720876267392
          ]
        ]
      }
    },
    {
      "type": "Feature",
      "properties": {
        "id": "jalan-16-0",
        "name": "Jalan Lain",
        "type": "Jalan Lain"
      },
      "geometry": {
        "type": "LineString",
        "coordinates": [
          [
            105.62581692651003,
            -5.72415640099706
          ],
          [
            105.62580564721293,
            -5.72401167939546
          ],
          [
            105.62582138804669,
            -5.723327074984468
          ],
          [
            105.62589395254395,
            -5.722840963539568
          ],
          [
            105.62597715692033,
            -5.722537755313112
          ],
          [
            105.62618900122146,
            -5.722011186067334
          ],
          [
            105.62632352271248,
            -5.721882720611006
          ],
          [
            105.62657039650668,
            -5.721730295416762
          ],
          [
            105.62677924516612,
            -5.721562696860929
          ],
          [
            105.6269083068729,
            -5.721421811767129
          ],
          [
            105.62704488241548,
            -5.721189623901978
          ]
        ]
      }
    },
    {
      "type": "Feature",
      "properties": {
        "id": "jalan-17-0",
        "name": "Jalan Lain",
        "type": "Jalan Lain"
      },
      "geometry": {
        "type": "LineString",
        "coordinates": [
          [
            105.63564485812378,
            -5.716599101966949
          ],
          [
            105.63577256095499,
            -5.716194121961109
          ],
          [
            105.63598864286166,
            -5.715942018609212
          ],
          [
            105.63627506614142,
            -5.715853847277174
          ],
          [
            105.63642070595085,
            -5.715355820714535
          ],
          [
            105.63640815681106,
            -5.714582684343384
          ],
          [
            105.6363659920969,
            -5.713469864142894
          ],
          [
            105.63669856768479,
            -5.712807636663058
          ],
          [
            105.6365744882221,
            -5.711648049917528
          ],
          [
            105.63643926615924,
            -5.710980478666102
          ],
          [
            105.6362283202808,
            -5.71058242254071
          ],
          [
            105.63631492769184,
            -5.709586604138451
          ],
          [
            105.63637274420682,
            -5.70897812464068
          ],
          [
            105.63649173350677,
            -5.707725840275259
          ],
          [
            105.63614909000853,
            -5.705917451129437
          ],
          [
            105.63557802050929,
            -5.705232165931648
          ],
          [
            105.63534959091095,
            -5.703956774385574
          ],
          [
            105.63428359301349,
            -5.703024025438367
          ],
          [
            105.63448392329451,
            -5.702369579792219
          ]
        ]
      }
    },
    {
      "type": "Feature",
      "properties": {
        "id": "jalan-17-1",
        "name": "Jalan Lain",
        "type": "Jalan Lain"
      },
      "geometry": {
        "type": "LineString",
        "coordinates": [
          [
            105.63477157414889,
            -5.71736915186483
          ],
          [
            105.63477970222152,
            -5.717290511547844
          ],
          [
            105.63511435794135,
            -5.717044794281776
          ]
        ]
      }
    },
    {
      "type": "Feature",
      "properties": {
        "id": "jalan-17-2",
        "name": "Jalan Lain",
        "type": "Jalan Lain"
      },
      "geometry": {
        "type": "LineString",
        "coordinates": [
          [
            105.63260162066831,
            -5.720888026361308
          ],
          [
            105.63260251099712,
            -5.720848238555334
          ],
          [
            105.6326102586566,
            -5.720837510542651
          ]
        ]
      }
    },
    {
      "type": "Feature",
      "properties": {
        "id": "jalan-18-0",
        "name": "Jalan Tol",
        "type": "Jalan Tol"
      },
      "geometry": {
        "type": "LineString",
        "coordinates": [
          [
            105.63250595888297,
            -5.700770253344444
          ],
          [
            105.63435305215171,
            -5.702024558486528
          ],
          [
            105.6358283180225,
            -5.702928753958759
          ],
          [
            105.63895730943233,
            -5.705082165309648
          ],
          [
            105.64157845188413,
            -5.706890773890052
          ],
          [
            105.64390845591055,
            -5.708386952595731
          ],
          [
            105.64453256382683,
            -5.70879410176633
          ]
        ]
      }
    },
    {
      "type": "Feature",
      "properties": {
        "id": "jalan-19-0",
        "name": "Jalan Lain",
        "type": "Jalan Lain"
      },
      "geometry": {
        "type": "LineString",
        "coordinates": [
          [
            105.65527254559157,
            -5.688795285673848
          ],
          [
            105.65513718413382,
            -5.688681744466862
          ]
        ]
      }
    },
    {
      "type": "Feature",
      "properties": {
        "id": "jalan-20-0",
        "name": "Jalan Lain",
        "type": "Jalan Lain"
      },
      "geometry": {
        "type": "LineString",
        "coordinates": [
          [
            105.62925547715861,
            -5.728406213875644
          ],
          [
            105.62946344088516,
            -5.72714232555785
          ],
          [
            105.62952602920296,
            -5.725560812881156
          ],
          [
            105.62938086963146,
            -5.725052868594958
          ]
        ]
      }
    },
    {
      "type": "Feature",
      "properties": {
        "id": "jalan-21-0",
        "name": "Jalan Lain",
        "type": "Jalan Lain"
      },
      "geometry": {
        "type": "LineString",
        "coordinates": [
          [
            105.62671370257539,
            -5.732145014880473
          ],
          [
            105.6267548834312,
            -5.732227375692787
          ],
          [
            105.62683102633088,
            -5.732874588991024
          ],
          [
            105.62642558137554,
            -5.733031360608777
          ]
        ]
      }
    },
    {
      "type": "Feature",
      "properties": {
        "id": "jalan-22-0",
        "name": "Jalan Lokal",
        "type": "Jalan Lokal"
      },
      "geometry": {
        "type": "LineString",
        "coordinates": [
          [
            105.63124897466054,
            -5.728405276782041
          ],
          [
            105.63113429221386,
            -5.72840162103796
          ],
          [
            105.6309235819578,
            -5.728394903102242
          ],
          [
            105.62925547715861,
            -5.728406213875644
          ],
          [
            105.62836854417304,
            -5.72839285804389
          ],
          [
            105.62786805346798,
            -5.728565350710312
          ],
          [
            105.62736793688083,
            -5.72908172973797
          ],
          [
            105.62656747550864,
            -5.729655752610824
          ],
          [
            105.62651627350726,
            -5.729690709258762
          ]
        ]
      }
    },
    {
      "type": "Feature",
      "properties": {
        "id": "jalan-23-0",
        "name": "Jalan Desa",
        "type": "Jalan Desa"
      },
      "geometry": {
        "type": "LineString",
        "coordinates": [
          [
            105.6305013646463,
            -5.724695531073849
          ],
          [
            105.63072321750252,
            -5.724733653335363
          ],
          [
            105.63091124865525,
            -5.72476116989202
          ],
          [
            105.63107520225884,
            -5.724780660898716
          ],
          [
            105.6313675673594,
            -5.724820789547778
          ],
          [
            105.63172069785196,
            -5.724866650475519
          ],
          [
            105.63195000338999,
            -5.724884994846605
          ],
          [
            105.63317908254868,
            -5.725038630528331
          ],
          [
            105.63364457253903,
            -5.725100542555936
          ],
          [
            105.6338986660906,
            -5.725119183703328
          ],
          [
            105.6338986660906,
            -5.725119183703328
          ],
          [
            105.6338986660906,
            -5.725119183703328
          ]
        ]
      }
    },
    {
      "type": "Feature",
      "properties": {
        "id": "jalan-24-0",
        "name": "Jalan Arteri",
        "type": "Jalan Arteri"
      },
      "geometry": {
        "type": "LineString",
        "coordinates": [
          [
            105.61928824685515,
            -5.723026043117329
          ],
          [
            105.61916278873178,
            -5.723004105954658
          ]
        ]
      }
    },
    {
      "type": "Feature",
      "properties": {
        "id": "jalan-25-0",
        "name": "Jalan Desa",
        "type": "Jalan Desa"
      },
      "geometry": {
        "type": "LineString",
        "coordinates": [
          [
            105.63124897466054,
            -5.728405276782041
          ],
          [
            105.63189239012178,
            -5.72842031614465
          ],
          [
            105.63212628220225,
            -5.728424902687038
          ],
          [
            105.63214462657334,
            -5.728422609415873
          ],
          [
            105.63214462657334,
            -5.728303371003733
          ],
          [
            105.63213086874464,
            -5.728154321864395
          ],
          [
            105.63207812800329,
            -5.727993808167639
          ],
          [
            105.6320139227044,
            -5.727796604829393
          ],
          [
            105.63200704289079,
            -5.727766795001514
          ],
          [
            105.63200245724767,
            -5.727692843749708
          ],
          [
            105.63202309488997,
            -5.727527743510507
          ],
          [
            105.63205519708976,
            -5.727264042501531
          ],
          [
            105.63205978363214,
            -5.726959065308563
          ],
          [
            105.63203914598984,
            -5.726771607923297
          ],
          [
            105.63200933616201,
            -5.726686764982162
          ],
          [
            105.63195659631992,
            -5.726565233298857
          ],
          [
            105.63190385557851,
            -5.726386948099105
          ],
          [
            105.63184652919404,
            -5.726272295330091
          ],
          [
            105.631776017849,
            -5.726188598125248
          ],
          [
            105.63172671701443,
            -5.726116367276461
          ],
          [
            105.63167397627302,
            -5.726020058878589
          ],
          [
            105.63163499515895,
            -5.725942381735479
          ],
          [
            105.63162811534528,
            -5.725917157550725
          ],
          [
            105.6315533043416,
            -5.725743172009743
          ],
          [
            105.63154069314851,
            -5.725701896725127
          ],
          [
            105.63149024567838,
            -5.725655176045507
          ],
          [
            105.63143177265823,
            -5.725611607489668
          ],
          [
            105.63133976391902,
            -5.725555427740744
          ],
          [
            105.63127326534897,
            -5.725478897233302
          ],
          [
            105.63123199006435,
            -5.725406952368928
          ],
          [
            105.63122167124317,
            -5.725358798169964
          ],
          [
            105.63121593806517,
            -5.725278827755631
          ],
          [
            105.63121479232888,
            -5.725216915728026
          ],
          [
            105.63119300805096,
            -5.725164174986617
          ],
          [
            105.63115058613073,
            -5.725095383145344
          ],
          [
            105.63110357856738,
            -5.724991336081246
          ],
          [
            105.63107348185576,
            -5.724925123495609
          ],
          [
            105.63106774957703,
            -5.724891874660216
          ],
          [
            105.63106774957703,
            -5.724839133918863
          ],
          [
            105.63107118948386,
            -5.72480588508347
          ],
          [
            105.63107348185576,
            -5.724789833084287
          ],
          [
            105.63107520225884,
            -5.724780660898716
          ],
          [
            105.63107520225884,
            -5.724780660898716
          ],
          [
            105.63107520225884,
            -5.724780660898716
          ]
        ]
      }
    },
    {
      "type": "Feature",
      "properties": {
        "id": "jalan-26-0",
        "name": "Jalan Arteri",
        "type": "Jalan Arteri"
      },
      "geometry": {
        "type": "LineString",
        "coordinates": [
          [
            105.61961700841829,
            -5.723083527782535
          ],
          [
            105.61928824685515,
            -5.723026043117329
          ]
        ]
      }
    },
    {
      "type": "Feature",
      "properties": {
        "id": "jalan-26-1",
        "name": "Jalan Arteri",
        "type": "Jalan Arteri"
      },
      "geometry": {
        "type": "LineString",
        "coordinates": [
          [
            105.62581692651003,
            -5.72415640099706
          ],
          [
            105.62578114878107,
            -5.724150355754261
          ],
          [
            105.6249999994505,
            -5.724050621838671
          ],
          [
            105.62461274328354,
            -5.724001178911237
          ],
          [
            105.62394503083857,
            -5.723868170979244
          ],
          [
            105.62328568208864,
            -5.723751870652279
          ],
          [
            105.62270154274205,
            -5.723735788975432
          ],
          [
            105.62201717845011,
            -5.723636230427644
          ],
          [
            105.62183647767137,
            -5.723606647228962
          ]
        ]
      }
    },
    {
      "type": "Feature",
      "properties": {
        "id": "jalan-27-0",
        "name": "Jalan Desa",
        "type": "Jalan Desa"
      },
      "geometry": {
        "type": "LineString",
        "coordinates": [
          [
            105.63214462657334,
            -5.728422609415873
          ],
          [
            105.63275946247927,
            -5.72847662269794
          ],
          [
            105.6330994916483,
            -5.728495690123964
          ],
          [
            105.63338867494747,
            -5.728540179585593
          ],
          [
            105.63370328118157,
            -5.728568780724629
          ],
          [
            105.63389904650387,
            -5.728601996285079
          ]
        ]
      }
    },
    {
      "type": "Feature",
      "properties": {
        "id": "jalan-28-0",
        "name": "Jalan Desa",
        "type": "Jalan Desa"
      },
      "geometry": {
        "type": "LineString",
        "coordinates": [
          [
            105.62922868635485,
            -5.72463130778857
          ],
          [
            105.629231010203,
            -5.724539603919538
          ],
          [
            105.62966439889294,
            -5.72459922267592
          ],
          [
            105.62974236202047,
            -5.724606102489588
          ],
          [
            105.63030186803684,
            -5.7246886521595
          ],
          [
            105.63030416130806,
            -5.724681773245209
          ],
          [
            105.63030416130806,
            -5.724677186702763
          ],
          [
            105.6305013646463,
            -5.724695531073849
          ],
          [
            105.63049677810386,
            -5.7246886521595
          ],
          [
            105.63049677810386,
            -5.724601515947143
          ],
          [
            105.63051053683188,
            -5.72453272410587
          ],
          [
            105.6305013646463,
            -5.724479984263837
          ],
          [
            105.63047614046155,
            -5.724399726965771
          ],
          [
            105.63042569389074,
            -5.724305711839065
          ],
          [
            105.6303500222358,
            -5.724136025057476
          ],
          [
            105.6303156267648,
            -5.724040863295158
          ],
          [
            105.63031218685802,
            -5.723913598433796
          ],
          [
            105.63031792003602,
            -5.723836781042564
          ],
          [
            105.63033970431394,
            -5.723797799029171
          ],
          [
            105.63037180651372,
            -5.723718689266036
          ],
          [
            105.63038671187729,
            -5.723660216245946
          ],
          [
            105.63047413407406,
            -5.723592571040285
          ],
          [
            105.6305715891076,
            -5.723521772811523
          ],
          [
            105.63064038094888,
            -5.723464446426988
          ],
          [
            105.63062662312024,
            -5.723427757684817
          ],
          [
            105.63051426272312,
            -5.723231127214717
          ],
          [
            105.6304385919675,
            -5.723102716617007
          ],
          [
            105.63043020578942,
            -5.722744717194871
          ]
        ]
      }
    },
    {
      "type": "Feature",
      "properties": {
        "id": "jalan-29-0",
        "name": "Jalan Lain",
        "type": "Jalan Lain"
      },
      "geometry": {
        "type": "LineString",
        "coordinates": [
          [
            105.62467418046913,
            -5.72633527395368
          ],
          [
            105.62470298215698,
            -5.726273070545744
          ],
          [
            105.62478769469641,
            -5.726067003489391
          ],
          [
            105.62497956415564,
            -5.725739921859883
          ],
          [
            105.62500000034981,
            -5.725710483452019
          ],
          [
            105.62525125294303,
            -5.725267094300932
          ],
          [
            105.62539746472129,
            -5.725102815142748
          ],
          [
            105.62549104097883,
            -5.725000136846802
          ],
          [
            105.62556709034902,
            -5.724932646324532
          ],
          [
            105.62572970306343,
            -5.724738546546632
          ],
          [
            105.62580626324853,
            -5.724578924977379
          ],
          [
            105.62583557844926,
            -5.724395719586767
          ],
          [
            105.62581692651003,
            -5.72415640099706
          ]
        ]
      }
    },
    {
      "type": "Feature",
      "properties": {
        "id": "jalan-30-0",
        "name": "Jalan Arteri",
        "type": "Jalan Arteri"
      },
      "geometry": {
        "type": "LineString",
        "coordinates": [
          [
            105.62922868635485,
            -5.72463130778857
          ],
          [
            105.62891086234646,
            -5.724598284683054
          ],
          [
            105.62795942368854,
            -5.724457235912666
          ],
          [
            105.62729679331244,
            -5.724392896614859
          ],
          [
            105.62710818479496,
            -5.724374582820701
          ],
          [
            105.62581692651003,
            -5.72415640099706
          ]
        ]
      }
    }
  ]
}