{
  "type": "FeatureCollection",
  "name": "Jaringan_Sungai_Desa_Negeri_Pandan",
  "features": [
    {
      "type": "Feature",
      "properties": {
        "id": "sg_01",
        "nama": "Sungai Satu Garis",
        "tipe": "Aliran Sungai",
        "panjang": 1620.4
      },
      "geometry": {
        "type": "LineString",
        "coordinates": [
          [
            105.629532,
            -5.7350809
          ],
          [
            105.6294213,
            -5.7348434
          ],
          [
            105.6291956,
            -5.7344926
          ],
          [
            105.6287486,
            -5.7339498
          ],
          [
            105.6286106,
            -5.7336909
          ],
          [
            105.6285561,
            -5.7334318
          ],
          [
            105.628518,
            -5.732993
          ],
          [
            105.6285007,
            -5.732362
          ],
          [
            105.6284417,
            -5.7319107
          ],
          [
            105.6282995,
            -5.731564
          ],
          [
            105.6280697,
            -5.7312425
          ],
          [
            105.6276104,
            -5.7309421
          ],
          [
            105.6270926,
            -5.7305916
          ],
          [
            105.6267877,
            -5.7302283
          ],
          [
            105.6265148,
            -5.7298583
          ],
          [
            105.6264087,
            -5.729598
          ],
          [
            105.6263702,
            -5.7293968
          ],
          [
            105.6262738,
            -5.72881
          ],
          [
            105.6261051,
            -5.7287039
          ],
          [
            105.6260183,
            -5.7285786
          ],
          [
            105.6258785,
            -5.7285449
          ],
          [
            105.6257869,
            -5.7284063
          ],
          [
            105.6256375,
            -5.7282713
          ],
          [
            105.625664,
            -5.7281671
          ],
          [
            105.6255797,
            -5.7280659
          ],
          [
            105.6255026,
            -5.7279478
          ],
          [
            105.6253712,
            -5.7277309
          ],
          [
            105.6250856,
            -5.7273706
          ],
          [
            105.6248109,
            -5.7269223
          ],
          [
            105.6245988,
            -5.7265367
          ],
          [
            105.6245699,
            -5.7264403
          ],
          [
            105.624541,
            -5.7263307
          ],
          [
            105.6244349,
            -5.726227
          ],
          [
            105.6243587,
            -5.7261062
          ],
          [
            105.6242939,
            -5.7260631
          ],
          [
            105.6260556,
            -5.7292314
          ]
        ]
      }
    },
    {
      "type": "Feature",
      "properties": {
        "id": "sg_02",
        "nama": "Sungai Satu Garis",
        "tipe": "Aliran Sungai",
        "panjang": 699.8
      },
      "geometry": {
        "type": "LineString",
        "coordinates": [
          [
            105.6268068,
            -5.7305822
          ],
          [
            105.6298114,
            -5.7359857
          ],
          [
            105.6297888,
            -5.7358841
          ]
        ]
      }
    }
  ]
}