{
  "type": "FeatureCollection",
  "name": "Jaringan_Jalan_Desa_Negeri_Pandan",
  "features": [
    {
      "type": "Feature",
      "properties": {
        "id": "jl_01",
        "nama": "Jalan Lain",
        "tipe": "Jalan Lain",
        "panjang": 379.4
      },
      "geometry": {
        "type": "LineString",
        "coordinates": [
          [
            105.6258169,
            -5.7241564
          ],
          [
            105.6258056,
            -5.7240117
          ],
          [
            105.6258214,
            -5.7233271
          ],
          [
            105.625894,
            -5.722841
          ],
          [
            105.6259772,
            -5.7225378
          ],
          [
            105.626189,
            -5.7220112
          ],
          [
            105.6263235,
            -5.7218827
          ],
          [
            105.6265704,
            -5.7217303
          ],
          [
            105.6267792,
            -5.7215627
          ],
          [
            105.6269083,
            -5.7214218
          ],
          [
            105.6270449,
            -5.7211896
          ]
        ]
      }
    },
    {
      "type": "Feature",
      "properties": {
        "id": "jl_02",
        "nama": "Jalan Lain",
        "tipe": "Jalan Lain",
        "panjang": 2015.0
      },
      "geometry": {
        "type": "LineString",
        "coordinates": [
          [
            105.6484932,
            -5.7002305
          ],
          [
            105.6480223,
            -5.7002072
          ],
          [
            105.647244,
            -5.6995305
          ],
          [
            105.6461561,
            -5.6989302
          ],
          [
            105.6453586,
            -5.6980066
          ],
          [
            105.6448205,
            -5.6973234
          ],
          [
            105.6446615,
            -5.6965067
          ],
          [
            105.6445978,
            -5.6959939
          ],
          [
            105.6441987,
            -5.6952851
          ],
          [
            105.6438503,
            -5.6946206
          ],
          [
            105.6433546,
            -5.6922783
          ],
          [
            105.6422833,
            -5.6916413
          ],
          [
            105.6419216,
            -5.6908227
          ],
          [
            105.6419216,
            -5.6883671
          ],
          [
            105.6417693,
            -5.6869204
          ],
          [
            105.641046,
            -5.6854547
          ],
          [
            105.640957,
            -5.6851967
          ]
        ]
      }
    },
    {
      "type": "Feature",
      "properties": {
        "id": "jl_03",
        "nama": "Jalan Lain",
        "tipe": "Jalan Lain",
        "panjang": 2934.4
      },
      "geometry": {
        "type": "LineString",
        "coordinates": [
          [
            105.6305231,
            -5.7247225
          ],
          [
            105.63029,
            -5.7237032
          ],
          [
            105.6305501,
            -5.7235653
          ],
          [
            105.6308102,
            -5.7234274
          ],
          [
            105.6323355,
            -5.7226467
          ],
          [
            105.6326686,
            -5.7224472
          ],
          [
            105.6325802,
            -5.721844
          ],
          [
            105.6326025,
            -5.7208482
          ],
          [
            105.6327718,
            -5.7206138
          ],
          [
            105.6331693,
            -5.7204376
          ],
          [
            105.6333443,
            -5.7201153
          ],
          [
            105.6337357,
            -5.7196931
          ],
          [
            105.6342148,
            -5.7193412
          ],
          [
            105.6344304,
            -5.7187318
          ],
          [
            105.6345819,
            -5.7181927
          ],
          [
            105.6347276,
            -5.7177943
          ],
          [
            105.6347797,
            -5.7172905
          ],
          [
            105.6351712,
            -5.7170031
          ],
          [
            105.6356211,
            -5.7166746
          ],
          [
            105.6357726,
            -5.7161941
          ],
          [
            105.6359886,
            -5.715942
          ],
          [
            105.6362751,
            -5.7158538
          ],
          [
            105.6364207,
            -5.7153558
          ],
          [
            105.6364082,
            -5.7145827
          ],
          [
            105.636366,
            -5.7134699
          ],
          [
            105.6366986,
            -5.7128076
          ],
          [
            105.6365745,
            -5.711648
          ],
          [
            105.6364393,
            -5.7109805
          ],
          [
            105.6362283,
            -5.7105824
          ],
          [
            105.6363149,
            -5.7095866
          ],
          [
            105.6363727,
            -5.7089781
          ],
          [
            105.6364917,
            -5.7077258
          ],
          [
            105.6361491,
            -5.7059175
          ],
          [
            105.635578,
            -5.7052322
          ],
          [
            105.6353496,
            -5.7039568
          ],
          [
            105.6342836,
            -5.703024
          ],
          [
            105.6344839,
            -5.7023696
          ]
        ]
      }
    },
    {
      "type": "Feature",
      "properties": {
        "id": "jl_04",
        "nama": "Jalan Lain",
        "tipe": "Jalan Lain",
        "panjang": 219.9
      },
      "geometry": {
        "type": "LineString",
        "coordinates": [
          [
            105.6311343,
            -5.7284016
          ],
          [
            105.6315899,
            -5.7303238
          ]
        ]
      }
    },
    {
      "type": "Feature",
      "properties": {
        "id": "jl_05",
        "nama": "Jalan Lain",
        "tipe": "Jalan Lain",
        "panjang": 59.1
      },
      "geometry": {
        "type": "LineString",
        "coordinates": [
          [
            105.6474306,
            -5.6674543
          ],
          [
            105.6479437,
            -5.6673196
          ]
        ]
      }
    },
    {
      "type": "Feature",
      "properties": {
        "id": "jl_06",
        "nama": "Jalan Lain",
        "tipe": "Jalan Lain",
        "panjang": 185.0
      },
      "geometry": {
        "type": "LineString",
        "coordinates": [
          [
            105.6447816,
            -5.6730327
          ],
          [
            105.644699,
            -5.671373
          ]
        ]
      }
    },
    {
      "type": "Feature",
      "properties": {
        "id": "jl_07",
        "nama": "Jalan Lain",
        "tipe": "Jalan Lain",
        "panjang": 281.9
      },
      "geometry": {
        "type": "LineString",
        "coordinates": [
          [
            105.6246742,
            -5.7263353
          ],
          [
            105.624703,
            -5.7262731
          ],
          [
            105.6247877,
            -5.726067
          ],
          [
            105.6249796,
            -5.7257399
          ],
          [
            105.625,
            -5.7257105
          ],
          [
            105.6252513,
            -5.7252671
          ],
          [
            105.6253975,
            -5.7251028
          ],
          [
            105.625491,
            -5.7250001
          ],
          [
            105.6255671,
            -5.7249326
          ],
          [
            105.6257297,
            -5.7247385
          ],
          [
            105.6258063,
            -5.7245789
          ],
          [
            105.6258356,
            -5.7243957
          ],
          [
            105.6258169,
            -5.7241564
          ]
        ]
      }
    },
    {
      "type": "Feature",
      "properties": {
        "id": "jl_08",
        "nama": "Jalan Lain",
        "tipe": "Jalan Lain",
        "panjang": 426.0
      },
      "geometry": {
        "type": "LineString",
        "coordinates": [
          [
            105.6292555,
            -5.7284062
          ],
          [
            105.6294634,
            -5.7271423
          ],
          [
            105.629526,
            -5.7255608
          ],
          [
            105.6292614,
            -5.7246347
          ]
        ]
      }
    },
    {
      "type": "Feature",
      "properties": {
        "id": "jl_09",
        "nama": "Jalan Lain",
        "tipe": "Jalan Lain",
        "panjang": 548.6
      },
      "geometry": {
        "type": "LineString",
        "coordinates": [
          [
            105.6488316,
            -5.6751468
          ],
          [
            105.6500308,
            -5.675499
          ],
          [
            105.6514585,
            -5.6775739
          ],
          [
            105.6519153,
            -5.6778213
          ],
          [
            105.652154,
            -5.6784148
          ]
        ]
      }
    },
    {
      "type": "Feature",
      "properties": {
        "id": "jl_10",
        "nama": "Jalan Lain",
        "tipe": "Jalan Lain",
        "panjang": 579.9
      },
      "geometry": {
        "type": "LineString",
        "coordinates": [
          [
            105.6551372,
            -5.6886817
          ],
          [
            105.6547658,
            -5.6885376
          ],
          [
            105.6540781,
            -5.6883249
          ],
          [
            105.6534243,
            -5.6879426
          ],
          [
            105.6531495,
            -5.6877819
          ],
          [
            105.652413,
            -5.6869908
          ],
          [
            105.6519725,
            -5.6864473
          ],
          [
            105.6517863,
            -5.6859449
          ],
          [
            105.6514762,
            -5.6853186
          ]
        ]
      }
    },
    {
      "type": "Feature",
      "properties": {
        "id": "jl_11",
        "nama": "Jalan Lain",
        "tipe": "Jalan Lain",
        "panjang": 2190.1
      },
      "geometry": {
        "type": "LineString",
        "coordinates": [
          [
            105.6363727,
            -5.7089781
          ],
          [
            105.6341503,
            -5.7090964
          ],
          [
            105.6333889,
            -5.7097627
          ],
          [
            105.6324562,
            -5.7102576
          ],
          [
            105.6323039,
            -5.7108096
          ],
          [
            105.6311427,
            -5.7113236
          ],
          [
            105.631314,
            -5.7122563
          ],
          [
            105.6308191,
            -5.7134937
          ],
          [
            105.6311808,
            -5.7148833
          ],
          [
            105.6308762,
            -5.715264
          ],
          [
            105.6306478,
            -5.7157779
          ],
          [
            105.6303051,
            -5.7159873
          ],
          [
            105.6305907,
            -5.716863
          ],
          [
            105.6304955,
            -5.7173198
          ],
          [
            105.6308952,
            -5.7189188
          ],
          [
            105.6308381,
            -5.7193376
          ],
          [
            105.6306858,
            -5.7196612
          ],
          [
            105.6307049,
            -5.7199277
          ],
          [
            105.6299815,
            -5.7203846
          ],
          [
            105.6305716,
            -5.7224785
          ],
          [
            105.630248,
            -5.7230876
          ],
          [
            105.6305501,
            -5.7235653
          ]
        ]
      }
    },
    {
      "type": "Feature",
      "properties": {
        "id": "jl_12",
        "nama": "Jalan Lain",
        "tipe": "Jalan Lain",
        "panjang": 833.8
      },
      "geometry": {
        "type": "LineString",
        "coordinates": [
          [
            105.6479303,
            -5.6730015
          ],
          [
            105.6477085,
            -5.6724914
          ],
          [
            105.6476704,
            -5.6706068
          ],
          [
            105.6477085,
            -5.6700738
          ],
          [
            105.648508,
            -5.6698454
          ],
          [
            105.6482986,
            -5.6683225
          ],
          [
            105.6479437,
            -5.6673196
          ],
          [
            105.6478607,
            -5.6670852
          ],
          [
            105.6476323,
            -5.666457
          ],
          [
            105.6476427,
            -5.6662924
          ]
        ]
      }
    },
    {
      "type": "Feature",
      "properties": {
        "id": "jl_13",
        "nama": "Jalan Lain",
        "tipe": "Jalan Lain",
        "panjang": 335.3
      },
      "geometry": {
        "type": "LineString",
        "coordinates": [
          [
            105.631927,
            -5.734057
          ],
          [
            105.632365,
            -5.7334825
          ],
          [
            105.6326801,
            -5.7329374
          ],
          [
            105.6332703,
            -5.732556
          ],
          [
            105.6341298,
            -5.7321352
          ]
        ]
      }
    },
    {
      "type": "Feature",
      "properties": {
        "id": "jl_14",
        "nama": "Jalan Lain",
        "tipe": "Jalan Lain",
        "panjang": 182.2
      },
      "geometry": {
        "type": "LineString",
        "coordinates": [
          [
            105.6501198,
            -5.6720057
          ],
          [
            105.6516108,
            -5.6726817
          ]
        ]
      }
    },
    {
      "type": "Feature",
      "properties": {
        "id": "jl_15",
        "nama": "Jalan Arteri",
        "tipe": "Jalan Arteri",
        "panjang": 447.9
      },
      "geometry": {
        "type": "LineString",
        "coordinates": [
          [
            105.6258169,
            -5.7241564
          ],
          [
            105.6257811,
            -5.7241504
          ],
          [
            105.625,
            -5.7240506
          ],
          [
            105.6246127,
            -5.7240012
          ],
          [
            105.623945,
            -5.7238682
          ],
          [
            105.6232857,
            -5.7237519
          ],
          [
            105.6227015,
            -5.7237358
          ],
          [
            105.6220172,
            -5.7236362
          ],
          [
            105.6218365,
            -5.7236066
          ]
        ]
      }
    },
    {
      "type": "Feature",
      "properties": {
        "id": "jl_16",
        "nama": "Jalan Lain",
        "tipe": "Jalan Lain",
        "panjang": 524.9
      },
      "geometry": {
        "type": "LineString",
        "coordinates": [
          [
            105.6452928,
            -5.6730105
          ],
          [
            105.64531,
            -5.6777262
          ]
        ]
      }
    },
    {
      "type": "Feature",
      "properties": {
        "id": "jl_17",
        "nama": "Jalan Lain",
        "tipe": "Jalan Lain",
        "panjang": 1210.9
      },
      "geometry": {
        "type": "LineString",
        "coordinates": [
          [
            105.6551372,
            -5.6886817
          ],
          [
            105.6550231,
            -5.6895557
          ],
          [
            105.6552165,
            -5.690269
          ],
          [
            105.655275,
            -5.6915069
          ],
          [
            105.6552139,
            -5.6922545
          ],
          [
            105.6549905,
            -5.6930086
          ],
          [
            105.6547585,
            -5.6938205
          ],
          [
            105.6546759,
            -5.6943702
          ],
          [
            105.6542553,
            -5.6950234
          ],
          [
            105.6538491,
            -5.6954262
          ],
          [
            105.6532039,
            -5.6967176
          ],
          [
            105.6529987,
            -5.6971988
          ],
          [
            105.6525581,
            -5.6974594
          ],
          [
            105.6520037,
            -5.6977291
          ],
          [
            105.6518025,
            -5.6980301
          ],
          [
            105.6517156,
            -5.6982911
          ]
        ]
      }
    },
    {
      "type": "Feature",
      "properties": {
        "id": "jl_18",
        "nama": "Jalan Lain",
        "tipe": "Jalan Lain",
        "panjang": 1597.0
      },
      "geometry": {
        "type": "LineString",
        "coordinates": [
          [
            105.6514762,
            -5.6853186
          ],
          [
            105.6506986,
            -5.6845964
          ],
          [
            105.6500042,
            -5.6845008
          ],
          [
            105.6495848,
            -5.6844599
          ],
          [
            105.6491445,
            -5.6840817
          ],
          [
            105.6487519,
            -5.6834073
          ],
          [
            105.6482559,
            -5.6824507
          ],
          [
            105.6481318,
            -5.6821685
          ],
          [
            105.6482001,
            -5.6817415
          ],
          [
            105.6482954,
            -5.6809632
          ],
          [
            105.6483083,
            -5.6801506
          ],
          [
            105.6482801,
            -5.6795034
          ],
          [
            105.6483342,
            -5.6787321
          ],
          [
            105.6483937,
            -5.6779356
          ],
          [
            105.6487554,
            -5.6773645
          ],
          [
            105.6487935,
            -5.6754609
          ],
          [
            105.6488316,
            -5.6751468
          ],
          [
            105.6488696,
            -5.6748327
          ],
          [
            105.6485097,
            -5.6729122
          ]
        ]
      }
    },
    {
      "type": "Feature",
      "properties": {
        "id": "jl_19",
        "nama": "Jalan Lain",
        "tipe": "Jalan Lain",
        "panjang": 128.2
      },
      "geometry": {
        "type": "LineString",
        "coordinates": [
          [
            105.6468608,
            -5.7080128
          ],
          [
            105.6469791,
            -5.7077492
          ],
          [
            105.6471545,
            -5.7069049
          ]
        ]
      }
    },
    {
      "type": "Feature",
      "properties": {
        "id": "jl_20",
        "nama": "Jalan Lain",
        "tipe": "Jalan Lain",
        "panjang": 31.7
      },
      "geometry": {
        "type": "LineString",
        "coordinates": [
          [
            105.6471545,
            -5.7069049
          ],
          [
            105.6474377,
            -5.7069369
          ]
        ]
      }
    },
    {
      "type": "Feature",
      "properties": {
        "id": "jl_21",
        "nama": "Jalan Tol",
        "tipe": "Jalan Tol",
        "panjang": 1602.7
      },
      "geometry": {
        "type": "LineString",
        "coordinates": [
          [
            105.6443937,
            -5.7089775
          ],
          [
            105.6440613,
            -5.7087584
          ],
          [
            105.6407657,
            -5.7065931
          ],
          [
            105.6371251,
            -5.7040947
          ],
          [
            105.6344839,
            -5.7023696
          ],
          [
            105.6324362,
            -5.700961
          ]
        ]
      }
    },
    {
      "type": "Feature",
      "properties": {
        "id": "jl_22",
        "nama": "Jalan Arteri",
        "tipe": "Jalan Arteri",
        "panjang": 1002.0
      },
      "geometry": {
        "type": "LineString",
        "coordinates": [
          [
            105.6347455,
            -5.72523
          ],
          [
            105.6346432,
            -5.7252193
          ],
          [
            105.632764,
            -5.7249645
          ],
          [
            105.6312019,
            -5.7247421
          ],
          [
            105.6305231,
            -5.7247225
          ],
          [
            105.6299457,
            -5.7247058
          ],
          [
            105.6292614,
            -5.7246347
          ],
          [
            105.6289109,
            -5.7245983
          ],
          [
            105.6279594,
            -5.7244572
          ],
          [
            105.6272968,
            -5.7243929
          ],
          [
            105.6271082,
            -5.7243746
          ],
          [
            105.6258169,
            -5.7241564
          ]
        ]
      }
    },
    {
      "type": "Feature",
      "properties": {
        "id": "jl_23",
        "nama": "Jalan Lain",
        "tipe": "Jalan Lain",
        "panjang": 234.5
      },
      "geometry": {
        "type": "LineString",
        "coordinates": [
          [
            105.652154,
            -5.6784148
          ],
          [
            105.6501641,
            -5.6791049
          ]
        ]
      }
    },
    {
      "type": "Feature",
      "properties": {
        "id": "jl_24",
        "nama": "Jalan Lain",
        "tipe": "Jalan Lain",
        "panjang": 293.2
      },
      "geometry": {
        "type": "LineString",
        "coordinates": [
          [
            105.6534243,
            -5.6879426
          ],
          [
            105.6525458,
            -5.6883825
          ],
          [
            105.6510691,
            -5.6891219
          ]
        ]
      }
    },
    {
      "type": "Feature",
      "properties": {
        "id": "jl_25",
        "nama": "Jalan Lain",
        "tipe": "Jalan Lain",
        "panjang": 164.6
      },
      "geometry": {
        "type": "LineString",
        "coordinates": [
          [
            105.6498632,
            -5.6662954
          ],
          [
            105.6513404,
            -5.6662205
          ]
        ]
      }
    },
    {
      "type": "Feature",
      "properties": {
        "id": "jl_26",
        "nama": "Jalan Lain",
        "tipe": "Jalan Lain",
        "panjang": 236.5
      },
      "geometry": {
        "type": "LineString",
        "coordinates": [
          [
            105.6499588,
            -5.6680803
          ],
          [
            105.6505883,
            -5.6681397
          ],
          [
            105.6504741,
            -5.6691486
          ],
          [
            105.6500013,
            -5.6690881
          ]
        ]
      }
    },
    {
      "type": "Feature",
      "properties": {
        "id": "jl_27",
        "nama": "Jalan Lokal",
        "tipe": "Jalan Lokal",
        "panjang": 1774.8
      },
      "geometry": {
        "type": "LineString",
        "coordinates": [
          [
            105.6432299,
            -5.6732211
          ],
          [
            105.6433635,
            -5.6732084
          ],
          [
            105.6443,
            -5.6730916
          ],
          [
            105.6445485,
            -5.6730606
          ],
          [
            105.6447816,
            -5.6730327
          ],
          [
            105.6450147,
            -5.6730047
          ],
          [
            105.6452928,
            -5.6730105
          ],
          [
            105.6460932,
            -5.6730273
          ],
          [
            105.6463576,
            -5.6730235
          ],
          [
            105.6479303,
            -5.6730015
          ],
          [
            105.6485097,
            -5.6729122
          ],
          [
            105.6486944,
            -5.6728837
          ],
          [
            105.6491174,
            -5.6728197
          ],
          [
            105.6497432,
            -5.6726353
          ],
          [
            105.650126,
            -5.6722946
          ],
          [
            105.6501198,
            -5.6720057
          ],
          [
            105.6501135,
            -5.6717168
          ],
          [
            105.6500756,
            -5.6708294
          ],
          [
            105.6500013,
            -5.6690881
          ],
          [
            105.6499715,
            -5.6683911
          ],
          [
            105.6499588,
            -5.6680803
          ],
          [
            105.649901,
            -5.6666687
          ],
          [
            105.6498632,
            -5.6662954
          ],
          [
            105.6497463,
            -5.665141
          ],
          [
            105.6497177,
            -5.6642585
          ],
          [
            105.650207,
            -5.6636074
          ]
        ]
      }
    },
    {
      "type": "Feature",
      "properties": {
        "id": "jl_28",
        "nama": "Jalan Tol",
        "tipe": "Jalan Tol",
        "panjang": 1609.7
      },
      "geometry": {
        "type": "LineString",
        "coordinates": [
          [
            105.632506,
            -5.7007703
          ],
          [
            105.6343531,
            -5.7020246
          ],
          [
            105.6358283,
            -5.7029288
          ],
          [
            105.6389573,
            -5.7050822
          ],
          [
            105.6415785,
            -5.7068908
          ],
          [
            105.6439085,
            -5.708387
          ],
          [
            105.6445326,
            -5.7087941
          ]
        ]
      }
    },
    {
      "type": "Feature",
      "properties": {
        "id": "jl_29",
        "nama": "Jalan Lain",
        "tipe": "Jalan Lain",
        "panjang": 358.6
      },
      "geometry": {
        "type": "LineString",
        "coordinates": [
          [
            105.6252513,
            -5.7252671
          ],
          [
            105.6272141,
            -5.7278215
          ]
        ]
      }
    },
    {
      "type": "Feature",
      "properties": {
        "id": "jl_30",
        "nama": "Jalan Lain",
        "tipe": "Jalan Lain",
        "panjang": 705.3
      },
      "geometry": {
        "type": "LineString",
        "coordinates": [
          [
            105.6443,
            -5.6730916
          ],
          [
            105.6444534,
            -5.6757274
          ],
          [
            105.6441488,
            -5.6757465
          ],
          [
            105.644263,
            -5.6767744
          ],
          [
            105.6435016,
            -5.6769267
          ],
          [
            105.6431589,
            -5.6784686
          ]
        ]
      }
    },
    {
      "type": "Feature",
      "properties": {
        "id": "jl_31",
        "nama": "Jalan Lokal",
        "tipe": "Jalan Lokal",
        "panjang": 763.1
      },
      "geometry": {
        "type": "LineString",
        "coordinates": [
          [
            105.6328388,
            -5.7284739
          ],
          [
            105.632428,
            -5.7284429
          ],
          [
            105.6311343,
            -5.7284016
          ],
          [
            105.6309236,
            -5.7283949
          ],
          [
            105.6292555,
            -5.7284062
          ],
          [
            105.6283685,
            -5.7283929
          ],
          [
            105.6278681,
            -5.7285654
          ],
          [
            105.6273679,
            -5.7290817
          ],
          [
            105.6265675,
            -5.7296558
          ],
          [
            105.6264439,
            -5.7297401
          ]
        ]
      }
    },
    {
      "type": "Feature",
      "properties": {
        "id": "jl_32",
        "nama": "Jalan Lain",
        "tipe": "Jalan Lain",
        "panjang": 588.4
      },
      "geometry": {
        "type": "LineString",
        "coordinates": [
          [
            105.656164,
            -5.6834697
          ],
          [
            105.6559121,
            -5.683545
          ],
          [
            105.6546669,
            -5.683597
          ],
          [
            105.6534597,
            -5.6837314
          ],
          [
            105.6527964,
            -5.6840994
          ],
          [
            105.6523987,
            -5.6845621
          ],
          [
            105.6514762,
            -5.6853186
          ]
        ]
      }
    },
    {
      "type": "Feature",
      "properties": {
        "id": "jl_33",
        "nama": "Jalan Lain",
        "tipe": "Jalan Lain",
        "panjang": 171.9
      },
      "geometry": {
        "type": "LineString",
        "coordinates": [
          [
            105.6500756,
            -5.6708294
          ],
          [
            105.6516163,
            -5.6707286
          ]
        ]
      }
    },
    {
      "type": "Feature",
      "properties": {
        "id": "jl_34",
        "nama": "Jalan Lain",
        "tipe": "Jalan Lain",
        "panjang": 262.1
      },
      "geometry": {
        "type": "LineString",
        "coordinates": [
          [
            105.6525458,
            -5.6883825
          ],
          [
            105.6526871,
            -5.6894264
          ],
          [
            105.6525539,
            -5.6907209
          ]
        ]
      }
    },
    {
      "type": "Feature",
      "properties": {
        "id": "jl_35",
        "nama": "Jalan Lain",
        "tipe": "Jalan Lain",
        "panjang": 85.3
      },
      "geometry": {
        "type": "LineString",
        "coordinates": [
          [
            105.6471545,
            -5.7069049
          ],
          [
            105.6473497,
            -5.7061882
          ],
          [
            105.6473632,
            -5.7061695
          ]
        ]
      }
    },
    {
      "type": "Feature",
      "properties": {
        "id": "jl_36",
        "nama": "Jalan Lain",
        "tipe": "Jalan Lain",
        "panjang": 948.3
      },
      "geometry": {
        "type": "LineString",
        "coordinates": [
          [
            105.6556928,
            -5.6820959
          ],
          [
            105.6546096,
            -5.6818032
          ],
          [
            105.6546286,
            -5.6812892
          ],
          [
            105.6542479,
            -5.6807181
          ],
          [
            105.65322,
            -5.6801661
          ],
          [
            105.6523063,
            -5.6791049
          ],
          [
            105.652154,
            -5.6784148
          ],
          [
            105.6527822,
            -5.6782054
          ],
          [
            105.6533152,
            -5.6778057
          ],
          [
            105.6534001,
            -5.6772883
          ],
          [
            105.65439,
            -5.6772312
          ],
          [
            105.6544661,
            -5.6772494
          ]
        ]
      }
    },
    {
      "type": "Feature",
      "properties": {
        "id": "jl_37",
        "nama": "Jalan Lain",
        "tipe": "Jalan Lain",
        "panjang": 19.7
      },
      "geometry": {
        "type": "LineString",
        "coordinates": [
          [
            105.6552725,
            -5.6887953
          ],
          [
            105.6551372,
            -5.6886817
          ]
        ]
      }
    }
  ]
}