{
  "type": "FeatureCollection",
  "features": [
    {
      "type": "Feature",
      "geometry": {
        "type": "LineString",
        "coordinates": [
          [
            105.62579801349294,
            -5.726904543362598
          ],
          [
            105.62577362800002,
            -5.726872554999972
          ],
          [
            105.62556005600003,
            -5.726715665999959
          ],
          [
            105.62519712100001,
            -5.726496092999999
          ],
          [
            105.62498908600013,
            -5.726389154999944
          ],
          [
            105.62483761200012,
            -5.726326269999981
          ],
          [
            105.62466125000009,
            -5.726257166999948
          ],
          [
            105.62447811900003,
            -5.726169137999947
          ],
          [
            105.62435869800001,
            -5.726106216999981
          ],
          [
            105.62429389516349,
            -5.726063096156108
          ]
        ]
      },
      "properties": {
        "id": "sungai-0-0",
        "name": "Sungai Satu Garis"
      }
    },
    {
      "type": "Feature",
      "geometry": {
        "type": "LineString",
        "coordinates": [
          [
            105.6295320439107,
            -5.7350809328430055
          ],
          [
            105.62942129300004,
            -5.734843436999925
          ],
          [
            105.6291956000001,
            -5.734492632999943
          ],
          [
            105.62874856200006,
            -5.733949829999973
          ],
          [
            105.62861059100001,
            -5.7336908709999514
          ],
          [
            105.62855606600003,
            -5.733431820999923
          ],
          [
            105.62851803500008,
            -5.732993047999945
          ],
          [
            105.62850065500007,
            -5.732362008999957
          ],
          [
            105.62844174900007,
            -5.731910720999921
          ],
          [
            105.62829951000003,
            -5.731564003999922
          ],
          [
            105.6280696790001,
            -5.731242457999962
          ],
          [
            105.62761039200004,
            -5.730942059999976
          ],
          [
            105.6270926390001,
            -5.730591573999932
          ],
          [
            105.62678766200008,
            -5.730228317999985
          ],
          [
            105.62663711100006,
            -5.729910864000009
          ],
          [
            105.6264529730001,
            -5.729401203999939
          ],
          [
            105.62629743100011,
            -5.728331499999983
          ],
          [
            105.62623422700003,
            -5.727763198999946
          ],
          [
            105.62594742104149,
            -5.727146108956171
          ]
        ]
      },
      "properties": {
        "id": "sungai-0-1",
        "name": "Sungai Satu Garis"
      }
    },
    {
      "type": "Feature",
      "geometry": {
        "type": "LineString",
        "coordinates": [
          [
            105.62981142970048,
            -5.735985684247912
          ],
          [
            105.62978877693993,
            -5.735884107443522
          ]
        ]
      },
      "properties": {
        "id": "sungai-0-2",
        "name": "Sungai Satu Garis"
      }
    }
  ]
}