{
"type": "FeatureCollection",
"name": "BATAS FIX AMIN",
"crs": { "type": "name", "properties": { "name": "urn:ogc:def:crs:OGC:1.3:CRS84" } },
"features": [
{ "type": "Feature", "properties": { "OBJECTID": 1, "Shape_Leng": 0.21319957196, "Shape_Area": 0.00099015471, "NAMA": "Negeri Pandan" }, "geometry": { "type": "MultiPolygon", "coordinates": [ [ [ [ 105.627493293221747, -5.714497815904518, 0.0 ], [ 105.627403632158206, -5.713915018991511, 0.0 ], [ 105.627291555828776, -5.713197730483194, 0.0 ], [ 105.627313971094665, -5.712727009899611, 0.0 ], [ 105.627762276412369, -5.71171832293479, 0.0 ], [ 105.628289175213666, -5.711052399766709, 0.0 ], [ 105.628972700770149, -5.710283745918157, 0.0 ], [ 105.629286514492534, -5.710104423791077, 0.0 ], [ 105.62960032821492, -5.709925101663998, 0.0 ], [ 105.629846896139654, -5.709723364271034, 0.0 ], [ 105.630586599913855, -5.709499211612185, 0.0 ], [ 105.630833167838588, -5.709319889485106, 0.0 ], [ 105.631146981560988, -5.709252643687451, 0.0 ], [ 105.631598027626922, -5.709117133748691, 0.0 ], [ 105.632206976570785, -5.708805323506851, 0.0 ], [ 105.632565029952218, -5.708481822078397, 0.0 ], [ 105.632540757250183, -5.708137200971009, 0.0 ], [ 105.632234204445012, -5.707486535175406, 0.0 ], [ 105.632271950789971, -5.707046110189765, 0.0 ], [ 105.631964435710188, -5.705514678059899, 0.0 ], [ 105.632135295207775, -5.704442249110457, 0.0 ], [ 105.632094279827186, -5.701895725207521, 0.0 ], [ 105.632570722660773, -5.700593196618684, 0.0 ], [ 105.633162062878966, -5.699482014083628, 0.0 ], [ 105.634631475062577, -5.697278475421228, 0.0 ], [ 105.637249375458396, -5.694265659332643, 0.0 ], [ 105.637244655816289, -5.694264146672992, 0.0 ], [ 105.637288266640269, -5.693506554184069, 0.0 ], [ 105.637282416550363, -5.693136026306547, 0.0 ], [ 105.637301297816691, -5.69306050393908, 0.0 ], [ 105.637339058550765, -5.693022742305686, 0.0 ], [ 105.637471223818011, -5.692815055570293, 0.0 ], [ 105.637641149819274, -5.692588487568571, 0.0 ], [ 105.637660030186282, -5.692512964301841, 0.0 ], [ 105.637660030186282, -5.692305277566447, 0.0 ], [ 105.637527865818413, -5.692078709564726, 0.0 ], [ 105.637471223818011, -5.691927663930471, 0.0 ], [ 105.63735793981715, -5.691606693194274, 0.0 ], [ 105.63735793981715, -5.691474527927085, 0.0 ], [ 105.637339058550765, -5.690794823921919, 0.0 ], [ 105.637414581817552, -5.690492733552787, 0.0 ], [ 105.637414581817552, -5.690360569184861, 0.0 ], [ 105.637527865818413, -5.690190643183598, 0.0 ], [ 105.637886598188004, -5.689888551915089, 0.0 ], [ 105.638169808190185, -5.68975638754722, 0.0 ], [ 105.638301972558054, -5.68975638754722, 0.0 ], [ 105.638566302193169, -5.689492057912105, 0.0 ], [ 105.638717346928104, -5.689227729176309, 0.0 ], [ 105.638717346928104, -5.689208847909981, 0.0 ], [ 105.638736228194432, -5.688699069906079, 0.0 ], [ 105.639038318563621, -5.688510263537808, 0.0 ], [ 105.639038318563621, -5.688208173168618, 0.0 ], [ 105.639019438196556, -5.688189291902233, 0.0 ], [ 105.638887272929367, -5.687736155898847, 0.0 ], [ 105.63934040893281, -5.687174456435969, 0.0 ], [ 105.639406492016064, -5.68715557606896, 0.0 ], [ 105.639434812566606, -5.687117814435567, 0.0 ], [ 105.639604738567868, -5.687117814435567, 0.0 ], [ 105.639774664569188, -5.687089493884969, 0.0 ], [ 105.63991627001991, -5.686966768801312, 0.0 ], [ 105.640067314754845, -5.686815724066378, 0.0 ], [ 105.640057874571312, -5.686787402616517, 0.0 ], [ 105.640029554020771, -5.686532514064254, 0.0 ], [ 105.639944590570451, -5.686173781694606, 0.0 ], [ 105.639982352203845, -5.686098258427819, 0.0 ], [ 105.640133396938779, -5.686041616427417, 0.0 ], [ 105.640378846206829, -5.685956653876417, 0.0 ], [ 105.640463808757829, -5.685890571692482, 0.0 ], [ 105.640567652575157, -5.685777287691621, 0.0 ], [ 105.640624294575616, -5.685579040240441, 0.0 ], [ 105.640709257126559, -5.685427994606243, 0.0 ], [ 105.64099246712874, -5.685163665870448, 0.0 ], [ 105.640888624210675, -5.68460196550825, 0.0 ], [ 105.640857942939761, -5.684500482411295, 0.0 ], [ 105.64082254112742, -5.684375397506528, 0.0 ], [ 105.640765899127018, -5.684243233138659, 0.0 ], [ 105.640758819663859, -5.684140569231829, 0.0 ], [ 105.640758819663859, -5.684062687043308, 0.0 ], [ 105.640758819663859, -5.684010764685013, 0.0 ], [ 105.640763539305965, -5.683977723593046, 0.0 ], [ 105.640810741122891, -5.68383847886264, 0.0 ], [ 105.640860302760814, -5.683762956495173, 0.0 ], [ 105.640945266211133, -5.683626071585877, 0.0 ], [ 105.640959426036716, -5.683574149227582, 0.0 ], [ 105.640957066215719, -5.683500986681167, 0.0 ], [ 105.640987747486633, -5.683430184855126, 0.0 ], [ 105.641053829670568, -5.683267339216286, 0.0 ], [ 105.641193074400917, -5.683134583993819, 0.0 ], [ 105.641216675309352, -5.683030740176491, 0.0 ], [ 105.641178913675958, -5.68287497490013, 0.0 ], [ 105.641145872583991, -5.682775851624228, 0.0 ], [ 105.641089230583589, -5.682653127439835, 0.0 ], [ 105.64103258858313, -5.682563444347409, 0.0 ], [ 105.64098538766558, -5.68245960053008, 0.0 ], [ 105.640905144756687, -5.68230383525372, 0.0 ], [ 105.640848502756285, -5.682138628894563, 0.0 ], [ 105.640848502756285, -5.681536807977238, 0.0 ], [ 105.640857942939761, -5.681181025383978, 0.0 ], [ 105.640860302760814, -5.681147984292011, 0.0 ], [ 105.640857942939761, -5.680794561519747, 0.0 ], [ 105.640837370048644, -5.680176113936454, 0.0 ], [ 105.640961786757089, -5.680169139693987, 0.0 ], [ 105.64107507075795, -5.680121937877061, 0.0 ], [ 105.641122271675556, -5.680074736060192, 0.0 ], [ 105.641150593125417, -5.679914250242405, 0.0 ], [ 105.641216675309352, -5.679697123323535, 0.0 ], [ 105.641235555676417, -5.679451674055485, 0.0 ], [ 105.641235555676417, -5.67910238186937, 0.0 ], [ 105.641178913675958, -5.678894694234714, 0.0 ], [ 105.641520183909392, -5.678700193359191, 0.0 ], [ 105.641575407678999, -5.678762529866788, 0.0 ], [ 105.641669811312795, -5.678753089683312, 0.0 ], [ 105.641731173854623, -5.678762529866788, 0.0 ], [ 105.641816136405623, -5.678786130775279, 0.0 ], [ 105.641910540039476, -5.678833332592205, 0.0 ], [ 105.642033264223812, -5.678875813867649, 0.0 ], [ 105.642118226774812, -5.678937176409534, 0.0 ], [ 105.642288152776075, -5.679116542594329, 0.0 ], [ 105.642491120768682, -5.679234546237296, 0.0 ], [ 105.642519441319223, -5.679163744411255, 0.0 ], [ 105.642566643136149, -5.679003258593468, 0.0 ], [ 105.642585523503158, -5.67889941477614, 0.0 ], [ 105.642566643136149, -5.67877197005032, 0.0 ], [ 105.642689367320486, -5.677881038678947, 0.0 ], [ 105.642734209316359, -5.677614349222779, 0.0 ], [ 105.642817991956804, -5.677623199451034, 0.0 ], [ 105.642935995599771, -5.676919895436754, 0.0 ], [ 105.642827432140336, -5.676860892715979, 0.0 ], [ 105.643006798325132, -5.676030143975936, 0.0 ], [ 105.643103561780038, -5.675501484705705, 0.0 ], [ 105.643108282321407, -5.675477883797271, 0.0 ], [ 105.643122443046366, -5.675437762342824, 0.0 ], [ 105.643131883229898, -5.675390561425218, 0.0 ], [ 105.643146043055481, -5.675293797970369, 0.0 ], [ 105.643157843959386, -5.675244236332389, 0.0 ], [ 105.64319560559278, -5.67515927288207, 0.0 ], [ 105.643247527051813, -5.675107351423094, 0.0 ], [ 105.643290008327256, -5.675093190698135, 0.0 ], [ 105.643372611057202, -5.675038908518786, 0.0 ], [ 105.643389131603215, -5.675010587968188, 0.0 ], [ 105.643522309760584, -5.674925765415901, 0.0 ], [ 105.643684820438239, -5.674808085270006, 0.0 ], [ 105.643824915850018, -5.674724028022937, 0.0 ], [ 105.644262013534785, -5.674354176135837, 0.0 ], [ 105.64397621889475, -5.674085192945218, 0.0 ], [ 105.643679216621777, -5.673726548691059, 0.0 ], [ 105.643404629614679, -5.673423942601613, 0.0 ], [ 105.643090815892293, -5.673059694530983, 0.0 ], [ 105.642900286132274, -5.672801918973307, 0.0 ], [ 105.642808551773328, -5.672530139953949, 0.0 ], [ 105.642751909772869, -5.672341333585621, 0.0 ], [ 105.64261974450568, -5.671774913581373, 0.0 ], [ 105.642921835774189, -5.671548345579652, 0.0 ], [ 105.643148403775854, -5.671548345579652, 0.0 ], [ 105.643412732511649, -5.671510583946258, 0.0 ], [ 105.643620420146306, -5.671359539211323, 0.0 ], [ 105.643922510515495, -5.671340657944938, 0.0 ], [ 105.645184541821408, -5.671393259607852, 0.0 ], [ 105.64610356772269, -5.671169106949002, 0.0 ], [ 105.646776025699239, -5.670855293226614, 0.0 ], [ 105.647089839421625, -5.670496648972455, 0.0 ], [ 105.647403653144011, -5.67047423370657, 0.0 ], [ 105.647448483675788, -5.670384572643031, 0.0 ], [ 105.647448483675788, -5.670272496313606, 0.0 ], [ 105.647448483675788, -5.670048343654758, 0.0 ], [ 105.647538144739329, -5.669913852059448, 0.0 ], [ 105.647582975271092, -5.669734529932368, 0.0 ], [ 105.647538144739329, -5.669532792539404, 0.0 ], [ 105.647717466866396, -5.669308639880556, 0.0 ], [ 105.647829543195826, -5.669084487221706, 0.0 ], [ 105.647896788993478, -5.668949995626397, 0.0 ], [ 105.647784712664063, -5.668770673499318, 0.0 ], [ 105.647807127929937, -5.668389613979275, 0.0 ], [ 105.647672636334647, -5.668299952915736, 0.0 ], [ 105.647650221068758, -5.668204688035725, 0.0 ], [ 105.647616598169932, -5.6680926117063, 0.0 ], [ 105.647588579087582, -5.667946912478048, 0.0 ], [ 105.647398049327549, -5.667352907932099, 0.0 ], [ 105.64731959589696, -5.667146967676781, 0.0 ], [ 105.647342011162849, -5.666900399752048, 0.0 ], [ 105.647342011162849, -5.666609001295543, 0.0 ], [ 105.647353218795786, -5.666519340232004, 0.0 ], [ 105.647325751082633, -5.666373863263118, 0.0 ], [ 105.64769995493991, -5.666277675646681, 0.0 ], [ 105.647767200737562, -5.665437103175997, 0.0 ], [ 105.648562942676477, -5.66540348027717, 0.0 ], [ 105.6488319258671, -5.665224158150091, 0.0 ], [ 105.6488319258671, -5.665078458921839, 0.0 ], [ 105.648675019005907, -5.664988797858299, 0.0 ], [ 105.648630188474129, -5.664798268098277, 0.0 ], [ 105.648876756398863, -5.664406000945291, 0.0 ], [ 105.648787095335322, -5.664204263552327, 0.0 ], [ 105.6488319258671, -5.664058564324075, 0.0 ], [ 105.648865548765926, -5.663946487994651, 0.0 ], [ 105.648910379297689, -5.663767165867572, 0.0 ], [ 105.649011247994167, -5.663643881905205, 0.0 ], [ 105.648988832728293, -5.663498182676953, 0.0 ], [ 105.649044870893007, -5.663464559778125, 0.0 ], [ 105.649269023551852, -5.663318860549873, 0.0 ], [ 105.649582837274238, -5.663251614752219, 0.0 ], [ 105.649580035366, -5.663170359413386, 0.0 ], [ 105.64962206398954, -5.663164755596915, 0.0 ], [ 105.649661290704827, -5.662985433469836, 0.0 ], [ 105.64986022618956, -5.662996641102779, 0.0 ], [ 105.649907858629561, -5.663167557505151, 0.0 ], [ 105.649983510151927, -5.663240407119277, 0.0 ], [ 105.650014331142515, -5.663330068182816, 0.0 ], [ 105.650031142591928, -5.66341692733812, 0.0 ], [ 105.65016003037077, -5.663573834199314, 0.0 ], [ 105.650188049453135, -5.663604655189906, 0.0 ], [ 105.650595727101404, -5.663662794785796, 0.0 ], [ 105.650864710292026, -5.663732842491687, 0.0 ], [ 105.65104123051087, -5.66379448447287, 0.0 ], [ 105.651189731647349, -5.663825305463462, 0.0 ], [ 105.651254175536778, -5.663870135995231, 0.0 ], [ 105.651307411793255, -5.663895353169352, 0.0 ], [ 105.65132142133443, -5.663900956985823, 0.0 ], [ 105.651371855682669, -5.663920570343472, 0.0 ], [ 105.65140407762739, -5.663933178930533, 0.0 ], [ 105.651413183829149, -5.663939483224062, 0.0 ], [ 105.651484632489229, -5.663963999921124, 0.0 ], [ 105.651539970176813, -5.663984313755832, 0.0 ], [ 105.651602312635134, -5.664022839994073, 0.0 ], [ 105.65163523505683, -5.664051559553487, 0.0 ], [ 105.651654147937492, -5.664066269571725, 0.0 ], [ 105.651682464574151, -5.664070421612621, 0.0 ], [ 105.651702570266067, -5.664103931382896, 0.0 ], [ 105.651736103753308, -5.664130012984083, 0.0 ], [ 105.651764122835672, -5.664180447332325, 0.0 ], [ 105.651811755275673, -5.664267306487629, 0.0 ], [ 105.651826803872197, -5.664330845006307, 0.0 ], [ 105.651828789666979, -5.664338291878607, 0.0 ], [ 105.651828951916201, -5.664339914525455, 0.0 ], [ 105.651836972449786, -5.664373779000582, 0.0 ], [ 105.651842576266262, -5.66443261907353, 0.0 ], [ 105.651797745734498, -5.664527883953541, 0.0 ], [ 105.652531845692209, -5.664821383841221, 0.0 ], [ 105.652655129654576, -5.665034328867128, 0.0 ], [ 105.652688752553402, -5.665157612829494, 0.0 ], [ 105.652688752553402, -5.665381765488344, 0.0 ], [ 105.652688752553402, -5.665471426551884, 0.0 ], [ 105.652610299122799, -5.665782438366036, 0.0 ], [ 105.652711167819277, -5.666342820013159, 0.0 ], [ 105.652711167819277, -5.666466103975526, 0.0 ], [ 105.652248568865872, -5.668273131137298, 0.0 ], [ 105.652333847129398, -5.668313262047377, 0.0 ], [ 105.652484892763653, -5.668332142414386, 0.0 ], [ 105.652541534764055, -5.668453686688224, 0.0 ], [ 105.652541534764055, -5.668505608147257, 0.0 ], [ 105.652541534764055, -5.668552809964183, 0.0 ], [ 105.652607616948046, -5.668600011781052, 0.0 ], [ 105.652598176764513, -5.668666093965044, 0.0 ], [ 105.652565135672546, -5.668821859241348, 0.0 ], [ 105.652815304582703, -5.669273815334236, 0.0 ], [ 105.652909707317178, -5.669415420785015, 0.0 ], [ 105.653008831492457, -5.669523984244449, 0.0 ], [ 105.653126835135367, -5.669632547703884, 0.0 ], [ 105.65317875749372, -5.66984023533854, 0.0 ], [ 105.653287320953154, -5.669986560431369, 0.0 ], [ 105.653523329138409, -5.669953519339401, 0.0 ], [ 105.653596491684823, -5.670111055380858, 0.0 ], [ 105.653561090771802, -5.670226699202772, 0.0 ], [ 105.653610652409725, -5.670465067209022, 0.0 ], [ 105.653624813134684, -5.670547670838289, 0.0 ], [ 105.653653133685225, -5.670646794114191, 0.0 ], [ 105.65371921586916, -5.670778958482117, 0.0 ], [ 105.653804179319479, -5.670894602304031, 0.0 ], [ 105.653860821319881, -5.670939444299847, 0.0 ], [ 105.653943424049828, -5.670965405029392, 0.0 ], [ 105.654033697097475, -5.670977205933241, 0.0 ], [ 105.654031337276479, -5.670977205933241, 0.0 ], [ 105.654014816730466, -5.671029127392273, 0.0 ], [ 105.653877931821171, -5.671477542854291, 0.0 ], [ 105.653840170187777, -5.671746593030775, 0.0 ], [ 105.653863771096212, -5.672058123583497, 0.0 ], [ 105.653882539048027, -5.672423867967098, 0.0 ], [ 105.654038417638901, -5.673500134323717, 0.0 ], [ 105.653972335454966, -5.67391550869371, 0.0 ], [ 105.653217108183071, -5.674234120508231, 0.0 ], [ 105.653151025999136, -5.674404046509494, 0.0 ], [ 105.653160466182612, -5.674536210877363, 0.0 ], [ 105.653254869816465, -5.674630614511216, 0.0 ], [ 105.653462557451121, -5.674706136878683, 0.0 ], [ 105.653698565636375, -5.674677816328142, 0.0 ], [ 105.653802409453704, -5.674809980696011, 0.0 ], [ 105.653877931821171, -5.674970466513798, 0.0 ], [ 105.653868491637638, -5.675178153249135, 0.0 ], [ 105.653783528187319, -5.675215914882529, 0.0 ], [ 105.654208343640221, -5.675291437249996, 0.0 ], [ 105.654746442194607, -5.676405396891482, 0.0 ], [ 105.654680360010673, -5.676620164888675, 0.0 ], [ 105.654718121644066, -5.677054419625733, 0.0 ], [ 105.654453792008951, -5.67717714381007, 0.0 ], [ 105.654567076009812, -5.677845047810649, 0.0 ], [ 105.65467091982714, -5.678005533628436, 0.0 ], [ 105.654774763644468, -5.678024413995445, 0.0 ], [ 105.655020212013255, -5.678081055995904, 0.0 ], [ 105.655114615647051, -5.678166018546847, 0.0 ], [ 105.655133496014116, -5.678317064181101, 0.0 ], [ 105.655180697830986, -5.678666356367216, 0.0 ], [ 105.655303422015379, -5.678722998367618, 0.0 ], [ 105.655322302382388, -5.679213896004455, 0.0 ], [ 105.655227899647912, -5.679296498734402, 0.0 ], [ 105.655563031109068, -5.681491376026145, 0.0 ], [ 105.655676315109929, -5.681859549478588, 0.0 ], [ 105.65570463655979, -5.682265483665105, 0.0 ], [ 105.65570463655979, -5.682312685481975, 0.0 ], [ 105.655846241111192, -5.682558133850762, 0.0 ], [ 105.656204973480783, -5.683587130041985, 0.0 ], [ 105.65603504747952, -5.684427319864881, 0.0 ], [ 105.655858687728312, -5.684362189163664, 0.0 ], [ 105.655527006965883, -5.686851684357691, 0.0 ], [ 105.655361248422935, -5.688168233377212, 0.0 ], [ 105.655272155285786, -5.688798044793884, 0.0 ], [ 105.655219028735246, -5.689173615170148, 0.0 ], [ 105.655291680466746, -5.690035149502478, 0.0 ], [ 105.655388175923633, -5.690848790439304, 0.0 ], [ 105.65538982887756, -5.692308750748225, 0.0 ], [ 105.655056572502872, -5.69341008570683, 0.0 ], [ 105.65559333286609, -5.69486287841903, 0.0 ], [ 105.655427436726882, -5.694856419488133, 0.0 ], [ 105.654642039898306, -5.694825843437854, 0.0 ], [ 105.654355712845927, -5.695170816180166, 0.0 ], [ 105.653878912082178, -5.696109563605432, 0.0 ], [ 105.653726689235384, -5.696722441687314, 0.0 ], [ 105.653441009694916, -5.697641824910249, 0.0 ], [ 105.653307705885993, -5.698082357814542, 0.0 ], [ 105.653021225049542, -5.698293300994976, 0.0 ], [ 105.652562453894177, -5.698274674236757, 0.0 ], [ 105.652008130670765, -5.698275301963577, 0.0 ], [ 105.651644975435318, -5.698294858620784, 0.0 ], [ 105.651435622256201, -5.699099272513365, 0.0 ], [ 105.651264108052203, -5.699558996950088, 0.0 ], [ 105.650748358549947, -5.699865933765807, 0.0 ], [ 105.650347144904856, -5.700038709718626, 0.0 ], [ 105.649983968085735, -5.700039119809503, 0.0 ], [ 105.649639752572568, -5.699905478754772, 0.0 ], [ 105.648932640828775, -5.700021157650269, 0.0 ], [ 105.648492917314343, -5.699945065112615, 0.0 ], [ 105.648493733898761, -5.700672652620767, 0.0 ], [ 105.648417769964169, -5.701113121673188, 0.0 ], [ 105.648265496755357, -5.701687704823655, 0.0 ], [ 105.648132273885381, -5.702204826691343, 0.0 ], [ 105.648151946555174, -5.702702630222177, 0.0 ], [ 105.648037752440359, -5.703143138844723, 0.0 ], [ 105.647923838014776, -5.703832562722539, 0.0 ], [ 105.647637995696982, -5.704617913685695, 0.0 ], [ 105.647370774741546, -5.704962863045637, 0.0 ], [ 105.647122239899488, -5.704924848702774, 0.0 ], [ 105.647103619436564, -5.705365252104627, 0.0 ], [ 105.647218524015727, -5.705556593661811, 0.0 ], [ 105.647372170489348, -5.706207423134003, 0.0 ], [ 105.647449597620891, -5.707068952969735, 0.0 ], [ 105.647163498097029, -5.707624540639983, 0.0 ], [ 105.646476346806026, -5.708506077693301, 0.0 ], [ 105.646113357045863, -5.708678810478659, 0.0 ], [ 105.645692850244927, -5.708698430088418, 0.0 ], [ 105.645463276708938, -5.708526363700685, 0.0 ], [ 105.644908966076002, -5.708546132597917, 0.0 ], [ 105.644546035671056, -5.708776305082381, 0.0 ], [ 105.644183388552619, -5.709255389224779, 0.0 ], [ 105.643839298045236, -5.70923662666894, 0.0 ], [ 105.64353311666008, -5.708930616154987, 0.0 ], [ 105.643303695109523, -5.708892578429698, 0.0 ], [ 105.643055434560722, -5.709103473946129, 0.0 ], [ 105.643036681897399, -5.709428996151189, 0.0 ], [ 105.642558829826214, -5.70944867781418, 0.0 ], [ 105.642463446830675, -5.709621107528051, 0.0 ], [ 105.642483947776043, -5.710865646932007, 0.0 ], [ 105.64235082563016, -5.711478501631518, 0.0 ], [ 105.64193116778921, -5.712264000982827, 0.0 ], [ 105.641817375671394, -5.712521230470372, 0.0 ], [ 105.641626091670844, -5.712953637999931, 0.0 ], [ 105.641454463252956, -5.713317624208969, 0.0 ], [ 105.641416827524608, -5.713853784724336, 0.0 ], [ 105.641321657668414, -5.714217683699076, 0.0 ], [ 105.641284363682473, -5.715060200068137, 0.0 ], [ 105.640827515277692, -5.715560286078301, 0.0 ], [ 105.64001579889009, -5.71617150491096, 0.0 ], [ 105.639926320843074, -5.71615240331073, 0.0 ], [ 105.640014308713432, -5.716197125696738, 0.0 ], [ 105.639887517794762, -5.716306545310772, 0.0 ], [ 105.639850706744767, -5.716365444609551, 0.0 ], [ 105.639784445595751, -5.716564228056654, 0.0 ], [ 105.639718183547416, -5.716770374253315, 0.0 ], [ 105.639688734347658, -5.71691025840164, 0.0 ], [ 105.639629835948256, -5.717050143449342, 0.0 ], [ 105.639475226300704, -5.717293101595317, 0.0 ], [ 105.639261717354429, -5.71738881194409, 0.0 ], [ 105.639136557805955, -5.71738881194409, 0.0 ], [ 105.638915687009387, -5.71738881194409, 0.0 ], [ 105.638768440111505, -5.717285738845703, 0.0 ], [ 105.638444496216607, -5.716991245049883, 0.0 ], [ 105.638230987270333, -5.716814548052923, 0.0 ], [ 105.637995391873915, -5.71671883770415, 0.0 ], [ 105.637995391873915, -5.716932345751104, 0.0 ], [ 105.637929130724842, -5.717341877225806, 0.0 ], [ 105.637607027742206, -5.717336355388454, 0.0 ], [ 105.637590462230094, -5.71797319950349, 0.0 ], [ 105.637587701311418, -5.718191309381382, 0.0 ], [ 105.637594143155241, -5.718212475825055, 0.0 ], [ 105.637603346817059, -5.718218917668878, 0.0 ], [ 105.637618991423381, -5.718255729618193, 0.0 ], [ 105.637626354172994, -5.718285179717213, 0.0 ], [ 105.63763279601676, -5.718322911672999, 0.0 ], [ 105.637649361528872, -5.718349599954024, 0.0 ], [ 105.637671447979017, -5.718385490997548, 0.0 ], [ 105.637687093484658, -5.718423223852653, 0.0 ], [ 105.637685252572396, -5.718456353977501, 0.0 ], [ 105.637676969816368, -5.718491325014611, 0.0 ], [ 105.637661325210047, -5.718520775113632, 0.0 ], [ 105.637639237860583, -5.718576912594415, 0.0 ], [ 105.637582179474066, -5.718677685226965, 0.0 ], [ 105.637543527511866, -5.71872922177613, 0.0 ], [ 105.637507635568966, -5.718780758325295, 0.0 ], [ 105.637479106375736, -5.718825852131317, 0.0 ], [ 105.637478186369265, -5.71886726591157, 0.0 ], [ 105.637464381775885, -5.718919722467149, 0.0 ], [ 105.637455179013386, -5.718958375328725, 0.0 ], [ 105.637399961539074, -5.719006230053424, 0.0 ], [ 105.637270199260342, -5.719043042002738, 0.0 ], [ 105.637189213511476, -5.719072491202439, 0.0 ], [ 105.636850545016728, -5.719116665901367, 0.0 ], [ 105.636754834667954, -5.719175564300826, 0.0 ], [ 105.636673848919031, -5.719411159697188, 0.0 ], [ 105.636232107325952, -5.719617305893905, 0.0 ], [ 105.635827177682188, -5.719713017141999, 0.0 ], [ 105.635790365732873, -5.719816089341009, 0.0 ], [ 105.635790365732873, -5.719992786337968, 0.0 ], [ 105.635760916533116, -5.720176845185222, 0.0 ], [ 105.635702017234394, -5.720243106334237, 0.0 ], [ 105.63570937998395, -5.720633311378151, 0.0 ], [ 105.635738829183708, -5.720861544924333, 0.0 ], [ 105.635731466434095, -5.721008791822214, 0.0 ], [ 105.63559158228577, -5.721008791822214, 0.0 ], [ 105.634958419095824, -5.7209719798729, 0.0 ], [ 105.634884795197195, -5.721052965621823, 0.0 ], [ 105.634928048990332, -5.721732143523582, 0.0 ], [ 105.634896758878369, -5.721768955472896, 0.0 ], [ 105.634889397028132, -5.721792882835246, 0.0 ], [ 105.634848904153671, -5.721842579371469, 0.0 ], [ 105.634817614041708, -5.721881231333725, 0.0 ], [ 105.634817614041708, -5.721923565120392, 0.0 ], [ 105.634790004854892, -5.721930926970629, 0.0 ], [ 105.634742150130194, -5.721958536157445, 0.0 ], [ 105.634732946468375, -5.72198154351338, 0.0 ], [ 105.63472006278073, -5.722005470875729, 0.0 ], [ 105.634710860018231, -5.722022036387841, 0.0 ], [ 105.634718221868525, -5.722055167412009, 0.0 ], [ 105.634749511980431, -5.722075413849211, 0.0 ], [ 105.634751352892692, -5.722108543974059, 0.0 ], [ 105.634771599329895, -5.722160080523224, 0.0 ], [ 105.634764236580338, -5.722264994533816, 0.0 ], [ 105.634753192905578, -5.722329414770627, 0.0 ], [ 105.63472006278073, -5.722382792232054, 0.0 ], [ 105.634661163481951, -5.722506111767586, 0.0 ], [ 105.634655641644599, -5.722585256604248, 0.0 ], [ 105.634664845306418, -5.722680967852341, 0.0 ], [ 105.634664845306418, -5.722745388089152, 0.0 ], [ 105.634665765312889, -5.722860424868657, 0.0 ], [ 105.634673128062445, -5.722885273136797, 0.0 ], [ 105.634684170837886, -5.722924846004787, 0.0 ], [ 105.634689692675238, -5.722949693373607, 0.0 ], [ 105.634689692675238, -5.722992947166745, 0.0 ], [ 105.634688772668767, -5.723003070834977, 0.0 ], [ 105.634677728994063, -5.723022397265765, 0.0 ], [ 105.634665765312889, -5.723038961878558, 0.0 ], [ 105.634657482556861, -5.723047244634586, 0.0 ], [ 105.634636316113131, -5.723048165540376, 0.0 ], [ 105.634622511519751, -5.723048165540376, 0.0 ], [ 105.634609626932786, -5.723048165540376, 0.0 ], [ 105.634608706926372, -5.723050005553262, 0.0 ], [ 105.634605946007639, -5.723064730153112, 0.0 ], [ 105.634604105994754, -5.723092339339928, 0.0 ], [ 105.63458201864529, -5.723107063939779, 0.0 ], [ 105.634567294045439, -5.723139734511108, 0.0 ], [ 105.634578337720143, -5.723155379117429, 0.0 ], [ 105.634586619576908, -5.723187590135126, 0.0 ], [ 105.634589380495584, -5.723201394728562, 0.0 ], [ 105.634590301401374, -5.723221641165765, 0.0 ], [ 105.634590301401374, -5.723232683941148, 0.0 ], [ 105.63459674324514, -5.723237285772086, 0.0 ], [ 105.634613308757253, -5.723261213134435, 0.0 ], [ 105.634613308757253, -5.723274097721401, 0.0 ], [ 105.634618830594604, -5.723296185070865, 0.0 ], [ 105.634622511519751, -5.723321953345419, 0.0 ], [ 105.634625272438427, -5.723341278876887, 0.0 ], [ 105.634633555194455, -5.723368888063703, 0.0 ], [ 105.634644598869215, -5.723392815426052, 0.0 ], [ 105.634642757956954, -5.723413061863255, 0.0 ], [ 105.634638156126073, -5.723441591056542, 0.0 ], [ 105.634640917044749, -5.72347564208718, 0.0 ], [ 105.634642757956954, -5.723479323012327, 0.0 ], [ 105.634653801631714, -5.72350049035532, 0.0 ], [ 105.634663004394213, -5.723523497711199, 0.0 ], [ 105.634664845306418, -5.723547425073548, 0.0 ], [ 105.634669446238036, -5.723573193348159, 0.0 ], [ 105.634674048068916, -5.723590678866685, 0.0 ], [ 105.634675888981178, -5.723624729897324, 0.0 ], [ 105.634664845306418, -5.723655100002816, 0.0 ], [ 105.634651960719452, -5.723668903696876, 0.0 ], [ 105.634639997038278, -5.723695592877277, 0.0 ], [ 105.634624352431956, -5.723725502529874, 0.0 ], [ 105.634628033357103, -5.723750349898694, 0.0 ], [ 105.634633555194455, -5.723778879091924, 0.0 ], [ 105.634633555194455, -5.723795444604036, 0.0 ], [ 105.634637236119602, -5.723813850129034, 0.0 ], [ 105.634640917044749, -5.723835937478498, 0.0 ], [ 105.6346464388821, -5.723859864840847, 0.0 ], [ 105.6346464388821, -5.72389115495281, 0.0 ], [ 105.6346464388821, -5.723912322295803, 0.0 ], [ 105.634651501165933, -5.723926356216339, 0.0 ], [ 105.63465656255039, -5.723933718965895, 0.0 ], [ 105.63465426118529, -5.723944762640656, 0.0 ], [ 105.634651960719452, -5.723959947693402, 0.0 ], [ 105.634638616578968, -5.723987555980898, 0.0 ], [ 105.634618830594604, -5.724008262870996, 0.0 ], [ 105.634605946007639, -5.72401792608639, 0.0 ], [ 105.634602265082549, -5.724026208842417, 0.0 ], [ 105.634602265082549, -5.724045534373886, 0.0 ], [ 105.634604105994754, -5.724063019892412, 0.0 ], [ 105.634610547838577, -5.724077745391583, 0.0 ], [ 105.634627572904208, -5.724093389997904, 0.0 ], [ 105.634641837950539, -5.724135263331675, 0.0 ], [ 105.634682330824944, -5.724193471951139, 0.0 ], [ 105.634687852662353, -5.724201294254271, 0.0 ], [ 105.63469383405328, -5.72421049791609, 0.0 ], [ 105.634701196802837, -5.724221540691531, 0.0 ], [ 105.634705338180879, -5.72423304481913, 0.0 ], [ 105.634705338180879, -5.724247308966085, 0.0 ], [ 105.634699816343527, -5.724263874478197, 0.0 ], [ 105.634691533587443, -5.724293094350799, 0.0 ], [ 105.634682330824944, -5.724321163091133, 0.0 ], [ 105.634682330824944, -5.724342789987702, 0.0 ], [ 105.634690153128133, -5.724336348143879, 0.0 ], [ 105.63469383405328, -5.724363956431375, 0.0 ], [ 105.634690153128133, -5.724387884693101, 0.0 ], [ 105.634677269440488, -5.724389724705986, 0.0 ], [ 105.634703036815779, -5.72441181205545, 0.0 ], [ 105.63469751587769, -5.72443666032359, 0.0 ], [ 105.634701196802837, -5.724455065848588, 0.0 ], [ 105.63470890399276, -5.724483134588922, 0.0 ], [ 105.634747556854336, -5.725272747439305, 0.0 ], [ 105.633885240111795, -5.725177037090532, 0.0 ], [ 105.632827169738164, -5.728510723191278, 0.0 ], [ 105.633525754110337, -5.729992855385944, 0.0 ], [ 105.63419601793197, -5.73144430720896, 0.0 ], [ 105.634092174114585, -5.73144430720896, 0.0 ], [ 105.63427154029938, -5.731972965579871, 0.0 ], [ 105.634120495564503, -5.732100410305634, 0.0 ], [ 105.634290421565765, -5.732732912493873, 0.0 ], [ 105.634535869934496, -5.733360694140686, 0.0 ], [ 105.634708762799221, -5.73367213476115, 0.0 ], [ 105.634978683519478, -5.734038454710856, 0.0 ], [ 105.635113642980286, -5.734327655097161, 0.0 ], [ 105.635306443237823, -5.734693975046866, 0.0 ], [ 105.635402843366592, -5.734944615201755, 0.0 ], [ 105.635460683264, -5.73507957556194, 0.0 ], [ 105.63565348352148, -5.735407335280229, 0.0 ], [ 105.635827003213706, -5.735792935795303, 0.0 ], [ 105.635884844010377, -5.73594717582148, 0.0 ], [ 105.635904123676426, -5.736005015718831, 0.0 ], [ 105.636019803471186, -5.736409895899953, 0.0 ], [ 105.636231884294091, -5.737065416235907, 0.0 ], [ 105.636251163960083, -5.737393176853573, 0.0 ], [ 105.636366843754899, -5.73766309667451, 0.0 ], [ 105.636366843754899, -5.737990857292175, 0.0 ], [ 105.636289724191499, -5.73831861701052, 0.0 ], [ 105.636251163960083, -5.738492137602009, 0.0 ], [ 105.635963719949757, -5.738971791914594, 0.0 ], [ 105.633722934066213, -5.740283436931009, 0.0 ], [ 105.633471471930932, -5.740312319557859, 0.0 ], [ 105.632716245558356, -5.740293439190793, 0.0 ], [ 105.632263109554913, -5.740123513189531, 0.0 ], [ 105.631526763549346, -5.739651495919759, 0.0 ], [ 105.6310169855455, -5.739330525183561, 0.0 ], [ 105.630375043173785, -5.738745223912929, 0.0 ], [ 105.629866384825846, -5.73791316306199, 0.0 ], [ 105.628603063980279, -5.736392355522753, 0.0 ], [ 105.62684525090765, -5.730679502157273, 0.0 ], [ 105.626665544779144, -5.730224954218215, 0.0 ], [ 105.62629096725442, -5.729405792343414, 0.0 ], [ 105.625649637602649, -5.728930445226157, 0.0 ], [ 105.625302200981437, -5.728795953630848, 0.0 ], [ 105.624775442233144, -5.72839247884492, 0.0 ], [ 105.624271098750739, -5.728314025414322, 0.0 ], [ 105.624226268218962, -5.727540698741294, 0.0 ], [ 105.623957285028339, -5.726913071296517, 0.0 ], [ 105.623735934277775, -5.726632880472956, 0.0 ], [ 105.623500573985979, -5.726232207595263, 0.0 ], [ 105.623410912922438, -5.725772694644623, 0.0 ], [ 105.623354874757723, -5.72548129618812, 0.0 ], [ 105.623231590795356, -5.725245935896328, 0.0 ], [ 105.622776621743753, -5.724652585748174, 0.0 ], [ 105.622453594258047, -5.724234092529286, 0.0 ], [ 105.622226103551895, -5.723779594952305, 0.0 ], [ 105.621688220834756, -5.723540838438907, 0.0 ], [ 105.621575149973239, -5.723505878193691, 0.0 ], [ 105.62598026277449, -5.719885885441601, 0.0 ], [ 105.627381216892317, -5.7161957722953, 0.0 ], [ 105.627627784817051, -5.715125443349296, 0.0 ], [ 105.627493293221747, -5.714497815904518, 0.0 ] ] ] ] } }
]
}
