{
"type": "FeatureCollection",
"name": "Sungai",
"features": [
{ "type": "Feature", "properties": { "NAMOBJ": null, "FCODE": "DA02050400", "REMARK": "Sungai Satu Garis", "METADATA": "RBI50KPROVINSILAMPUNG", "SRS_ID": "4326", "ADATGL": 0, "DMAX": 0.0, "FNGAIR": 0, "JNSSNG": 0, "KLSSNG": 0, "LTKSGI": 0, "NAMWS": null, "STATUS": null, "UKRSGI": 0, "WMAX": 0.0, "DBTMXS": 0.0, "NAMDAS": null, "Keterangan": null, "Panjang": 0.0, "SHAPE_Leng": 0.10306944692 }, "geometry": { "type": "MultiLineString", "coordinates": [ [ [ 105.62579801349294, -5.726904543362598, 0.0 ], [ 105.625773628000019, -5.726872554999972, 0.0 ], [ 105.625560056000026, -5.726715665999959, 0.0 ], [ 105.625197121000014, -5.726496093, 0.0 ], [ 105.624989086000127, -5.726389154999944, 0.0 ], [ 105.624837612000121, -5.726326269999981, 0.0 ], [ 105.624661250000088, -5.726257166999948, 0.0 ], [ 105.624478119000031, -5.726169137999947, 0.0 ], [ 105.624358698, -5.726106216999981, 0.0 ], [ 105.62429389516349, -5.726063096156108, 0.0 ] ], [ [ 105.6295320439107, -5.735080932843005, 0.0 ], [ 105.629421293000036, -5.734843436999925, 0.0 ], [ 105.629195600000102, -5.734492632999943, 0.0 ], [ 105.628748562000055, -5.733949829999973, 0.0 ], [ 105.628610591000012, -5.733690870999951, 0.0 ], [ 105.62855606600003, -5.733431820999923, 0.0 ], [ 105.628518035000084, -5.732993047999945, 0.0 ], [ 105.628500655000067, -5.732362008999957, 0.0 ], [ 105.628441749000075, -5.731910720999921, 0.0 ], [ 105.628299510000033, -5.731564003999922, 0.0 ], [ 105.628069679000106, -5.731242457999962, 0.0 ], [ 105.627610392000037, -5.730942059999976, 0.0 ], [ 105.627092639000097, -5.730591573999932, 0.0 ], [ 105.626787662000083, -5.730228317999985, 0.0 ], [ 105.626637111000065, -5.729910864, 0.0 ], [ 105.626452973000099, -5.729401203999939, 0.0 ], [ 105.626297431000111, -5.728331499999983, 0.0 ], [ 105.626234227000026, -5.727763198999946, 0.0 ], [ 105.625947421041488, -5.727146108956171, 0.0 ] ], [ [ 105.629811429700482, -5.735985684247912, 0.0 ], [ 105.629788776939932, -5.735884107443522, 0.0 ] ] ] } }
]
}
