{
"type": "FeatureCollection",
"name": "Masjid",
"crs": { "type": "name", "properties": { "name": "urn:ogc:def:crs:OGC:1.3:CRS84" } },
"features": [
{ "type": "Feature", "properties": { "OID_": 0, "Name": "Masjid Nurul Falah", "FolderPath": "Tempat Ibadah2.kml/Tempat Ibadah", "SymbolID": 0, "AltMode": -1, "Base": 0.0, "Snippet": null, "PopupInfo": null, "HasLabel": -1, "LabelID": 0 }, "geometry": { "type": "Point", "coordinates": [ 105.626646440000059, -5.729822156999944, 0.0 ] } },
{ "type": "Feature", "properties": { "OID_": 0, "Name": "Masjid Nurul Yaqin", "FolderPath": "Tempat Ibadah2.kml/Tempat Ibadah", "SymbolID": 0, "AltMode": -1, "Base": 0.0, "Snippet": null, "PopupInfo": null, "HasLabel": -1, "LabelID": 0 }, "geometry": { "type": "Point", "coordinates": [ 105.627704166000058, -5.728590942999972, 0.0 ] } },
{ "type": "Feature", "properties": { "OID_": 0, "Name": "Masjid Nurul Amal", "FolderPath": "Tempat Ibadah2.kml/Tempat Ibadah", "SymbolID": 0, "AltMode": -1, "Base": 0.0, "Snippet": null, "PopupInfo": null, "HasLabel": -1, "LabelID": 0 }, "geometry": { "type": "Point", "coordinates": [ 105.63187219200006, -5.728548113999977, 0.0 ] } },
{ "type": "Feature", "properties": { "OID_": 0, "Name": "Masjid Al-Husna", "FolderPath": "Tempat Ibadah2.kml/Tempat Ibadah", "SymbolID": 0, "AltMode": -1, "Base": 0.0, "Snippet": null, "PopupInfo": null, "HasLabel": -1, "LabelID": 0 }, "geometry": { "type": "Point", "coordinates": [ 105.630878667000047, -5.724504884999931, 0.0 ] } },
{ "type": "Feature", "properties": { "OID_": 0, "Name": "Masjid Nurul Iman Lubuk Jukung", "FolderPath": "Tempat Ibadah2.kml/Tempat Ibadah", "SymbolID": 0, "AltMode": -1, "Base": 0.0, "Snippet": null, "PopupInfo": null, "HasLabel": -1, "LabelID": 0 }, "geometry": { "type": "Point", "coordinates": [ 105.64985585800008, -5.672174206999955, 0.0 ] } }
]
}
