{
"type": "FeatureCollection",
"name": "Jalan",
"crs": { "type": "name", "properties": { "name": "urn:ogc:def:crs:OGC:1.3:CRS84" } },
"features": [
{ "type": "Feature", "properties": { "LEFT_FID": -1, "RIGHT_FID": 0 }, "geometry": { "type": "MultiLineString", "coordinates": [ [ [ 105.627493293221718, -5.714497815904488, 0.0 ], [ 105.627403632158178, -5.713915018991536, 0.0 ], [ 105.627291555828805, -5.713197730483214, 0.0 ], [ 105.627313971094708, -5.712727009899635, 0.0 ], [ 105.627762276412383, -5.711718322934748, 0.0 ], [ 105.628289175213681, -5.711052399766673, 0.0 ], [ 105.628972700770191, -5.710283745918191, 0.0 ], [ 105.629286514492577, -5.710104423791088, 0.0 ], [ 105.629600328214963, -5.709925101663985, 0.0 ], [ 105.629846896139611, -5.709723364271061, 0.0 ], [ 105.630586599913855, -5.709499211612227, 0.0 ], [ 105.630833167838588, -5.709319889485124, 0.0 ], [ 105.631146981560974, -5.709252643687482, 0.0 ], [ 105.631598027626893, -5.709117133748657, 0.0 ], [ 105.632206976570785, -5.708805323506852, 0.0 ], [ 105.632565029952218, -5.708481822078363, 0.0 ], [ 105.632540757250155, -5.708137200970978, 0.0 ], [ 105.632234204445055, -5.707486535175424, 0.0 ], [ 105.632271950789956, -5.707046110189787, 0.0 ], [ 105.631964435710145, -5.705514678059878, 0.0 ], [ 105.632135295207817, -5.7044422491105, 0.0 ], [ 105.632094279827214, -5.701895725207554, 0.0 ], [ 105.632570722660745, -5.700593196618656, 0.0 ], [ 105.633162062878966, -5.699482014083604, 0.0 ], [ 105.634631475062534, -5.697278475421222, 0.0 ], [ 105.637249375458381, -5.694265659332612, 0.0 ], [ 105.637244655816275, -5.694264146673015, 0.0 ], [ 105.637288266640297, -5.693506554184094, 0.0 ], [ 105.637282416550377, -5.693136026306559, 0.0 ], [ 105.637301297816705, -5.693060503939088, 0.0 ], [ 105.637339058550793, -5.693022742305712, 0.0 ], [ 105.637471223817968, -5.692815055570258, 0.0 ], [ 105.637641149819245, -5.692588487568565, 0.0 ], [ 105.637660030186296, -5.692512964301813, 0.0 ], [ 105.637660030186296, -5.692305277566448, 0.0 ], [ 105.637527865818399, -5.692078709564755, 0.0 ], [ 105.637471223817968, -5.691927663930444, 0.0 ], [ 105.637357939817122, -5.691606693194232, 0.0 ], [ 105.637357939817122, -5.691474527927057, 0.0 ], [ 105.637339058550793, -5.690794823921888, 0.0 ], [ 105.637414581817552, -5.690492733552813, 0.0 ], [ 105.637414581817552, -5.69036056918483, 0.0 ], [ 105.637527865818399, -5.69019064318356, 0.0 ], [ 105.63788659818799, -5.689888551915115, 0.0 ], [ 105.638169808190185, -5.689756387547221, 0.0 ], [ 105.638301972558082, -5.689756387547221, 0.0 ], [ 105.638566302193155, -5.689492057912063, 0.0 ], [ 105.63871734692809, -5.689227729176275, 0.0 ], [ 105.63871734692809, -5.689208847909947, 0.0 ], [ 105.638736228194418, -5.688699069906048, 0.0 ], [ 105.639038318563593, -5.688510263537819, 0.0 ], [ 105.639038318563593, -5.688208173168655, 0.0 ], [ 105.639019438196542, -5.688189291902238, 0.0 ], [ 105.638887272929367, -5.687736155898851, 0.0 ], [ 105.639340408932838, -5.687174456435998, 0.0 ], [ 105.639406492016022, -5.687155576068951, 0.0 ], [ 105.639434812566634, -5.687117814435575, 0.0 ], [ 105.639604738567911, -5.687117814435575, 0.0 ], [ 105.639774664569174, -5.687089493884959, 0.0 ], [ 105.639916270019924, -5.686966768801352, 0.0 ], [ 105.640067314754859, -5.686815724066411, 0.0 ], [ 105.640057874571298, -5.686787402616514, 0.0 ], [ 105.640029554020771, -5.686532514064294, 0.0 ], [ 105.639944590570451, -5.686173781694618, 0.0 ], [ 105.63998235220383, -5.686098258427777, 0.0 ], [ 105.640133396938765, -5.686041616427443, 0.0 ], [ 105.640378846206787, -5.685956653876404, 0.0 ], [ 105.640463808757829, -5.685890571692501, 0.0 ], [ 105.6405676525752, -5.685777287691654, 0.0 ], [ 105.640624294575616, -5.685579040240399, 0.0 ], [ 105.640709257126574, -5.685427994606266, 0.0 ], [ 105.640992467128768, -5.685163665870477, 0.0 ], [ 105.640888624210689, -5.684601965508254, 0.0 ], [ 105.640857942939746, -5.684500482411306, 0.0 ], [ 105.64082254112742, -5.684375397506561, 0.0 ], [ 105.64076589912699, -5.684243233138667, 0.0 ], [ 105.640758819663844, -5.684140569231869, 0.0 ], [ 105.640758819663844, -5.684062687043348, 0.0 ], [ 105.640758819663844, -5.684010764685024, 0.0 ], [ 105.640763539305937, -5.683977723593029, 0.0 ], [ 105.640810741122891, -5.683838478862616, 0.0 ], [ 105.640860302760785, -5.683762956495145, 0.0 ], [ 105.640945266211105, -5.683626071585871, 0.0 ], [ 105.640959426036687, -5.683574149227547, 0.0 ], [ 105.640957066215734, -5.683500986681126, 0.0 ], [ 105.640987747486676, -5.683430184855124, 0.0 ], [ 105.641053829670582, -5.683267339216283, 0.0 ], [ 105.641193074400903, -5.683134583993824, 0.0 ], [ 105.641216675309323, -5.683030740176457, 0.0 ], [ 105.641178913675958, -5.682874974900135, 0.0 ], [ 105.641145872583962, -5.682775851624236, 0.0 ], [ 105.641089230583617, -5.682653127439822, 0.0 ], [ 105.641032588583116, -5.682563444347402, 0.0 ], [ 105.640985387665623, -5.682459600530124, 0.0 ], [ 105.640905144756687, -5.682303835253713, 0.0 ], [ 105.640848502756256, -5.682138628894543, 0.0 ], [ 105.640848502756256, -5.681536807977264, 0.0 ], [ 105.640857942939746, -5.681181025384011, 0.0 ], [ 105.640860302760785, -5.681147984292015, 0.0 ], [ 105.640857942939746, -5.680794561519723, 0.0 ], [ 105.640837370048615, -5.680176113936445, 0.0 ], [ 105.640961786757103, -5.680169139694017, 0.0 ], [ 105.64107507075795, -5.680121937877073, 0.0 ], [ 105.641122271675528, -5.680074736060218, 0.0 ], [ 105.641150593125431, -5.679914250242427, 0.0 ], [ 105.641216675309323, -5.679697123323494, 0.0 ], [ 105.641235555676374, -5.679451674055472, 0.0 ], [ 105.641235555676374, -5.679102381869364, 0.0 ], [ 105.641178913675958, -5.678894694234718, 0.0 ], [ 105.641520183909364, -5.678700193359224, 0.0 ], [ 105.641575407678999, -5.678762529866824, 0.0 ], [ 105.641669811312809, -5.678753089683345, 0.0 ], [ 105.641731173854609, -5.678762529866824, 0.0 ], [ 105.641816136405652, -5.678786130775252, 0.0 ], [ 105.641910540039447, -5.678833332592196, 0.0 ], [ 105.64203326422377, -5.678875813867671, 0.0 ], [ 105.642118226774812, -5.678937176409563, 0.0 ], [ 105.642288152776075, -5.679116542594312, 0.0 ], [ 105.64249112076871, -5.679234546237258, 0.0 ], [ 105.642519441319237, -5.679163744411256, 0.0 ], [ 105.642566643136192, -5.679003258593466, 0.0 ], [ 105.642585523503143, -5.678899414776098, 0.0 ], [ 105.642566643136192, -5.678771970050303, 0.0 ], [ 105.642689367320514, -5.677881038678959, 0.0 ], [ 105.642734209316316, -5.677614349222751, 0.0 ], [ 105.64281799195679, -5.677623199451035, 0.0 ], [ 105.642935995599728, -5.676919895436719, 0.0 ], [ 105.642827432140351, -5.676860892715966, 0.0 ], [ 105.643006798325104, -5.676030143975944, 0.0 ], [ 105.643103561780038, -5.675501484705717, 0.0 ], [ 105.643108282321421, -5.675477883797289, 0.0 ], [ 105.643122443046366, -5.675437762342864, 0.0 ], [ 105.643131883229941, -5.675390561425201, 0.0 ], [ 105.643146043055523, -5.675293797970352, 0.0 ], [ 105.643157843959415, -5.675244236332358, 0.0 ], [ 105.643195605592794, -5.675159272882039, 0.0 ], [ 105.643247527051841, -5.675107351423084, 0.0 ], [ 105.643290008327227, -5.675093190698136, 0.0 ], [ 105.643372611057217, -5.675038908518762, 0.0 ], [ 105.643389131603215, -5.675010587968147, 0.0 ], [ 105.643522309760598, -5.674925765415876, 0.0 ], [ 105.643684820438224, -5.674808085269981, 0.0 ], [ 105.643824915850033, -5.674724028022951, 0.0 ], [ 105.644262013534743, -5.674354176135879, 0.0 ], [ 105.643976218894792, -5.674085192945225, 0.0 ], [ 105.643679216621791, -5.673726548691019, 0.0 ], [ 105.643404629614707, -5.673423942601588, 0.0 ], [ 105.643090815892322, -5.673059694530949, 0.0 ], [ 105.64290028613226, -5.672801918973339, 0.0 ], [ 105.642808551773314, -5.67253013995396, 0.0 ], [ 105.642751909772883, -5.672341333585643, 0.0 ], [ 105.642619744505708, -5.67177491358141, 0.0 ], [ 105.64292183577416, -5.671548345579628, 0.0 ], [ 105.643148403775854, -5.671548345579628, 0.0 ], [ 105.643412732511635, -5.671510583946252, 0.0 ], [ 105.643620420146277, -5.67135953921131, 0.0 ], [ 105.643922510515537, -5.671340657944982, 0.0 ], [ 105.645184541821394, -5.67139325960783, 0.0 ], [ 105.646103567722733, -5.671169106948995, 0.0 ], [ 105.646776025699239, -5.67085529322661, 0.0 ], [ 105.647089839421625, -5.670496648972493, 0.0 ], [ 105.647403653144011, -5.670474233706583, 0.0 ], [ 105.647448483675831, -5.670384572643031, 0.0 ], [ 105.647448483675831, -5.67027249631357, 0.0 ], [ 105.647448483675831, -5.670048343654735, 0.0 ], [ 105.647538144739286, -5.669913852059453, 0.0 ], [ 105.647582975271106, -5.66973452993235, 0.0 ], [ 105.647538144739286, -5.669532792539425, 0.0 ], [ 105.647717466866396, -5.669308639880591, 0.0 ], [ 105.647829543195854, -5.669084487221668, 0.0 ], [ 105.647896788993492, -5.668949995626385, 0.0 ], [ 105.647784712664034, -5.668770673499282, 0.0 ], [ 105.647807127929937, -5.668389613979255, 0.0 ], [ 105.647672636334661, -5.668299952915704, 0.0 ], [ 105.647650221068744, -5.668204688035719, 0.0 ], [ 105.647616598169975, -5.668092611706258, 0.0 ], [ 105.64758857908754, -5.66794691247802, 0.0 ], [ 105.647398049327577, -5.667352907932114, 0.0 ], [ 105.647319595896974, -5.667146967676776, 0.0 ], [ 105.647342011162891, -5.666900399752032, 0.0 ], [ 105.647342011162891, -5.666609001295556, 0.0 ], [ 105.647353218795757, -5.666519340232004, 0.0 ], [ 105.647325751082676, -5.666373863263133, 0.0 ], [ 105.64769995493991, -5.666277675646683, 0.0 ], [ 105.647767200737547, -5.665437103176033, 0.0 ], [ 105.648562942676463, -5.665403480277168, 0.0 ], [ 105.648831925867114, -5.665224158150065, 0.0 ], [ 105.648831925867114, -5.665078458921827, 0.0 ], [ 105.648675019005921, -5.664988797858276, 0.0 ], [ 105.648630188474101, -5.664798268098306, 0.0 ], [ 105.648876756398849, -5.664406000945324, 0.0 ], [ 105.648787095335294, -5.664204263552311, 0.0 ], [ 105.648831925867114, -5.664058564324074, 0.0 ], [ 105.648865548765897, -5.663946487994612, 0.0 ], [ 105.648910379297718, -5.663767165867598, 0.0 ], [ 105.649011247994139, -5.663643881905181, 0.0 ], [ 105.648988832728307, -5.663498182676943, 0.0 ], [ 105.649044870892993, -5.663464559778167, 0.0 ], [ 105.649269023551838, -5.663318860549841, 0.0 ], [ 105.649582837274224, -5.663251614752199, 0.0 ], [ 105.649580035366, -5.663170359413386, 0.0 ], [ 105.649622063989511, -5.663164755596953, 0.0 ], [ 105.649661290704813, -5.66298543346985, 0.0 ], [ 105.649860226189517, -5.662996641102805, 0.0 ], [ 105.649907858629561, -5.66316755750517, 0.0 ], [ 105.649983510151941, -5.663240407119244, 0.0 ], [ 105.650014331142501, -5.663330068182796, 0.0 ], [ 105.650031142591885, -5.663416927338131, 0.0 ], [ 105.650160030370742, -5.663573834199323, 0.0 ], [ 105.650188049453163, -5.663604655189883, 0.0 ], [ 105.650595727101432, -5.663662794785776, 0.0 ], [ 105.650864710291998, -5.663732842491723, 0.0 ], [ 105.651041230510884, -5.663794484472843, 0.0 ], [ 105.651189731647335, -5.663825305463491, 0.0 ], [ 105.651254175536764, -5.663870135995222, 0.0 ], [ 105.651307411793226, -5.663895353169349, 0.0 ], [ 105.651321421334401, -5.663900956985782, 0.0 ], [ 105.651371855682655, -5.663920570343476, 0.0 ], [ 105.651404077627419, -5.663933178930539, 0.0 ], [ 105.651413183829163, -5.663939483224071, 0.0 ], [ 105.651484632489215, -5.663963999921099, 0.0 ], [ 105.651539970176799, -5.663984313755802, 0.0 ], [ 105.651602312635106, -5.66402283999409, 0.0 ], [ 105.651635235056787, -5.664051559553443, 0.0 ], [ 105.651654147937478, -5.664066269571713, 0.0 ], [ 105.651682464574151, -5.664070421612647, 0.0 ], [ 105.65170257026611, -5.664103931382894, 0.0 ], [ 105.651736103753294, -5.66413001298404, 0.0 ], [ 105.651764122835644, -5.664180447332293, 0.0 ], [ 105.651811755275673, -5.664267306487628, 0.0 ], [ 105.651826803872183, -5.664330845006341, 0.0 ], [ 105.651828789666993, -5.664338291878615, 0.0 ], [ 105.651828951916229, -5.664339914525432, 0.0 ], [ 105.6518369724498, -5.664373779000567, 0.0 ], [ 105.651842576266233, -5.664432619073559, 0.0 ], [ 105.651797745734498, -5.664527883953544, 0.0 ], [ 105.652531845692209, -5.664821383841226, 0.0 ], [ 105.652655129654548, -5.665034328867105, 0.0 ], [ 105.652688752553402, -5.665157612829522, 0.0 ], [ 105.652688752553402, -5.665381765488356, 0.0 ], [ 105.652688752553402, -5.665471426551908, 0.0 ], [ 105.652610299122813, -5.665782438366077, 0.0 ], [ 105.652711167819319, -5.666342820013118, 0.0 ], [ 105.652711167819319, -5.666466103975535, 0.0 ], [ 105.652248568865858, -5.668273131137306, 0.0 ], [ 105.652333847129427, -5.668313262047367, 0.0 ], [ 105.652484892763653, -5.668332142414415, 0.0 ], [ 105.652541534764069, -5.66845368668826, 0.0 ], [ 105.652541534764069, -5.668505608147215, 0.0 ], [ 105.652541534764069, -5.668552809964159, 0.0 ], [ 105.65260761694806, -5.668600011781014, 0.0 ], [ 105.652598176764499, -5.668666093965006, 0.0 ], [ 105.652565135672589, -5.668821859241327, 0.0 ], [ 105.652815304582703, -5.669273815334233, 0.0 ], [ 105.652909707317136, -5.669415420784977, 0.0 ], [ 105.6530088314925, -5.669523984244443, 0.0 ], [ 105.653126835135353, -5.66963254770391, 0.0 ], [ 105.653178757493762, -5.669840235338556, 0.0 ], [ 105.65328732095314, -5.669986560431398, 0.0 ], [ 105.653523329138409, -5.669953519339402, 0.0 ], [ 105.653596491684823, -5.670111055380858, 0.0 ], [ 105.653561090771774, -5.670226699202755, 0.0 ], [ 105.653610652409682, -5.670465067209066, 0.0 ], [ 105.653624813134726, -5.670547670838247, 0.0 ], [ 105.653653133685253, -5.670646794114234, 0.0 ], [ 105.653719215869145, -5.670778958482129, 0.0 ], [ 105.653804179319465, -5.670894602304025, 0.0 ], [ 105.653860821319896, -5.67093944429983, 0.0 ], [ 105.6539434240498, -5.670965405029396, 0.0 ], [ 105.654033697097503, -5.670977205933206, 0.0 ], [ 105.65403133727645, -5.670977205933206, 0.0 ], [ 105.654014816730452, -5.67102912739225, 0.0 ], [ 105.653877931821171, -5.671477542854256, 0.0 ], [ 105.653840170187806, -5.671746593030794, 0.0 ], [ 105.653863771096226, -5.672058123583526, 0.0 ], [ 105.653882539048041, -5.672423867967106, 0.0 ], [ 105.654038417638873, -5.673500134323676, 0.0 ], [ 105.653972335454981, -5.673915508693686, 0.0 ], [ 105.653217108183057, -5.674234120508218, 0.0 ], [ 105.653151025999151, -5.674404046509488, 0.0 ], [ 105.653160466182626, -5.674536210877382, 0.0 ], [ 105.653254869816436, -5.674630614511181, 0.0 ], [ 105.653462557451164, -5.674706136878652, 0.0 ], [ 105.653698565636333, -5.674677816328125, 0.0 ], [ 105.653802409453704, -5.674809980696019, 0.0 ], [ 105.653877931821171, -5.67497046651381, 0.0 ], [ 105.65386849163761, -5.675178153249175, 0.0 ], [ 105.65378352818729, -5.675215914882551, 0.0 ], [ 105.654208343640235, -5.675291437250022, 0.0 ], [ 105.654746442194579, -5.676405396891441, 0.0 ], [ 105.654680360010673, -5.676620164888694, 0.0 ], [ 105.654718121644052, -5.677054419625752, 0.0 ], [ 105.654453792008979, -5.677177143810078, 0.0 ], [ 105.654567076009826, -5.677845047810629, 0.0 ], [ 105.654670919827097, -5.678005533628419, 0.0 ], [ 105.654774763644468, -5.678024413995467, 0.0 ], [ 105.655020212013298, -5.67808105599589, 0.0 ], [ 105.655114615647008, -5.678166018546841, 0.0 ], [ 105.655133496014145, -5.678317064181063, 0.0 ], [ 105.655180697831, -5.67866635636726, 0.0 ], [ 105.655303422015422, -5.678722998367594, 0.0 ], [ 105.655322302382373, -5.679213896004446, 0.0 ], [ 105.65522789964794, -5.679296498734435, 0.0 ], [ 105.655563031109111, -5.681491376026174, 0.0 ], [ 105.655676315109957, -5.68185954947861, 0.0 ], [ 105.655704636559761, -5.682265483665142, 0.0 ], [ 105.655704636559761, -5.682312685481997, 0.0 ], [ 105.65584624111122, -5.682558133850738, 0.0 ], [ 105.656204973480811, -5.683587130042015, 0.0 ], [ 105.656035047479534, -5.684427319864885, 0.0 ], [ 105.655858687728298, -5.684362189163697, 0.0 ], [ 105.655527006965883, -5.686851684357689, 0.0 ], [ 105.655361248422906, -5.688168233377181, 0.0 ], [ 105.655272155285772, -5.688798044793889, 0.0 ], [ 105.655219028735232, -5.68917361517011, 0.0 ], [ 105.655291680466703, -5.690035149502518, 0.0 ], [ 105.655388175923662, -5.690848790439277, 0.0 ], [ 105.655389828877531, -5.69230875074819, 0.0 ], [ 105.655056572502858, -5.693410085706799, 0.0 ], [ 105.655593332866118, -5.694862878419063, 0.0 ], [ 105.655427436726896, -5.694856419488162, 0.0 ], [ 105.654642039898349, -5.694825843437848, 0.0 ], [ 105.65435571284597, -5.695170816180132, 0.0 ], [ 105.653878912082206, -5.696109563605437, 0.0 ], [ 105.653726689235341, -5.696722441687322, 0.0 ], [ 105.653441009694873, -5.697641824910208, 0.0 ], [ 105.653307705885993, -5.698082357814585, 0.0 ], [ 105.653021225049514, -5.69829330099502, 0.0 ], [ 105.652562453894149, -5.69827467423675, 0.0 ], [ 105.652008130670737, -5.698275301963599, 0.0 ], [ 105.651644975435332, -5.698294858620781, 0.0 ], [ 105.651435622256187, -5.699099272513345, 0.0 ], [ 105.651264108052189, -5.699558996950086, 0.0 ], [ 105.650748358549976, -5.699865933765783, 0.0 ], [ 105.650347144904828, -5.700038709718616, 0.0 ], [ 105.649983968085721, -5.700039119809511, 0.0 ], [ 105.649639752572554, -5.699905478754755, 0.0 ], [ 105.648932640828733, -5.700021157650284, 0.0 ], [ 105.648492917314329, -5.699945065112591, 0.0 ], [ 105.648493733898732, -5.700672652620789, 0.0 ], [ 105.648417769964212, -5.701113121673221, 0.0 ], [ 105.648265496755329, -5.701687704823613, 0.0 ], [ 105.648132273885352, -5.70220482669134, 0.0 ], [ 105.648151946555146, -5.702702630222181, 0.0 ], [ 105.648037752440359, -5.703143138844738, 0.0 ], [ 105.647923838014734, -5.703832562722547, 0.0 ], [ 105.647637995697011, -5.704617913685653, 0.0 ], [ 105.647370774741518, -5.704962863045663, 0.0 ], [ 105.647122239899474, -5.704924848702789, 0.0 ], [ 105.647103619436521, -5.705365252104625, 0.0 ], [ 105.647218524015713, -5.705556593661801, 0.0 ], [ 105.64737217048939, -5.706207423133983, 0.0 ], [ 105.647449597620849, -5.707068952969721, 0.0 ], [ 105.647163498097044, -5.707624540639991, 0.0 ], [ 105.646476346806068, -5.708506077693301, 0.0 ], [ 105.646113357045863, -5.708678810478621, 0.0 ], [ 105.645692850244927, -5.70869843008838, 0.0 ], [ 105.645463276708924, -5.708526363700664, 0.0 ], [ 105.644908966075974, -5.708546132597939, 0.0 ], [ 105.644546035671041, -5.708776305082389, 0.0 ], [ 105.644183388552662, -5.709255389224791, 0.0 ], [ 105.643839298045194, -5.709236626668926, 0.0 ], [ 105.643533116660066, -5.70893061615502, 0.0 ], [ 105.643303695109509, -5.708892578429695, 0.0 ], [ 105.643055434560765, -5.709103473946123, 0.0 ], [ 105.643036681897428, -5.709428996151225, 0.0 ], [ 105.642558829826186, -5.709448677814192, 0.0 ], [ 105.642463446830646, -5.709621107528077, 0.0 ], [ 105.642483947776029, -5.710865646931965, 0.0 ], [ 105.642350825630189, -5.711478501631487, 0.0 ], [ 105.641931167789181, -5.712264000982828, 0.0 ], [ 105.641817375671408, -5.712521230470405, 0.0 ], [ 105.641626091670858, -5.712953637999921, 0.0 ], [ 105.64145446325297, -5.713317624209005, 0.0 ], [ 105.64141682752458, -5.713853784724368, 0.0 ], [ 105.641321657668399, -5.714217683699055, 0.0 ], [ 105.641284363682459, -5.71506020006817, 0.0 ], [ 105.640827515277664, -5.715560286078284, 0.0 ], [ 105.640015798890133, -5.716171504910986, 0.0 ], [ 105.639926320843117, -5.716152403310773, 0.0 ], [ 105.640014308713447, -5.716197125696746, 0.0 ], [ 105.63988751779479, -5.716306545310737, 0.0 ], [ 105.639850706744753, -5.716365444609509, 0.0 ], [ 105.639784445595751, -5.716564228056634, 0.0 ], [ 105.639718183547458, -5.71677037425328, 0.0 ], [ 105.639688734347658, -5.716910258401634, 0.0 ], [ 105.639629835948256, -5.717050143449357, 0.0 ], [ 105.639475226300689, -5.717293101595314, 0.0 ], [ 105.639261717354429, -5.717388811944116, 0.0 ], [ 105.639136557805926, -5.717388811944116, 0.0 ], [ 105.63891568700943, -5.717388811944116, 0.0 ], [ 105.638768440111463, -5.717285738845704, 0.0 ], [ 105.63844449621665, -5.716991245049866, 0.0 ], [ 105.638230987270305, -5.716814548052921, 0.0 ], [ 105.637995391873957, -5.716718837704119, 0.0 ], [ 105.637995391873957, -5.716932345751094, 0.0 ], [ 105.637929130724856, -5.717341877225782, 0.0 ], [ 105.637607027742163, -5.717336355388484, 0.0 ], [ 105.637590462230094, -5.717973199503526, 0.0 ], [ 105.637587701311404, -5.718191309381418, 0.0 ], [ 105.637594143155255, -5.718212475825038, 0.0 ], [ 105.637603346817087, -5.718218917668897, 0.0 ], [ 105.637618991423409, -5.718255729618208, 0.0 ], [ 105.637626354173022, -5.718285179717189, 0.0 ], [ 105.637632796016788, -5.718322911672971, 0.0 ], [ 105.637649361528872, -5.718349599954068, 0.0 ], [ 105.637671447979045, -5.718385490997538, 0.0 ], [ 105.637687093484644, -5.71842322385269, 0.0 ], [ 105.637685252572425, -5.718456353977467, 0.0 ], [ 105.63767696981634, -5.718491325014644, 0.0 ], [ 105.637661325210019, -5.718520775113626, 0.0 ], [ 105.637639237860569, -5.718576912594423, 0.0 ], [ 105.637582179474109, -5.718677685226973, 0.0 ], [ 105.637543527511852, -5.718729221776134, 0.0 ], [ 105.637507635569008, -5.718780758325296, 0.0 ], [ 105.637479106375778, -5.718825852131318, 0.0 ], [ 105.637478186369307, -5.718867265911546, 0.0 ], [ 105.637464381775928, -5.718919722467178, 0.0 ], [ 105.637455179013372, -5.718958375328712, 0.0 ], [ 105.637399961539046, -5.719006230053428, 0.0 ], [ 105.637270199260357, -5.719043042002739, 0.0 ], [ 105.63718921351149, -5.71907249120244, 0.0 ], [ 105.636850545016728, -5.719116665901361, 0.0 ], [ 105.636754834667926, -5.719175564300852, 0.0 ], [ 105.63667384891906, -5.719411159697199, 0.0 ], [ 105.636232107325981, -5.719617305893935, 0.0 ], [ 105.635827177682216, -5.719713017142017, 0.0 ], [ 105.635790365732902, -5.719816089340971, 0.0 ], [ 105.635790365732902, -5.719992786338005, 0.0 ], [ 105.635760916533116, -5.720176845185191, 0.0 ], [ 105.635702017234422, -5.720243106334203, 0.0 ], [ 105.63570937998395, -5.720633311378124, 0.0 ], [ 105.635738829183737, -5.720861544924319, 0.0 ], [ 105.635731466434123, -5.721008791822194, 0.0 ], [ 105.63559158228577, -5.721008791822194, 0.0 ], [ 105.63495841909581, -5.720971979872883, 0.0 ], [ 105.634884795197181, -5.721052965621834, 0.0 ], [ 105.634928048990361, -5.721732143523576, 0.0 ], [ 105.634896758878341, -5.721768955472887, 0.0 ], [ 105.634889397028104, -5.721792882835289, 0.0 ], [ 105.634848904153714, -5.721842579371509, 0.0 ], [ 105.634817614041708, -5.721881231333762, 0.0 ], [ 105.634817614041708, -5.721923565120371, 0.0 ], [ 105.63479000485485, -5.721930926970612, 0.0 ], [ 105.634742150130222, -5.72195853615746, 0.0 ], [ 105.63473294646839, -5.721981543513391, 0.0 ], [ 105.634720062780772, -5.722005470875705, 0.0 ], [ 105.634710860018217, -5.722022036387867, 0.0 ], [ 105.634718221868539, -5.722055167412013, 0.0 ], [ 105.634749511980473, -5.722075413849251, 0.0 ], [ 105.634751352892692, -5.722108543974028, 0.0 ], [ 105.634771599329923, -5.72216008052319, 0.0 ], [ 105.634764236580324, -5.722264994533824, 0.0 ], [ 105.634753192905549, -5.722329414770614, 0.0 ], [ 105.634720062780772, -5.722382792232087, 0.0 ], [ 105.634661163481994, -5.722506111767559, 0.0 ], [ 105.634655641644613, -5.722585256604288, 0.0 ], [ 105.634664845306446, -5.72268096785237, 0.0 ], [ 105.634664845306446, -5.72274538808916, 0.0 ], [ 105.634665765312917, -5.72286042486864, 0.0 ], [ 105.634673128062431, -5.722885273136794, 0.0 ], [ 105.634684170837929, -5.722924846004799, 0.0 ], [ 105.634689692675224, -5.722949693373583, 0.0 ], [ 105.634689692675224, -5.722992947166753, 0.0 ], [ 105.634688772668753, -5.723003070834968, 0.0 ], [ 105.634677728994063, -5.723022397265734, 0.0 ], [ 105.634665765312917, -5.723038961878527, 0.0 ], [ 105.634657482556833, -5.723047244634608, 0.0 ], [ 105.634636316113117, -5.72304816554036, 0.0 ], [ 105.634622511519737, -5.72304816554036, 0.0 ], [ 105.634609626932743, -5.72304816554036, 0.0 ], [ 105.634608706926358, -5.723050005553302, 0.0 ], [ 105.634605946007667, -5.723064730153152, 0.0 ], [ 105.634604105994725, -5.723092339339911, 0.0 ], [ 105.634582018645261, -5.723107063939762, 0.0 ], [ 105.634567294045411, -5.723139734511077, 0.0 ], [ 105.6345783377201, -5.723155379117398, 0.0 ], [ 105.634586619576908, -5.723187590135162, 0.0 ], [ 105.634589380495598, -5.723201394728542, 0.0 ], [ 105.634590301401346, -5.72322164116578, 0.0 ], [ 105.634590301401346, -5.723232683941185, 0.0 ], [ 105.634596743245112, -5.723237285772101, 0.0 ], [ 105.634613308757281, -5.723261213134415, 0.0 ], [ 105.634613308757281, -5.723274097721412, 0.0 ], [ 105.634618830594576, -5.723296185070873, 0.0 ], [ 105.634622511519737, -5.723321953345409, 0.0 ], [ 105.634625272438441, -5.723341278876895, 0.0 ], [ 105.634633555194426, -5.723368888063743, 0.0 ], [ 105.634644598869201, -5.723392815426057, 0.0 ], [ 105.634642757956982, -5.723413061863295, 0.0 ], [ 105.634638156126059, -5.723441591056525, 0.0 ], [ 105.634640917044763, -5.723475642087142, 0.0 ], [ 105.634642757956982, -5.723479323012307, 0.0 ], [ 105.634653801631757, -5.723500490355296, 0.0 ], [ 105.634663004394213, -5.723523497711228, 0.0 ], [ 105.634664845306446, -5.723547425073542, 0.0 ], [ 105.634669446238078, -5.723573193348167, 0.0 ], [ 105.634674048068902, -5.723590678866711, 0.0 ], [ 105.634675888981221, -5.723624729897328, 0.0 ], [ 105.634664845306446, -5.723655100002781, 0.0 ], [ 105.634651960719438, -5.72366890369688, 0.0 ], [ 105.634639997038292, -5.723695592877257, 0.0 ], [ 105.63462435243197, -5.723725502529878, 0.0 ], [ 105.634628033357131, -5.723750349898663, 0.0 ], [ 105.634633555194426, -5.723778879091893, 0.0 ], [ 105.634633555194426, -5.723795444604055, 0.0 ], [ 105.634637236119588, -5.72381385012907, 0.0 ], [ 105.634640917044763, -5.723835937478531, 0.0 ], [ 105.634646438882143, -5.723859864840844, 0.0 ], [ 105.634646438882143, -5.723891154952768, 0.0 ], [ 105.634646438882143, -5.723912322295846, 0.0 ], [ 105.634651501165891, -5.723926356216361, 0.0 ], [ 105.634656562550362, -5.723933718965882, 0.0 ], [ 105.634654261185304, -5.723944762640657, 0.0 ], [ 105.634651960719438, -5.723959947693428, 0.0 ], [ 105.634638616578982, -5.723987555980906, 0.0 ], [ 105.634618830594576, -5.724008262870975, 0.0 ], [ 105.634605946007667, -5.724017926086359, 0.0 ], [ 105.634602265082592, -5.72402620884244, 0.0 ], [ 105.634602265082592, -5.724045534373926, 0.0 ], [ 105.634604105994725, -5.724063019892381, 0.0 ], [ 105.634610547838591, -5.724077745391601, 0.0 ], [ 105.634627572904208, -5.724093389997923, 0.0 ], [ 105.634641837950511, -5.724135263331701, 0.0 ], [ 105.634682330824987, -5.724193471951136, 0.0 ], [ 105.634687852662367, -5.724201294254297, 0.0 ], [ 105.634693834053309, -5.72421049791613, 0.0 ], [ 105.634701196802837, -5.724221540691535, 0.0 ], [ 105.634705338180922, -5.724233044819141, 0.0 ], [ 105.634705338180922, -5.724247308966071, 0.0 ], [ 105.634699816343527, -5.724263874478233, 0.0 ], [ 105.634691533587443, -5.724293094350799, 0.0 ], [ 105.634682330824987, -5.724321163091109, 0.0 ], [ 105.634682330824987, -5.724342789987738, 0.0 ], [ 105.634690153128147, -5.72433634814388, 0.0 ], [ 105.634693834053309, -5.724363956431358, 0.0 ], [ 105.634690153128147, -5.72438788469313, 0.0 ], [ 105.634677269440516, -5.724389724705984, 0.0 ], [ 105.634703036815779, -5.724411812055444, 0.0 ], [ 105.634697515877662, -5.724436660323598, 0.0 ], [ 105.634701196802837, -5.724455065848614, 0.0 ], [ 105.634708903992745, -5.724483134588923, 0.0 ], [ 105.634747556854364, -5.725272747439317, 0.0 ], [ 105.633885240111823, -5.725177037090515, 0.0 ], [ 105.632827169738192, -5.728510723191286, 0.0 ], [ 105.633525754110323, -5.729992855385949, 0.0 ], [ 105.634196017932013, -5.731444307208947, 0.0 ], [ 105.634092174114556, -5.731444307208947, 0.0 ], [ 105.634271540299395, -5.731972965579893, 0.0 ], [ 105.634120495564531, -5.732100410305599, 0.0 ], [ 105.634290421565808, -5.732732912493913, 0.0 ], [ 105.634535869934453, -5.733360694140669, 0.0 ], [ 105.634708762799193, -5.733672134761162, 0.0 ], [ 105.634978683519464, -5.734038454710825, 0.0 ], [ 105.635113642980315, -5.73432765509713, 0.0 ], [ 105.635306443237852, -5.734693975046881, 0.0 ], [ 105.63540284336662, -5.734944615201734, 0.0 ], [ 105.635460683264014, -5.735079575561955, 0.0 ], [ 105.635653483521466, -5.735407335280255, 0.0 ], [ 105.635827003213677, -5.735792935795328, 0.0 ], [ 105.635884844010363, -5.735947175821502, 0.0 ], [ 105.635904123676411, -5.736005015718818, 0.0 ], [ 105.636019803471214, -5.736409895899933, 0.0 ], [ 105.636231884294077, -5.737065416235901, 0.0 ], [ 105.636251163960125, -5.73739317685357, 0.0 ], [ 105.636366843754928, -5.737663096674553, 0.0 ], [ 105.636366843754928, -5.737990857292133, 0.0 ], [ 105.636289724191485, -5.738318617010521, 0.0 ], [ 105.636251163960125, -5.738492137602017, 0.0 ], [ 105.635963719949743, -5.738971791914552, 0.0 ], [ 105.633722934066242, -5.740283436930974, 0.0 ], [ 105.633471471930946, -5.740312319557842, 0.0 ], [ 105.632716245558399, -5.740293439190794, 0.0 ], [ 105.632263109554913, -5.740123513189524, 0.0 ], [ 105.631526763549331, -5.739651495919721, 0.0 ], [ 105.631016985545514, -5.739330525183598, 0.0 ], [ 105.630375043173814, -5.738745223912948, 0.0 ], [ 105.629866384825831, -5.737913163061973, 0.0 ], [ 105.628603063980307, -5.736392355522782, 0.0 ], [ 105.626845250907692, -5.730679502157302, 0.0 ], [ 105.626665544779129, -5.730224954218191, 0.0 ], [ 105.626290967254405, -5.729405792343415, 0.0 ], [ 105.625649637602621, -5.728930445226191, 0.0 ], [ 105.625302200981452, -5.72879595363082, 0.0 ], [ 105.624775442233101, -5.728392478844882, 0.0 ], [ 105.624271098750754, -5.728314025414286, 0.0 ], [ 105.624226268218933, -5.727540698741277, 0.0 ], [ 105.623957285028368, -5.726913071296505, 0.0 ], [ 105.623735934277747, -5.726632880472985, 0.0 ], [ 105.62350057398595, -5.726232207595264, 0.0 ], [ 105.623410912922409, -5.725772694644641, 0.0 ], [ 105.623354874757723, -5.725481296188076, 0.0 ], [ 105.623231590795385, -5.725245935896287, 0.0 ], [ 105.622776621743711, -5.724652585748161, 0.0 ], [ 105.622453594258062, -5.724234092529326, 0.0 ], [ 105.622226103551881, -5.72377959495233, 0.0 ], [ 105.621688220834756, -5.723540838438926, 0.0 ], [ 105.621575149973282, -5.72350587819365, 0.0 ], [ 105.625980262774476, -5.719885885441603, 0.0 ], [ 105.627381216892346, -5.716195772295266, 0.0 ], [ 105.627627784817093, -5.715125443349259, 0.0 ], [ 105.627493293221718, -5.714497815904488, 0.0 ] ] ] } }
]
}
