{
"type": "FeatureCollection",
"name": "Jalan_Barut",
"crs": { "type": "name", "properties": { "name": "urn:ogc:def:crs:OGC:1.3:CRS84" } },
"features": [
{ "type": "Feature", "properties": { "OBJECTID": 1, "NAMOBJ": null, "FCODE": "CA02050160", "REMARK": "Jalan Lain", "METADATA": "RBI50KPROVINSILAMPUNG", "SRS_ID": "4326", "ARHRJL": 0, "AUTRJL": 0, "FGSRJL": 0, "JARRJL": 0, "JPARJL": 0, "KLLRJL": null, "KONRJL": 0, "KPMSTR": 0.0, "LKONOF": null, "LKSBSP": null, "LKSRTA": null, "LLHRRT": 0.0, "LOCRJL": 0, "LBRBHJ": 0.0, "LBRJLN": 0.0, "MATRJL": 0, "MEDRJL": 0, "SPCRJL": 0, "STARJL": 0, "TOLRJL": 0, "UTKRJL": 0, "VLCPRT": 0.0, "WLYRJL": 0, "TGL_SK": null, "JLNLYG": 0, "KLSRJL": 0, "Shape_Leng": 0.00340781625 }, "geometry": { "type": "MultiLineString", "coordinates": [ [ [ 105.625816926000084, -5.724156400999959, 0.0 ], [ 105.62580564700005, -5.724011679999933, 0.0 ], [ 105.625821388000077, -5.723327074999929, 0.0 ], [ 105.625893952000069, -5.722840963999943, 0.0 ], [ 105.625977157000079, -5.722537755999952, 0.0 ], [ 105.626189001000057, -5.722011185999975, 0.0 ], [ 105.626323523000053, -5.721882720999929, 0.0 ], [ 105.626570396000034, -5.721730295999976, 0.0 ], [ 105.62677924500008, -5.721562696999968, 0.0 ], [ 105.626908307000065, -5.72142181199996, 0.0 ], [ 105.627044882000064, -5.721189623999976, 0.0 ] ] ] } },
{ "type": "Feature", "properties": { "OBJECTID": 2, "NAMOBJ": null, "FCODE": "CA02050160", "REMARK": "Jalan Lain", "METADATA": "RBI50KPROVINSILAMPUNG", "SRS_ID": "4326", "ARHRJL": 0, "AUTRJL": 0, "FGSRJL": 0, "JARRJL": 0, "JPARJL": 0, "KLLRJL": null, "KONRJL": 0, "KPMSTR": 0.0, "LKONOF": null, "LKSBSP": null, "LKSRTA": null, "LLHRRT": 0.0, "LOCRJL": 0, "LBRBHJ": 0.0, "LBRJLN": 0.0, "MATRJL": 0, "MEDRJL": 0, "SPCRJL": 0, "STARJL": 0, "TOLRJL": 0, "UTKRJL": 0, "VLCPRT": 0.0, "WLYRJL": 0, "TGL_SK": null, "JLNLYG": 0, "KLSRJL": 0, "Shape_Leng": 0.0181009508 }, "geometry": { "type": "MultiLineString", "coordinates": [ [ [ 105.648493238000071, -5.700230498999929, 0.0 ], [ 105.648022322000088, -5.700207205999959, 0.0 ], [ 105.647244035000085, -5.699530547999927, 0.0 ], [ 105.646156088000055, -5.698930219999966, 0.0 ], [ 105.645358565000038, -5.698006627999973, 0.0 ], [ 105.64482048800005, -5.697323363999942, 0.0 ], [ 105.644661543000041, -5.696506701999965, 0.0 ], [ 105.644597758000089, -5.695993872999964, 0.0 ], [ 105.644198725000081, -5.695285123999952, 0.0 ], [ 105.643850312000041, -5.694620642999951, 0.0 ], [ 105.643354644000055, -5.692278319999957, 0.0 ], [ 105.642283282000051, -5.691641255999969, 0.0 ], [ 105.641921604000061, -5.69082272199995, 0.0 ], [ 105.641921604000061, -5.688367117999974, 0.0 ], [ 105.641769318000058, -5.686920405999956, 0.0 ], [ 105.641045962000078, -5.685454657999969, 0.0 ], [ 105.640957026000081, -5.685196743999938, 0.0 ] ] ] } },
{ "type": "Feature", "properties": { "OBJECTID": 3, "NAMOBJ": null, "FCODE": "CA02050160", "REMARK": "Jalan Lain", "METADATA": "RBI50KPROVINSILAMPUNG", "SRS_ID": "4326", "ARHRJL": 0, "AUTRJL": 0, "FGSRJL": 0, "JARRJL": 0, "JPARJL": 0, "KLLRJL": null, "KONRJL": 0, "KPMSTR": 0.0, "LKONOF": null, "LKSBSP": null, "LKSRTA": null, "LLHRRT": 0.0, "LOCRJL": 0, "LBRBHJ": 0.0, "LBRJLN": 0.0, "MATRJL": 0, "MEDRJL": 0, "SPCRJL": 0, "STARJL": 0, "TOLRJL": 0, "UTKRJL": 0, "VLCPRT": 0.0, "WLYRJL": 0, "TGL_SK": null, "JLNLYG": 0, "KLSRJL": 0, "Shape_Leng": 0.02636039883 }, "geometry": { "type": "MultiLineString", "coordinates": [ [ [ 105.63052310900008, -5.724722485999962, 0.0 ], [ 105.630290027000058, -5.723703235999949, 0.0 ], [ 105.630550089000053, -5.723565307999934, 0.0 ], [ 105.630810151000048, -5.723427380999965, 0.0 ], [ 105.632335502000046, -5.72264668899993, 0.0 ], [ 105.632668587000069, -5.722447176999935, 0.0 ], [ 105.632580215000075, -5.721843987999932, 0.0 ], [ 105.632602511000073, -5.720848238999963, 0.0 ], [ 105.632771827000056, -5.720613764999939, 0.0 ], [ 105.63316926300007, -5.720437609999976, 0.0 ], [ 105.633344333000082, -5.720115266999926, 0.0 ], [ 105.633735655000066, -5.719693115999974, 0.0 ], [ 105.634214761000067, -5.719341154999938, 0.0 ], [ 105.634430442000053, -5.71873176899993, 0.0 ], [ 105.634581882000077, -5.71819273899996, 0.0 ], [ 105.634727635000047, -5.717794287999936, 0.0 ], [ 105.63477970200006, -5.717290511999977, 0.0 ], [ 105.635171170000035, -5.717003080999973, 0.0 ], [ 105.635621057000037, -5.71667457999996, 0.0 ], [ 105.635772561000067, -5.716194121999933, 0.0 ], [ 105.635988643000076, -5.715942018999954, 0.0 ], [ 105.636275066000053, -5.715853847999938, 0.0 ], [ 105.636420706000081, -5.715355820999946, 0.0 ], [ 105.636408157000062, -5.714582684999925, 0.0 ], [ 105.636365992000037, -5.713469863999933, 0.0 ], [ 105.636698568000043, -5.712807636999969, 0.0 ], [ 105.636574488000065, -5.711648049999951, 0.0 ], [ 105.636439266000082, -5.710980478999943, 0.0 ], [ 105.636228320000043, -5.710582422999948, 0.0 ], [ 105.636314928000047, -5.709586603999981, 0.0 ], [ 105.636372744000084, -5.708978124999931, 0.0 ], [ 105.636491733000071, -5.707725840999956, 0.0 ], [ 105.63614909000006, -5.705917450999948, 0.0 ], [ 105.635578020000082, -5.705232165999973, 0.0 ], [ 105.635349591000079, -5.703956774999938, 0.0 ], [ 105.634283593000077, -5.70302402599998, 0.0 ], [ 105.634483923000062, -5.702369579999981, 0.0 ] ] ] } },
{ "type": "Feature", "properties": { "OBJECTID": 4, "NAMOBJ": null, "FCODE": "CA02050160", "REMARK": "Jalan Lain", "METADATA": "RBI50KPROVINSILAMPUNG", "SRS_ID": "4326", "ARHRJL": 0, "AUTRJL": 0, "FGSRJL": 0, "JARRJL": 0, "JPARJL": 0, "KLLRJL": null, "KONRJL": 0, "KPMSTR": 0.0, "LKONOF": null, "LKSBSP": null, "LKSRTA": null, "LLHRRT": 0.0, "LOCRJL": 0, "LBRBHJ": 0.0, "LBRJLN": 0.0, "MATRJL": 0, "MEDRJL": 0, "SPCRJL": 0, "STARJL": 0, "TOLRJL": 0, "UTKRJL": 0, "VLCPRT": 0.0, "WLYRJL": 0, "TGL_SK": null, "JLNLYG": 0, "KLSRJL": 0, "Shape_Leng": 0.00197545473 }, "geometry": { "type": "MultiLineString", "coordinates": [ [ [ 105.63113429200007, -5.728401620999932, 0.0 ], [ 105.631589948000055, -5.730323806999934, 0.0 ] ] ] } },
{ "type": "Feature", "properties": { "OBJECTID": 5, "NAMOBJ": null, "FCODE": "CA02050160", "REMARK": "Jalan Lain", "METADATA": "RBI50KPROVINSILAMPUNG", "SRS_ID": "4326", "ARHRJL": 0, "AUTRJL": 0, "FGSRJL": 0, "JARRJL": 0, "JPARJL": 0, "KLLRJL": null, "KONRJL": 0, "KPMSTR": 0.0, "LKONOF": null, "LKSBSP": null, "LKSRTA": null, "LLHRRT": 0.0, "LOCRJL": 0, "LBRBHJ": 0.0, "LBRJLN": 0.0, "MATRJL": 0, "MEDRJL": 0, "SPCRJL": 0, "STARJL": 0, "TOLRJL": 0, "UTKRJL": 0, "VLCPRT": 0.0, "WLYRJL": 0, "TGL_SK": null, "JLNLYG": 0, "KLSRJL": 0, "Shape_Leng": 0.00468157099 }, "geometry": { "type": "MultiLineString", "coordinates": [ [ [ 105.646785326000042, -5.66762373499995, 0.0 ], [ 105.64794366600006, -5.66731957899998, 0.0 ] ], [ [ 105.645728346000055, -5.668071694999981, 0.0 ], [ 105.646248212000046, -5.668044558999952, 0.0 ], [ 105.646289417000048, -5.668008504999932, 0.0 ] ], [ [ 105.644781601000034, -5.673032681999928, 0.0 ], [ 105.644662743000083, -5.670644892999974, 0.0 ], [ 105.644873079000035, -5.670171635999964, 0.0 ] ] ] } },
{ "type": "Feature", "properties": { "OBJECTID": 6, "NAMOBJ": null, "FCODE": "CA02050160", "REMARK": "Jalan Lain", "METADATA": "RBI50KPROVINSILAMPUNG", "SRS_ID": "4326", "ARHRJL": 0, "AUTRJL": 0, "FGSRJL": 0, "JARRJL": 0, "JPARJL": 0, "KLLRJL": null, "KONRJL": 0, "KPMSTR": 0.0, "LKONOF": null, "LKSBSP": null, "LKSRTA": null, "LLHRRT": 0.0, "LOCRJL": 0, "LBRBHJ": 0.0, "LBRJLN": 0.0, "MATRJL": 0, "MEDRJL": 0, "SPCRJL": 0, "STARJL": 0, "TOLRJL": 0, "UTKRJL": 0, "VLCPRT": 0.0, "WLYRJL": 0, "TGL_SK": null, "JLNLYG": 0, "KLSRJL": 0, "Shape_Leng": 0.00253236634 }, "geometry": { "type": "MultiLineString", "coordinates": [ [ [ 105.624674181000046, -5.726335272999961, 0.0 ], [ 105.624702982000088, -5.72627307099998, 0.0 ], [ 105.624787695000066, -5.726067003999958, 0.0 ], [ 105.624979564000057, -5.725739921999946, 0.0 ], [ 105.625, -5.725710483999933, 0.0 ], [ 105.625251253000044, -5.725267094999936, 0.0 ], [ 105.625397465000049, -5.725102814999957, 0.0 ], [ 105.625491041000032, -5.725000136999938, 0.0 ], [ 105.625567090000061, -5.724932646999946, 0.0 ], [ 105.625729703000047, -5.724738546999959, 0.0 ], [ 105.625806263000072, -5.724578924999946, 0.0 ], [ 105.625835578000078, -5.724395719999961, 0.0 ], [ 105.625816926000084, -5.724156400999959, 0.0 ] ] ] } },
{ "type": "Feature", "properties": { "OBJECTID": 7, "NAMOBJ": null, "FCODE": "CA02050160", "REMARK": "Jalan Lain", "METADATA": "RBI50KPROVINSILAMPUNG", "SRS_ID": "4326", "ARHRJL": 0, "AUTRJL": 0, "FGSRJL": 0, "JARRJL": 0, "JPARJL": 0, "KLLRJL": null, "KONRJL": 0, "KPMSTR": 0.0, "LKONOF": null, "LKSBSP": null, "LKSRTA": null, "LLHRRT": 0.0, "LOCRJL": 0, "LBRBHJ": 0.0, "LBRJLN": 0.0, "MATRJL": 0, "MEDRJL": 0, "SPCRJL": 0, "STARJL": 0, "TOLRJL": 0, "UTKRJL": 0, "VLCPRT": 0.0, "WLYRJL": 0, "TGL_SK": null, "JLNLYG": 0, "KLSRJL": 0, "Shape_Leng": 0.00382681845 }, "geometry": { "type": "MultiLineString", "coordinates": [ [ [ 105.629255477000072, -5.728406213999961, 0.0 ], [ 105.629463441000041, -5.727142325999978, 0.0 ], [ 105.629526029000033, -5.725560812999959, 0.0 ], [ 105.629261367000083, -5.724634703999925, 0.0 ] ] ] } },
{ "type": "Feature", "properties": { "OBJECTID": 8, "NAMOBJ": null, "FCODE": "CA02050160", "REMARK": "Jalan Lain", "METADATA": "RBI50KPROVINSILAMPUNG", "SRS_ID": "4326", "ARHRJL": 0, "AUTRJL": 0, "FGSRJL": 0, "JARRJL": 0, "JPARJL": 0, "KLLRJL": null, "KONRJL": 0, "KPMSTR": 0.0, "LKONOF": null, "LKSBSP": null, "LKSRTA": null, "LLHRRT": 0.0, "LOCRJL": 0, "LBRBHJ": 0.0, "LBRJLN": 0.0, "MATRJL": 0, "MEDRJL": 0, "SPCRJL": 0, "STARJL": 0, "TOLRJL": 0, "UTKRJL": 0, "VLCPRT": 0.0, "WLYRJL": 0, "TGL_SK": null, "JLNLYG": 0, "KLSRJL": 0, "Shape_Leng": 0.00492771769 }, "geometry": { "type": "MultiLineString", "coordinates": [ [ [ 105.648831559000087, -5.675146832999928, 0.0 ], [ 105.650030807000064, -5.675498992999962, 0.0 ], [ 105.651458483000056, -5.67757388299998, 0.0 ], [ 105.651915340000073, -5.677821346999963, 0.0 ], [ 105.652153981000083, -5.678414805999978, 0.0 ] ] ] } },
{ "type": "Feature", "properties": { "OBJECTID": 9, "NAMOBJ": null, "FCODE": "CA02050160", "REMARK": "Jalan Lain", "METADATA": "RBI50KPROVINSILAMPUNG", "SRS_ID": "4326", "ARHRJL": 0, "AUTRJL": 0, "FGSRJL": 0, "JARRJL": 0, "JPARJL": 0, "KLLRJL": null, "KONRJL": 0, "KPMSTR": 0.0, "LKONOF": null, "LKSBSP": null, "LKSRTA": null, "LLHRRT": 0.0, "LOCRJL": 0, "LBRBHJ": 0.0, "LBRJLN": 0.0, "MATRJL": 0, "MEDRJL": 0, "SPCRJL": 0, "STARJL": 0, "TOLRJL": 0, "UTKRJL": 0, "VLCPRT": 0.0, "WLYRJL": 0, "TGL_SK": null, "JLNLYG": 0, "KLSRJL": 0, "Shape_Leng": 0.00520907628 }, "geometry": { "type": "MultiLineString", "coordinates": [ [ [ 105.655137184000068, -5.68868174499994, 0.0 ], [ 105.654765801000053, -5.68853755899994, 0.0 ], [ 105.654078126000059, -5.688324866999949, 0.0 ], [ 105.653424284000039, -5.687942586999952, 0.0 ], [ 105.65314948300005, -5.687781919999964, 0.0 ], [ 105.652413035000052, -5.686990842999933, 0.0 ], [ 105.651972466000075, -5.686447332999933, 0.0 ], [ 105.651786292000054, -5.685944856999981, 0.0 ], [ 105.651476245000083, -5.685318564999932, 0.0 ] ] ] } },
{ "type": "Feature", "properties": { "OBJECTID": 10, "NAMOBJ": null, "FCODE": "CA02050160", "REMARK": "Jalan Lain", "METADATA": "RBI50KPROVINSILAMPUNG", "SRS_ID": "4326", "ARHRJL": 0, "AUTRJL": 0, "FGSRJL": 0, "JARRJL": 0, "JPARJL": 0, "KLLRJL": null, "KONRJL": 0, "KPMSTR": 0.0, "LKONOF": null, "LKSBSP": null, "LKSRTA": null, "LLHRRT": 0.0, "LOCRJL": 0, "LBRBHJ": 0.0, "LBRJLN": 0.0, "MATRJL": 0, "MEDRJL": 0, "SPCRJL": 0, "STARJL": 0, "TOLRJL": 0, "UTKRJL": 0, "VLCPRT": 0.0, "WLYRJL": 0, "TGL_SK": null, "JLNLYG": 0, "KLSRJL": 0, "Shape_Leng": 1.396711e-05 }, "geometry": { "type": "MultiLineString", "coordinates": [ [ [ 105.619283346000088, -5.723039121999932, 0.0 ], [ 105.619288247000043, -5.723026042999948, 0.0 ] ] ] } },
{ "type": "Feature", "properties": { "OBJECTID": 11, "NAMOBJ": null, "FCODE": "CA02050160", "REMARK": "Jalan Lain", "METADATA": "RBI50KPROVINSILAMPUNG", "SRS_ID": "4326", "ARHRJL": 0, "AUTRJL": 0, "FGSRJL": 0, "JARRJL": 0, "JPARJL": 0, "KLLRJL": null, "KONRJL": 0, "KPMSTR": 0.0, "LKONOF": null, "LKSBSP": null, "LKSRTA": null, "LLHRRT": 0.0, "LOCRJL": 0, "LBRBHJ": 0.0, "LBRJLN": 0.0, "MATRJL": 0, "MEDRJL": 0, "SPCRJL": 0, "STARJL": 0, "TOLRJL": 0, "UTKRJL": 0, "VLCPRT": 0.0, "WLYRJL": 0, "TGL_SK": null, "JLNLYG": 0, "KLSRJL": 0, "Shape_Leng": 0.01967350422 }, "geometry": { "type": "MultiLineString", "coordinates": [ [ [ 105.636372744000084, -5.708978124999931, 0.0 ], [ 105.634150343000044, -5.709096410999962, 0.0 ], [ 105.633388915000069, -5.709762659999967, 0.0 ], [ 105.632456167000043, -5.710257587999934, 0.0 ], [ 105.632303881000041, -5.710809622999932, 0.0 ], [ 105.631142704000069, -5.711323585999935, 0.0 ], [ 105.631314025000052, -5.71225633499995, 0.0 ], [ 105.630819098000075, -5.713493654999979, 0.0 ], [ 105.631180776000065, -5.714883259999965, 0.0 ], [ 105.63087620500005, -5.715263973999981, 0.0 ], [ 105.630647776000046, -5.715777936999928, 0.0 ], [ 105.630305134000082, -5.715987329999962, 0.0 ], [ 105.630590669000071, -5.716862970999955, 0.0 ], [ 105.630495491000033, -5.717319827999972, 0.0 ], [ 105.630895240000086, -5.718918825999936, 0.0 ], [ 105.630838133000054, -5.719337610999958, 0.0 ], [ 105.630685848000041, -5.719661216999953, 0.0 ], [ 105.630704883000078, -5.719927716999962, 0.0 ], [ 105.629981527000041, -5.720384573999979, 0.0 ], [ 105.630571634000034, -5.722478498999976, 0.0 ], [ 105.63024802700005, -5.72308764099995, 0.0 ], [ 105.630550089000053, -5.723565307999934, 0.0 ] ] ] } },
{ "type": "Feature", "properties": { "OBJECTID": 12, "NAMOBJ": null, "FCODE": "CA02050160", "REMARK": "Jalan Lain", "METADATA": "RBI50KPROVINSILAMPUNG", "SRS_ID": "4326", "ARHRJL": 0, "AUTRJL": 0, "FGSRJL": 0, "JARRJL": 0, "JPARJL": 0, "KLLRJL": null, "KONRJL": 0, "KPMSTR": 0.0, "LKONOF": null, "LKSBSP": null, "LKSRTA": null, "LLHRRT": 0.0, "LOCRJL": 0, "LBRBHJ": 0.0, "LBRJLN": 0.0, "MATRJL": 0, "MEDRJL": 0, "SPCRJL": 0, "STARJL": 0, "TOLRJL": 0, "UTKRJL": 0, "VLCPRT": 0.0, "WLYRJL": 0, "TGL_SK": null, "JLNLYG": 0, "KLSRJL": 0, "Shape_Leng": 0.01061710769 }, "geometry": { "type": "MultiLineString", "coordinates": [ [ [ 105.647930255000063, -5.673001460999956, 0.0 ], [ 105.647708453000064, -5.672491353999931, 0.0 ], [ 105.647670381000069, -5.670606820999978, 0.0 ], [ 105.647708453000064, -5.670073821999949, 0.0 ], [ 105.648507952000045, -5.669845393999935, 0.0 ], [ 105.648298559000068, -5.668322538999973, 0.0 ], [ 105.64794366600006, -5.66731957899998, 0.0 ], [ 105.647860738000077, -5.667085218999944, 0.0 ], [ 105.647632310000063, -5.666457040999944, 0.0 ], [ 105.647765560000039, -5.664344079999978, 0.0 ], [ 105.648089166000034, -5.664001436999968, 0.0 ], [ 105.647972241000048, -5.663307682999971, 0.0 ] ] ] } },
{ "type": "Feature", "properties": { "OBJECTID": 13, "NAMOBJ": null, "FCODE": "CA02050160", "REMARK": "Jalan Lain", "METADATA": "RBI50KPROVINSILAMPUNG", "SRS_ID": "4326", "ARHRJL": 0, "AUTRJL": 0, "FGSRJL": 0, "JARRJL": 0, "JPARJL": 0, "KLLRJL": null, "KONRJL": 0, "KPMSTR": 0.0, "LKONOF": null, "LKSBSP": null, "LKSRTA": null, "LLHRRT": 0.0, "LOCRJL": 0, "LBRBHJ": 0.0, "LBRJLN": 0.0, "MATRJL": 0, "MEDRJL": 0, "SPCRJL": 0, "STARJL": 0, "TOLRJL": 0, "UTKRJL": 0, "VLCPRT": 0.0, "WLYRJL": 0, "TGL_SK": null, "JLNLYG": 0, "KLSRJL": 0, "Shape_Leng": 0.00301171299 }, "geometry": { "type": "MultiLineString", "coordinates": [ [ [ 105.631927021000081, -5.734056960999965, 0.0 ], [ 105.63236495700005, -5.733482471999935, 0.0 ], [ 105.63268012900005, -5.732937408999931, 0.0 ], [ 105.633270323000033, -5.732556034999959, 0.0 ], [ 105.634129832000042, -5.732135159999928, 0.0 ] ] ] } },
{ "type": "Feature", "properties": { "OBJECTID": 14, "NAMOBJ": null, "FCODE": "CA02050160", "REMARK": "Jalan Lain", "METADATA": "RBI50KPROVINSILAMPUNG", "SRS_ID": "4326", "ARHRJL": 0, "AUTRJL": 0, "FGSRJL": 0, "JARRJL": 0, "JPARJL": 0, "KLLRJL": null, "KONRJL": 0, "KPMSTR": 0.0, "LKONOF": null, "LKSBSP": null, "LKSRTA": null, "LLHRRT": 0.0, "LOCRJL": 0, "LBRBHJ": 0.0, "LBRJLN": 0.0, "MATRJL": 0, "MEDRJL": 0, "SPCRJL": 0, "STARJL": 0, "TOLRJL": 0, "UTKRJL": 0, "VLCPRT": 0.0, "WLYRJL": 0, "TGL_SK": null, "JLNLYG": 0, "KLSRJL": 0, "Shape_Leng": 0.00163709478 }, "geometry": { "type": "MultiLineString", "coordinates": [ [ [ 105.650119786000062, -5.672005656999943, 0.0 ], [ 105.651610769000058, -5.672681710999939, 0.0 ] ] ] } },
{ "type": "Feature", "properties": { "OBJECTID": 15, "NAMOBJ": null, "FCODE": "CA02050160", "REMARK": "Jalan Arteri", "METADATA": "RBI50KPROVINSILAMPUNG", "SRS_ID": "4326", "ARHRJL": 0, "AUTRJL": 0, "FGSRJL": 1, "JARRJL": 0, "JPARJL": 0, "KLLRJL": null, "KONRJL": 0, "KPMSTR": 0.0, "LKONOF": null, "LKSBSP": null, "LKSRTA": null, "LLHRRT": 0.0, "LOCRJL": 0, "LBRBHJ": 0.0, "LBRJLN": 0.0, "MATRJL": 0, "MEDRJL": 0, "SPCRJL": 0, "STARJL": 0, "TOLRJL": 0, "UTKRJL": 0, "VLCPRT": 0.0, "WLYRJL": 0, "TGL_SK": null, "JLNLYG": 0, "KLSRJL": 0, "Shape_Leng": 0.00435730304 }, "geometry": { "type": "MultiLineString", "coordinates": [ [ [ 105.619616997000037, -5.723083525999925, 0.0 ], [ 105.619288247000043, -5.723026042999948, 0.0 ] ], [ [ 105.625816926000084, -5.724156400999959, 0.0 ], [ 105.625781149000034, -5.724150355999939, 0.0 ], [ 105.624999999000067, -5.724050621999936, 0.0 ], [ 105.624612743000057, -5.72400117899997, 0.0 ], [ 105.623945031000062, -5.723868170999936, 0.0 ], [ 105.623285682000073, -5.723751870999934, 0.0 ], [ 105.622701543000062, -5.723735788999932, 0.0 ], [ 105.622017178000078, -5.723636230999944, 0.0 ], [ 105.62183648000007, -5.723606647999929, 0.0 ] ] ] } },
{ "type": "Feature", "properties": { "OBJECTID": 16, "NAMOBJ": null, "FCODE": "CA02050160", "REMARK": "Jalan Lain", "METADATA": "RBI50KPROVINSILAMPUNG", "SRS_ID": "4326", "ARHRJL": 0, "AUTRJL": 0, "FGSRJL": 0, "JARRJL": 0, "JPARJL": 0, "KLLRJL": null, "KONRJL": 0, "KPMSTR": 0.0, "LKONOF": null, "LKSBSP": null, "LKSRTA": null, "LLHRRT": 0.0, "LOCRJL": 0, "LBRBHJ": 0.0, "LBRJLN": 0.0, "MATRJL": 0, "MEDRJL": 0, "SPCRJL": 0, "STARJL": 0, "TOLRJL": 0, "UTKRJL": 0, "VLCPRT": 0.0, "WLYRJL": 0, "TGL_SK": null, "JLNLYG": 0, "KLSRJL": 0, "Shape_Leng": 0.0047156672 }, "geometry": { "type": "MultiLineString", "coordinates": [ [ [ 105.645292801000039, -5.673010531999978, 0.0 ], [ 105.645309956000062, -5.677726167999936, 0.0 ] ] ] } },
{ "type": "Feature", "properties": { "OBJECTID": 17, "NAMOBJ": null, "FCODE": "CA02050160", "REMARK": "Jalan Lain", "METADATA": "RBI50KPROVINSILAMPUNG", "SRS_ID": "4326", "ARHRJL": 0, "AUTRJL": 0, "FGSRJL": 0, "JARRJL": 0, "JPARJL": 0, "KLLRJL": null, "KONRJL": 0, "KPMSTR": 0.0, "LKONOF": null, "LKSBSP": null, "LKSRTA": null, "LLHRRT": 0.0, "LOCRJL": 0, "LBRBHJ": 0.0, "LBRJLN": 0.0, "MATRJL": 0, "MEDRJL": 0, "SPCRJL": 0, "STARJL": 0, "TOLRJL": 0, "UTKRJL": 0, "VLCPRT": 0.0, "WLYRJL": 0, "TGL_SK": null, "JLNLYG": 0, "KLSRJL": 0, "Shape_Leng": 0.0108776951 }, "geometry": { "type": "MultiLineString", "coordinates": [ [ [ 105.655137184000068, -5.68868174499994, 0.0 ], [ 105.655023135000079, -5.68955570199995, 0.0 ], [ 105.655216462000055, -5.690269028999978, 0.0 ], [ 105.65527503800007, -5.691506871999934, 0.0 ], [ 105.655213853000078, -5.692254546999948, 0.0 ], [ 105.65499049500005, -5.693008577999933, 0.0 ], [ 105.654758512000058, -5.693820508999977, 0.0 ], [ 105.65467585600004, -5.694370226999979, 0.0 ], [ 105.654255280000086, -5.695023379999952, 0.0 ], [ 105.653849113000035, -5.695426244999965, 0.0 ], [ 105.65320390100004, -5.696717618999969, 0.0 ], [ 105.652998685000057, -5.697198773999958, 0.0 ], [ 105.65255806600004, -5.697459358999936, 0.0 ], [ 105.652003672000035, -5.697729099999947, 0.0 ], [ 105.651802523000072, -5.698030101999962, 0.0 ], [ 105.651715577000061, -5.698291056999949, 0.0 ] ] ] } },
{ "type": "Feature", "properties": { "OBJECTID": 18, "NAMOBJ": null, "FCODE": "CA02050160", "REMARK": "Jalan Lain", "METADATA": "RBI50KPROVINSILAMPUNG", "SRS_ID": "4326", "ARHRJL": 0, "AUTRJL": 0, "FGSRJL": 0, "JARRJL": 0, "JPARJL": 0, "KLLRJL": null, "KONRJL": 0, "KPMSTR": 0.0, "LKONOF": null, "LKSBSP": null, "LKSRTA": null, "LLHRRT": 0.0, "LOCRJL": 0, "LBRBHJ": 0.0, "LBRJLN": 0.0, "MATRJL": 0, "MEDRJL": 0, "SPCRJL": 0, "STARJL": 0, "TOLRJL": 0, "UTKRJL": 0, "VLCPRT": 0.0, "WLYRJL": 0, "TGL_SK": null, "JLNLYG": 0, "KLSRJL": 0, "Shape_Leng": 0.01434591942 }, "geometry": { "type": "MultiLineString", "coordinates": [ [ [ 105.651476245000083, -5.685318564999932, 0.0 ], [ 105.650698638000051, -5.68459639799994, 0.0 ], [ 105.650004219000039, -5.684500769999943, 0.0 ], [ 105.649584843000071, -5.684459928999956, 0.0 ], [ 105.649144464000074, -5.684081683999977, 0.0 ], [ 105.648751875000073, -5.683407286999966, 0.0 ], [ 105.648255856000048, -5.682450665999966, 0.0 ], [ 105.648131799000055, -5.682168474999969, 0.0 ], [ 105.64820006900004, -5.681741451999926, 0.0 ], [ 105.648295434000033, -5.680963211999938, 0.0 ], [ 105.648308278000059, -5.680150626999932, 0.0 ], [ 105.648280058000068, -5.67950336499996, 0.0 ], [ 105.648334190000071, -5.678732053999966, 0.0 ], [ 105.648393737000049, -5.67793556099997, 0.0 ], [ 105.648755416000085, -5.677364489999945, 0.0 ], [ 105.648793487000034, -5.675460921999957, 0.0 ], [ 105.648831559000087, -5.675146832999928, 0.0 ], [ 105.648869630000036, -5.674832743999957, 0.0 ], [ 105.648509709000052, -5.672912194999981, 0.0 ] ] ] } },
{ "type": "Feature", "properties": { "OBJECTID": 19, "NAMOBJ": null, "FCODE": "CA02050160", "REMARK": "Jalan Lain", "METADATA": "RBI50KPROVINSILAMPUNG", "SRS_ID": "4326", "ARHRJL": 0, "AUTRJL": 0, "FGSRJL": 0, "JARRJL": 0, "JPARJL": 0, "KLLRJL": null, "KONRJL": 0, "KPMSTR": 0.0, "LKONOF": null, "LKSBSP": null, "LKSRTA": null, "LLHRRT": 0.0, "LOCRJL": 0, "LBRBHJ": 0.0, "LBRJLN": 0.0, "MATRJL": 0, "MEDRJL": 0, "SPCRJL": 0, "STARJL": 0, "TOLRJL": 0, "UTKRJL": 0, "VLCPRT": 0.0, "WLYRJL": 0, "TGL_SK": null, "JLNLYG": 0, "KLSRJL": 0, "Shape_Leng": 0.00115125514 }, "geometry": { "type": "MultiLineString", "coordinates": [ [ [ 105.646860814000036, -5.708012849999932, 0.0 ], [ 105.646979085000055, -5.70774920599996, 0.0 ], [ 105.647154507000039, -5.706904939999959, 0.0 ] ] ] } },
{ "type": "Feature", "properties": { "OBJECTID": 20, "NAMOBJ": null, "FCODE": "CA02050160", "REMARK": "Jalan Lain", "METADATA": "RBI50KPROVINSILAMPUNG", "SRS_ID": "4326", "ARHRJL": 0, "AUTRJL": 0, "FGSRJL": 0, "JARRJL": 0, "JPARJL": 0, "KLLRJL": null, "KONRJL": 0, "KPMSTR": 0.0, "LKONOF": null, "LKSBSP": null, "LKSRTA": null, "LLHRRT": 0.0, "LOCRJL": 0, "LBRBHJ": 0.0, "LBRJLN": 0.0, "MATRJL": 0, "MEDRJL": 0, "SPCRJL": 0, "STARJL": 0, "TOLRJL": 0, "UTKRJL": 0, "VLCPRT": 0.0, "WLYRJL": 0, "TGL_SK": null, "JLNLYG": 0, "KLSRJL": 0, "Shape_Leng": 0.00028502878 }, "geometry": { "type": "MultiLineString", "coordinates": [ [ [ 105.647154507000039, -5.706904939999959, 0.0 ], [ 105.64743773400005, -5.706936937999956, 0.0 ] ] ] } },
{ "type": "Feature", "properties": { "OBJECTID": 21, "NAMOBJ": null, "FCODE": "CA02050160", "REMARK": "Jalan Tol", "METADATA": "RBI50KPROVINSILAMPUNG", "SRS_ID": "4326", "ARHRJL": 0, "AUTRJL": 0, "FGSRJL": 0, "JARRJL": 0, "JPARJL": 0, "KLLRJL": null, "KONRJL": 0, "KPMSTR": 0.0, "LKONOF": null, "LKSBSP": null, "LKSRTA": null, "LLHRRT": 0.0, "LOCRJL": 0, "LBRBHJ": 0.0, "LBRJLN": 0.0, "MATRJL": 0, "MEDRJL": 0, "SPCRJL": 0, "STARJL": 0, "TOLRJL": 0, "UTKRJL": 0, "VLCPRT": 0.0, "WLYRJL": 0, "TGL_SK": null, "JLNLYG": 0, "KLSRJL": 0, "Shape_Leng": 0.01439692679 }, "geometry": { "type": "MultiLineString", "coordinates": [ [ [ 105.644393703000048, -5.70897754799995, 0.0 ], [ 105.644061253000075, -5.708758432999957, 0.0 ], [ 105.640765700000088, -5.706593123999937, 0.0 ], [ 105.637125124000079, -5.704094689999977, 0.0 ], [ 105.634483923000062, -5.702369579999981, 0.0 ], [ 105.63243618000007, -5.70096101799993, 0.0 ] ] ] } },
{ "type": "Feature", "properties": { "OBJECTID": 22, "NAMOBJ": null, "FCODE": "CA02050160", "REMARK": "Jalan Arteri", "METADATA": "RBI50KPROVINSILAMPUNG", "SRS_ID": "4326", "ARHRJL": 0, "AUTRJL": 0, "FGSRJL": 1, "JARRJL": 0, "JPARJL": 0, "KLLRJL": null, "KONRJL": 0, "KPMSTR": 0.0, "LKONOF": null, "LKSBSP": null, "LKSRTA": null, "LLHRRT": 0.0, "LOCRJL": 0, "LBRBHJ": 0.0, "LBRJLN": 0.0, "MATRJL": 0, "MEDRJL": 0, "SPCRJL": 0, "STARJL": 0, "TOLRJL": 0, "UTKRJL": 0, "VLCPRT": 0.0, "WLYRJL": 0, "TGL_SK": null, "JLNLYG": 0, "KLSRJL": 0, "Shape_Leng": 0.00900084656 }, "geometry": { "type": "MultiLineString", "coordinates": [ [ [ 105.634745465000037, -5.725230001999932, 0.0 ], [ 105.634643173000086, -5.725219298999946, 0.0 ], [ 105.632764012000052, -5.724964526999941, 0.0 ], [ 105.631201919000034, -5.724742091999929, 0.0 ], [ 105.63052310900008, -5.724722485999962, 0.0 ], [ 105.629945711000062, -5.724705808999943, 0.0 ], [ 105.629261367000083, -5.724634703999925, 0.0 ], [ 105.628910862000055, -5.724598284999956, 0.0 ], [ 105.627959424000039, -5.724457235999978, 0.0 ], [ 105.627296793000085, -5.724392896999973, 0.0 ], [ 105.627108185000054, -5.724374582999928, 0.0 ], [ 105.625816926000084, -5.724156400999959, 0.0 ] ] ] } },
{ "type": "Feature", "properties": { "OBJECTID": 23, "NAMOBJ": null, "FCODE": "CA02050160", "REMARK": "Jalan Lain", "METADATA": "RBI50KPROVINSILAMPUNG", "SRS_ID": "4326", "ARHRJL": 0, "AUTRJL": 0, "FGSRJL": 0, "JARRJL": 0, "JPARJL": 0, "KLLRJL": null, "KONRJL": 0, "KPMSTR": 0.0, "LKONOF": null, "LKSBSP": null, "LKSRTA": null, "LLHRRT": 0.0, "LOCRJL": 0, "LBRBHJ": 0.0, "LBRJLN": 0.0, "MATRJL": 0, "MEDRJL": 0, "SPCRJL": 0, "STARJL": 0, "TOLRJL": 0, "UTKRJL": 0, "VLCPRT": 0.0, "WLYRJL": 0, "TGL_SK": null, "JLNLYG": 0, "KLSRJL": 0, "Shape_Leng": 0.00210620419 }, "geometry": { "type": "MultiLineString", "coordinates": [ [ [ 105.652153981000083, -5.678414805999978, 0.0 ], [ 105.650164056000051, -5.679104946999928, 0.0 ] ] ] } },
{ "type": "Feature", "properties": { "OBJECTID": 24, "NAMOBJ": null, "FCODE": "CA02050160", "REMARK": "Jalan Arteri", "METADATA": "RBI50KPROVINSILAMPUNG", "SRS_ID": "4326", "ARHRJL": 0, "AUTRJL": 0, "FGSRJL": 1, "JARRJL": 0, "JPARJL": 0, "KLLRJL": null, "KONRJL": 0, "KPMSTR": 0.0, "LKONOF": null, "LKSBSP": null, "LKSRTA": null, "LLHRRT": 0.0, "LOCRJL": 0, "LBRBHJ": 0.0, "LBRJLN": 0.0, "MATRJL": 0, "MEDRJL": 0, "SPCRJL": 0, "STARJL": 0, "TOLRJL": 0, "UTKRJL": 0, "VLCPRT": 0.0, "WLYRJL": 0, "TGL_SK": null, "JLNLYG": 0, "KLSRJL": 0, "Shape_Leng": 0.00012736245 }, "geometry": { "type": "MultiLineString", "coordinates": [ [ [ 105.619288247000043, -5.723026042999948, 0.0 ], [ 105.61916278800004, -5.723004105999962, 0.0 ] ] ] } },
{ "type": "Feature", "properties": { "OBJECTID": 25, "NAMOBJ": null, "FCODE": "CA02050160", "REMARK": "Jalan Lain", "METADATA": "RBI50KPROVINSILAMPUNG", "SRS_ID": "4326", "ARHRJL": 0, "AUTRJL": 0, "FGSRJL": 0, "JARRJL": 0, "JPARJL": 0, "KLLRJL": null, "KONRJL": 0, "KPMSTR": 0.0, "LKONOF": null, "LKSBSP": null, "LKSRTA": null, "LLHRRT": 0.0, "LOCRJL": 0, "LBRBHJ": 0.0, "LBRJLN": 0.0, "MATRJL": 0, "MEDRJL": 0, "SPCRJL": 0, "STARJL": 0, "TOLRJL": 0, "UTKRJL": 0, "VLCPRT": 0.0, "WLYRJL": 0, "TGL_SK": null, "JLNLYG": 0, "KLSRJL": 0, "Shape_Leng": 0.00263395524 }, "geometry": { "type": "MultiLineString", "coordinates": [ [ [ 105.653424284000039, -5.687942586999952, 0.0 ], [ 105.652545750000058, -5.688382483999931, 0.0 ], [ 105.651069079000081, -5.68912187899997, 0.0 ] ] ] } },
{ "type": "Feature", "properties": { "OBJECTID": 26, "NAMOBJ": null, "FCODE": "CA02050160", "REMARK": "Jalan Lain", "METADATA": "RBI50KPROVINSILAMPUNG", "SRS_ID": "4326", "ARHRJL": 0, "AUTRJL": 0, "FGSRJL": 0, "JARRJL": 0, "JPARJL": 0, "KLLRJL": null, "KONRJL": 0, "KPMSTR": 0.0, "LKONOF": null, "LKSBSP": null, "LKSRTA": null, "LLHRRT": 0.0, "LOCRJL": 0, "LBRBHJ": 0.0, "LBRJLN": 0.0, "MATRJL": 0, "MEDRJL": 0, "SPCRJL": 0, "STARJL": 0, "TOLRJL": 0, "UTKRJL": 0, "VLCPRT": 0.0, "WLYRJL": 0, "TGL_SK": null, "JLNLYG": 0, "KLSRJL": 0, "Shape_Leng": 0.00147903356 }, "geometry": { "type": "MultiLineString", "coordinates": [ [ [ 105.649863217000075, -5.66629538199993, 0.0 ], [ 105.65134035400007, -5.666220504999956, 0.0 ] ] ] } },
{ "type": "Feature", "properties": { "OBJECTID": 27, "NAMOBJ": null, "FCODE": "CA02050160", "REMARK": "Jalan Lain", "METADATA": "RBI50KPROVINSILAMPUNG", "SRS_ID": "4326", "ARHRJL": 0, "AUTRJL": 0, "FGSRJL": 0, "JARRJL": 0, "JPARJL": 0, "KLLRJL": null, "KONRJL": 0, "KPMSTR": 0.0, "LKONOF": null, "LKSBSP": null, "LKSRTA": null, "LLHRRT": 0.0, "LOCRJL": 0, "LBRBHJ": 0.0, "LBRJLN": 0.0, "MATRJL": 0, "MEDRJL": 0, "SPCRJL": 0, "STARJL": 0, "TOLRJL": 0, "UTKRJL": 0, "VLCPRT": 0.0, "WLYRJL": 0, "TGL_SK": null, "JLNLYG": 0, "KLSRJL": 0, "Shape_Leng": 0.00212437576 }, "geometry": { "type": "MultiLineString", "coordinates": [ [ [ 105.64995880400005, -5.668080347999933, 0.0 ], [ 105.650588349000088, -5.668139736999933, 0.0 ], [ 105.650474135000081, -5.669148628999949, 0.0 ], [ 105.650001289000045, -5.669088139999928, 0.0 ] ] ] } },
{ "type": "Feature", "properties": { "OBJECTID": 28, "NAMOBJ": null, "FCODE": "CA02050160", "REMARK": "Jalan Lokal", "METADATA": "RBI50KPROVINSILAMPUNG", "SRS_ID": "4326", "ARHRJL": 0, "AUTRJL": 0, "FGSRJL": 0, "JARRJL": 0, "JPARJL": 0, "KLLRJL": null, "KONRJL": 0, "KPMSTR": 0.0, "LKONOF": null, "LKSBSP": null, "LKSRTA": null, "LLHRRT": 0.0, "LOCRJL": 0, "LBRBHJ": 0.0, "LBRJLN": 0.0, "MATRJL": 0, "MEDRJL": 0, "SPCRJL": 0, "STARJL": 0, "TOLRJL": 0, "UTKRJL": 0, "VLCPRT": 0.0, "WLYRJL": 0, "TGL_SK": null, "JLNLYG": 0, "KLSRJL": 0, "Shape_Leng": 0.01829850406 }, "geometry": { "type": "MultiLineString", "coordinates": [ [ [ 105.642303656000081, -5.673421946999952, 0.0 ], [ 105.642478643000061, -5.673292484999934, 0.0 ], [ 105.643363502000057, -5.673208388999967, 0.0 ], [ 105.644300009000062, -5.673091629999931, 0.0 ], [ 105.644548542000052, -5.673060643999975, 0.0 ], [ 105.644781601000034, -5.673032681999928, 0.0 ], [ 105.645014659000083, -5.673004718999948, 0.0 ], [ 105.645292801000039, -5.673010531999978, 0.0 ], [ 105.646093215000064, -5.673027260999959, 0.0 ], [ 105.646357579000039, -5.673023547999946, 0.0 ], [ 105.647930255000063, -5.673001460999956, 0.0 ], [ 105.648509709000052, -5.672912194999981, 0.0 ], [ 105.648694429000045, -5.672883737999939, 0.0 ], [ 105.649117373000081, -5.672819663999974, 0.0 ], [ 105.649743200000046, -5.67263533299996, 0.0 ], [ 105.650126038000053, -5.672294551999926, 0.0 ], [ 105.650119786000062, -5.672005656999943, 0.0 ], [ 105.65011353400007, -5.671716762999949, 0.0 ], [ 105.650075643000037, -5.670829404999949, 0.0 ], [ 105.650001289000045, -5.669088139999928, 0.0 ], [ 105.649971527000048, -5.668391141999962, 0.0 ], [ 105.64995880400005, -5.668080347999933, 0.0 ], [ 105.649901017000047, -5.666668736999952, 0.0 ], [ 105.649863217000075, -5.66629538199993, 0.0 ], [ 105.649746341000082, -5.665140974999929, 0.0 ], [ 105.649717705000057, -5.664258466999968, 0.0 ], [ 105.650214743000049, -5.663597000999971, 0.0 ], [ 105.651123258000041, -5.663485169999944, 0.0 ], [ 105.651570224000068, -5.66340189899995, 0.0 ] ] ] } },
{ "type": "Feature", "properties": { "OBJECTID": 29, "NAMOBJ": null, "FCODE": "CA02050160", "REMARK": "Jalan Tol", "METADATA": "RBI50KPROVINSILAMPUNG", "SRS_ID": "4326", "ARHRJL": 0, "AUTRJL": 0, "FGSRJL": 0, "JARRJL": 0, "JPARJL": 0, "KLLRJL": null, "KONRJL": 0, "KPMSTR": 0.0, "LKONOF": null, "LKSBSP": null, "LKSRTA": null, "LLHRRT": 0.0, "LOCRJL": 0, "LBRBHJ": 0.0, "LBRJLN": 0.0, "MATRJL": 0, "MEDRJL": 0, "SPCRJL": 0, "STARJL": 0, "TOLRJL": 0, "UTKRJL": 0, "VLCPRT": 0.0, "WLYRJL": 0, "TGL_SK": null, "JLNLYG": 0, "KLSRJL": 0, "Shape_Leng": 0.01446017717 }, "geometry": { "type": "MultiLineString", "coordinates": [ [ [ 105.632505959000071, -5.700770253999963, 0.0 ], [ 105.634353052000051, -5.702024558999938, 0.0 ], [ 105.635828318000051, -5.70292875399997, 0.0 ], [ 105.638957309000034, -5.705082165999954, 0.0 ], [ 105.641578452000033, -5.70689077399993, 0.0 ], [ 105.643908456000077, -5.708386952999945, 0.0 ], [ 105.644532564000087, -5.708794101999956, 0.0 ] ] ] } },
{ "type": "Feature", "properties": { "OBJECTID": 30, "NAMOBJ": null, "FCODE": "CA02050160", "REMARK": "Jalan Lain", "METADATA": "RBI50KPROVINSILAMPUNG", "SRS_ID": "4326", "ARHRJL": 0, "AUTRJL": 0, "FGSRJL": 0, "JARRJL": 0, "JPARJL": 0, "KLLRJL": null, "KONRJL": 0, "KPMSTR": 0.0, "LKONOF": null, "LKSBSP": null, "LKSRTA": null, "LLHRRT": 0.0, "LOCRJL": 0, "LBRBHJ": 0.0, "LBRJLN": 0.0, "MATRJL": 0, "MEDRJL": 0, "SPCRJL": 0, "STARJL": 0, "TOLRJL": 0, "UTKRJL": 0, "VLCPRT": 0.0, "WLYRJL": 0, "TGL_SK": null, "JLNLYG": 0, "KLSRJL": 0, "Shape_Leng": 0.00322146837 }, "geometry": { "type": "MultiLineString", "coordinates": [ [ [ 105.625251253000044, -5.725267094999936, 0.0 ], [ 105.627214119000087, -5.727821505999941, 0.0 ] ] ] } },
{ "type": "Feature", "properties": { "OBJECTID": 31, "NAMOBJ": null, "FCODE": "CA02050160", "REMARK": "Jalan Lain", "METADATA": "RBI50KPROVINSILAMPUNG", "SRS_ID": "4326", "ARHRJL": 0, "AUTRJL": 0, "FGSRJL": 0, "JARRJL": 0, "JPARJL": 0, "KLLRJL": null, "KONRJL": 0, "KPMSTR": 0.0, "LKONOF": null, "LKSBSP": null, "LKSRTA": null, "LLHRRT": 0.0, "LOCRJL": 0, "LBRBHJ": 0.0, "LBRJLN": 0.0, "MATRJL": 0, "MEDRJL": 0, "SPCRJL": 0, "STARJL": 0, "TOLRJL": 0, "UTKRJL": 0, "VLCPRT": 0.0, "WLYRJL": 0, "TGL_SK": null, "JLNLYG": 0, "KLSRJL": 0, "Shape_Leng": 0.00633567482 }, "geometry": { "type": "MultiLineString", "coordinates": [ [ [ 105.644300009000062, -5.673091629999931, 0.0 ], [ 105.644453350000049, -5.675727420999976, 0.0 ], [ 105.644148779000034, -5.675746456999946, 0.0 ], [ 105.644262993000041, -5.676774383999941, 0.0 ], [ 105.643501566000054, -5.676926669999943, 0.0 ], [ 105.643158923000044, -5.678468559999942, 0.0 ] ] ] } },
{ "type": "Feature", "properties": { "OBJECTID": 32, "NAMOBJ": null, "FCODE": "CA02050160", "REMARK": "Jalan Lokal", "METADATA": "RBI50KPROVINSILAMPUNG", "SRS_ID": "4326", "ARHRJL": 0, "AUTRJL": 0, "FGSRJL": 0, "JARRJL": 0, "JPARJL": 0, "KLLRJL": null, "KONRJL": 0, "KPMSTR": 0.0, "LKONOF": null, "LKSBSP": null, "LKSRTA": null, "LLHRRT": 0.0, "LOCRJL": 0, "LBRBHJ": 0.0, "LBRJLN": 0.0, "MATRJL": 0, "MEDRJL": 0, "SPCRJL": 0, "STARJL": 0, "TOLRJL": 0, "UTKRJL": 0, "VLCPRT": 0.0, "WLYRJL": 0, "TGL_SK": null, "JLNLYG": 0, "KLSRJL": 0, "Shape_Leng": 0.00685530738 }, "geometry": { "type": "MultiLineString", "coordinates": [ [ [ 105.632838843000059, -5.728473943999973, 0.0 ], [ 105.632428047000076, -5.728442869999981, 0.0 ], [ 105.63113429200007, -5.728401620999932, 0.0 ], [ 105.630923582000037, -5.72839490299998, 0.0 ], [ 105.629255477000072, -5.728406213999961, 0.0 ], [ 105.628368544000068, -5.72839285799995, 0.0 ], [ 105.627868053000043, -5.728565350999929, 0.0 ], [ 105.627367937000088, -5.729081729999962, 0.0 ], [ 105.626567475000058, -5.729655752999975, 0.0 ], [ 105.626443858000073, -5.729740147999962, 0.0 ] ] ] } },
{ "type": "Feature", "properties": { "OBJECTID": 33, "NAMOBJ": null, "FCODE": "CA02050160", "REMARK": "Jalan Lain", "METADATA": "RBI50KPROVINSILAMPUNG", "SRS_ID": "4326", "ARHRJL": 0, "AUTRJL": 0, "FGSRJL": 0, "JARRJL": 0, "JPARJL": 0, "KLLRJL": null, "KONRJL": 0, "KPMSTR": 0.0, "LKONOF": null, "LKSBSP": null, "LKSRTA": null, "LLHRRT": 0.0, "LOCRJL": 0, "LBRBHJ": 0.0, "LBRJLN": 0.0, "MATRJL": 0, "MEDRJL": 0, "SPCRJL": 0, "STARJL": 0, "TOLRJL": 0, "UTKRJL": 0, "VLCPRT": 0.0, "WLYRJL": 0, "TGL_SK": null, "JLNLYG": 0, "KLSRJL": 0, "Shape_Leng": 0.00528551745 }, "geometry": { "type": "MultiLineString", "coordinates": [ [ [ 105.656164018000084, -5.68346964999995, 0.0 ], [ 105.655912140000055, -5.683544972999925, 0.0 ], [ 105.654666925000072, -5.683597041999974, 0.0 ], [ 105.653459730000066, -5.683731382999952, 0.0 ], [ 105.652796419000083, -5.684099394999976, 0.0 ], [ 105.652398705000053, -5.684562086999961, 0.0 ], [ 105.651476245000083, -5.685318564999932, 0.0 ] ] ] } },
{ "type": "Feature", "properties": { "OBJECTID": 34, "NAMOBJ": null, "FCODE": "CA02050160", "REMARK": "Jalan Lain", "METADATA": "RBI50KPROVINSILAMPUNG", "SRS_ID": "4326", "ARHRJL": 0, "AUTRJL": 0, "FGSRJL": 0, "JARRJL": 0, "JPARJL": 0, "KLLRJL": null, "KONRJL": 0, "KPMSTR": 0.0, "LKONOF": null, "LKSBSP": null, "LKSRTA": null, "LLHRRT": 0.0, "LOCRJL": 0, "LBRBHJ": 0.0, "LBRJLN": 0.0, "MATRJL": 0, "MEDRJL": 0, "SPCRJL": 0, "STARJL": 0, "TOLRJL": 0, "UTKRJL": 0, "VLCPRT": 0.0, "WLYRJL": 0, "TGL_SK": null, "JLNLYG": 0, "KLSRJL": 0, "Shape_Leng": 0.00154392795 }, "geometry": { "type": "MultiLineString", "coordinates": [ [ [ 105.650075643000037, -5.670829404999949, 0.0 ], [ 105.651616276000084, -5.670728590999943, 0.0 ] ] ] } },
{ "type": "Feature", "properties": { "OBJECTID": 35, "NAMOBJ": null, "FCODE": "CA02050160", "REMARK": "Jalan Lain", "METADATA": "RBI50KPROVINSILAMPUNG", "SRS_ID": "4326", "ARHRJL": 0, "AUTRJL": 0, "FGSRJL": 0, "JARRJL": 0, "JPARJL": 0, "KLLRJL": null, "KONRJL": 0, "KPMSTR": 0.0, "LKONOF": null, "LKSBSP": null, "LKSRTA": null, "LLHRRT": 0.0, "LOCRJL": 0, "LBRBHJ": 0.0, "LBRJLN": 0.0, "MATRJL": 0, "MEDRJL": 0, "SPCRJL": 0, "STARJL": 0, "TOLRJL": 0, "UTKRJL": 0, "VLCPRT": 0.0, "WLYRJL": 0, "TGL_SK": null, "JLNLYG": 0, "KLSRJL": 0, "Shape_Leng": 0.00235476087 }, "geometry": { "type": "MultiLineString", "coordinates": [ [ [ 105.652545750000058, -5.688382483999931, 0.0 ], [ 105.65268711300007, -5.689426449999928, 0.0 ], [ 105.652553863000037, -5.690720876999933, 0.0 ] ] ] } },
{ "type": "Feature", "properties": { "OBJECTID": 36, "NAMOBJ": null, "FCODE": "CA02050160", "REMARK": "Jalan Lain", "METADATA": "RBI50KPROVINSILAMPUNG", "SRS_ID": "4326", "ARHRJL": 0, "AUTRJL": 0, "FGSRJL": 0, "JARRJL": 0, "JPARJL": 0, "KLLRJL": null, "KONRJL": 0, "KPMSTR": 0.0, "LKONOF": null, "LKSBSP": null, "LKSRTA": null, "LLHRRT": 0.0, "LOCRJL": 0, "LBRBHJ": 0.0, "LBRJLN": 0.0, "MATRJL": 0, "MEDRJL": 0, "SPCRJL": 0, "STARJL": 0, "TOLRJL": 0, "UTKRJL": 0, "VLCPRT": 0.0, "WLYRJL": 0, "TGL_SK": null, "JLNLYG": 0, "KLSRJL": 0, "Shape_Leng": 0.00076595128 }, "geometry": { "type": "MultiLineString", "coordinates": [ [ [ 105.647154507000039, -5.706904939999959, 0.0 ], [ 105.647349668000061, -5.706188243999975, 0.0 ], [ 105.647363208000058, -5.706169455999941, 0.0 ] ] ] } },
{ "type": "Feature", "properties": { "OBJECTID": 37, "NAMOBJ": null, "FCODE": "CA02050160", "REMARK": "Jalan Lain", "METADATA": "RBI50KPROVINSILAMPUNG", "SRS_ID": "4326", "ARHRJL": 0, "AUTRJL": 0, "FGSRJL": 0, "JARRJL": 0, "JPARJL": 0, "KLLRJL": null, "KONRJL": 0, "KPMSTR": 0.0, "LKONOF": null, "LKSBSP": null, "LKSRTA": null, "LLHRRT": 0.0, "LOCRJL": 0, "LBRBHJ": 0.0, "LBRJLN": 0.0, "MATRJL": 0, "MEDRJL": 0, "SPCRJL": 0, "STARJL": 0, "TOLRJL": 0, "UTKRJL": 0, "VLCPRT": 0.0, "WLYRJL": 0, "TGL_SK": null, "JLNLYG": 0, "KLSRJL": 0, "Shape_Leng": 0.00851896219 }, "geometry": { "type": "MultiLineString", "coordinates": [ [ [ 105.655692807000037, -5.682095920999927, 0.0 ], [ 105.65460958400007, -5.68180315799998, 0.0 ], [ 105.65462862000004, -5.681289194999977, 0.0 ], [ 105.65424790600008, -5.680718123999952, 0.0 ], [ 105.653219979000085, -5.680166088999954, 0.0 ], [ 105.652306266000039, -5.679104946999928, 0.0 ], [ 105.652153981000083, -5.678414805999978, 0.0 ], [ 105.652782158000036, -5.678205412999944, 0.0 ], [ 105.653315158000055, -5.677805663999948, 0.0 ], [ 105.65340012300004, -5.677288347999934, 0.0 ], [ 105.654389979000086, -5.677231240999959, 0.0 ], [ 105.654466053000078, -5.677249432999929, 0.0 ] ] ] } },
{ "type": "Feature", "properties": { "OBJECTID": 38, "NAMOBJ": null, "FCODE": "CA02050160", "REMARK": "Jalan Lain", "METADATA": "RBI50KPROVINSILAMPUNG", "SRS_ID": "4326", "ARHRJL": 0, "AUTRJL": 0, "FGSRJL": 0, "JARRJL": 0, "JPARJL": 0, "KLLRJL": null, "KONRJL": 0, "KPMSTR": 0.0, "LKONOF": null, "LKSBSP": null, "LKSRTA": null, "LLHRRT": 0.0, "LOCRJL": 0, "LBRBHJ": 0.0, "LBRJLN": 0.0, "MATRJL": 0, "MEDRJL": 0, "SPCRJL": 0, "STARJL": 0, "TOLRJL": 0, "UTKRJL": 0, "VLCPRT": 0.0, "WLYRJL": 0, "TGL_SK": null, "JLNLYG": 0, "KLSRJL": 0, "Shape_Leng": 0.00017667529 }, "geometry": { "type": "MultiLineString", "coordinates": [ [ [ 105.655272545000059, -5.688795285999959, 0.0 ], [ 105.655137184000068, -5.68868174499994, 0.0 ] ] ] } },
{ "type": "Feature", "properties": { "OBJECTID": 39, "NAMOBJ": null, "FCODE": "CA02050160", "REMARK": "Jalan Lain", "METADATA": "RBI50KPROVINSILAMPUNG", "SRS_ID": "4326", "ARHRJL": 0, "AUTRJL": 0, "FGSRJL": 0, "JARRJL": 0, "JPARJL": 0, "KLLRJL": null, "KONRJL": 0, "KPMSTR": 0.0, "LKONOF": null, "LKSBSP": null, "LKSRTA": null, "LLHRRT": 0.0, "LOCRJL": 0, "LBRBHJ": 0.0, "LBRJLN": 0.0, "MATRJL": 0, "MEDRJL": 0, "SPCRJL": 0, "STARJL": 0, "TOLRJL": 0, "UTKRJL": 0, "VLCPRT": 0.0, "WLYRJL": 0, "TGL_SK": null, "JLNLYG": 0, "KLSRJL": 0, "Shape_Leng": 0.00428909318 }, "geometry": { "type": "MultiLineString", "coordinates": [ [ [ 105.619288247000043, -5.723026042999948, 0.0 ], [ 105.619599844000049, -5.72241487499997, 0.0 ], [ 105.621812742000088, -5.719571418999976, 0.0 ] ] ] } }
]
}
