{
"type": "FeatureCollection",
"name": "JALAN",
"crs": { "type": "name", "properties": { "name": "urn:ogc:def:crs:OGC:1.3:CRS84" } },
"features": [
{ "type": "Feature", "properties": { "OBJECTID": 1, "NAMOBJ": null, "FCODE": "CA02050160", "REMARK": "Jalan Lain", "METADATA": "RBI50KPROVINSILAMPUNG", "SRS_ID": "4326", "ARHRJL": 0, "AUTRJL": 0, "FGSRJL": 0, "JARRJL": 0, "JPARJL": 0, "KLLRJL": null, "KONRJL": 0, "KPMSTR": 0.0, "LKONOF": null, "LKSBSP": null, "LKSRTA": null, "LLHRRT": 0.0, "LOCRJL": 0, "LBRBHJ": 0.0, "LBRJLN": 0.0, "MATRJL": 0, "MEDRJL": 0, "SPCRJL": 0, "STARJL": 0, "TOLRJL": 0, "UTKRJL": 0, "VLCPRT": 0.0, "WLYRJL": 0, "TGL_SK": null, "JLNLYG": 0, "KLSRJL": 0, "Shape_Leng": 0.0155645686, "Shape_Le_1": 0.00028502875 }, "geometry": { "type": "MultiLineString", "coordinates": [ [ [ 105.647154506675179, -5.706904940010929, 0.0 ], [ 105.647437733764434, -5.706936936990019, 0.0 ] ] ] } },
{ "type": "Feature", "properties": { "OBJECTID": 2, "NAMOBJ": null, "FCODE": "CA02050160", "REMARK": "Jalan Lain", "METADATA": "RBI50KPROVINSILAMPUNG", "SRS_ID": "4326", "ARHRJL": 0, "AUTRJL": 0, "FGSRJL": 0, "JARRJL": 0, "JPARJL": 0, "KLLRJL": null, "KONRJL": 0, "KPMSTR": 0.0, "LKONOF": null, "LKSBSP": null, "LKSRTA": null, "LLHRRT": 0.0, "LOCRJL": 0, "LBRBHJ": 0.0, "LBRJLN": 0.0, "MATRJL": 0, "MEDRJL": 0, "SPCRJL": 0, "STARJL": 0, "TOLRJL": 0, "UTKRJL": 0, "VLCPRT": 0.0, "WLYRJL": 0, "TGL_SK": null, "JLNLYG": 0, "KLSRJL": 0, "Shape_Leng": 0.00720457792, "Shape_Le_1": 0.00076595158 }, "geometry": { "type": "MultiLineString", "coordinates": [ [ [ 105.647154506675179, -5.706904940010929, 0.0 ], [ 105.647349668552408, -5.706188243292729, 0.0 ], [ 105.647363207845842, -5.70616945555588, 0.0 ] ] ] } },
{ "type": "Feature", "properties": { "OBJECTID": 3, "NAMOBJ": null, "FCODE": "CA02050160", "REMARK": "Jalan Lain", "METADATA": "RBI50KPROVINSILAMPUNG", "SRS_ID": "4326", "ARHRJL": 0, "AUTRJL": 0, "FGSRJL": 0, "JARRJL": 0, "JPARJL": 0, "KLLRJL": null, "KONRJL": 0, "KPMSTR": 0.0, "LKONOF": null, "LKSBSP": null, "LKSRTA": null, "LLHRRT": 0.0, "LOCRJL": 0, "LBRBHJ": 0.0, "LBRJLN": 0.0, "MATRJL": 0, "MEDRJL": 0, "SPCRJL": 0, "STARJL": 0, "TOLRJL": 0, "UTKRJL": 0, "VLCPRT": 0.0, "WLYRJL": 0, "TGL_SK": null, "JLNLYG": 0, "KLSRJL": 0, "Shape_Leng": 0.00310062497, "Shape_Le_1": 0.00115125486 }, "geometry": { "type": "MultiLineString", "coordinates": [ [ [ 105.646860814175284, -5.708012849913018, 0.0 ], [ 105.646979084916893, -5.707749205561356, 0.0 ], [ 105.647154506675179, -5.706904940010929, 0.0 ] ] ] } },
{ "type": "Feature", "properties": { "OBJECTID": 4, "NAMOBJ": null, "FCODE": "CA02050160", "REMARK": "Jalan Lain", "METADATA": "RBI50KPROVINSILAMPUNG", "SRS_ID": "4326", "ARHRJL": 0, "AUTRJL": 0, "FGSRJL": 0, "JARRJL": 0, "JPARJL": 0, "KLLRJL": null, "KONRJL": 0, "KPMSTR": 0.0, "LKONOF": null, "LKSBSP": null, "LKSRTA": null, "LLHRRT": 0.0, "LOCRJL": 0, "LBRBHJ": 0.0, "LBRJLN": 0.0, "MATRJL": 0, "MEDRJL": 0, "SPCRJL": 0, "STARJL": 0, "TOLRJL": 0, "UTKRJL": 0, "VLCPRT": 0.0, "WLYRJL": 0, "TGL_SK": null, "JLNLYG": 0, "KLSRJL": 0, "Shape_Leng": 0.01967350422, "Shape_Le_1": 0.01872003221 }, "geometry": { "type": "MultiLineString", "coordinates": [ [ [ 105.636372744206824, -5.70897812464068, 0.0 ], [ 105.634150343163867, -5.709096410670782, 0.0 ], [ 105.633388915066462, -5.709762659918795, 0.0 ], [ 105.632456167018574, -5.710257587417686, 0.0 ], [ 105.632303881219229, -5.710809622765851, 0.0 ], [ 105.631142704472268, -5.711323585315142, 0.0 ], [ 105.631314025322069, -5.712256334262349, 0.0 ], [ 105.630819097823178, -5.713493654808303, 0.0 ], [ 105.631180776371821, -5.714883259354906, 0.0 ], [ 105.630876204773074, -5.715263973853268, 0.0 ], [ 105.630647776074056, -5.715777936402617, 0.0 ], [ 105.63030513437451, -5.715987330051178, 0.0 ], [ 105.63059066912416, -5.716862970249849, 0.0 ], [ 105.630495491174031, -5.717319827647884, 0.0 ], [ 105.630895239823531, -5.718918825843105, 0.0 ], [ 105.630838132873578, -5.719337610442324, 0.0 ], [ 105.630685847973552, -5.71966121709147, 0.0 ], [ 105.630704883024009, -5.719927716790664, 0.0 ], [ 105.629981526826043, -5.72038457328938, 0.0 ], [ 105.630571634073704, -5.722478498983492, 0.0 ], [ 105.630430205789423, -5.722744717194871, 0.0 ] ] ] } },
{ "type": "Feature", "properties": { "OBJECTID": 5, "NAMOBJ": null, "FCODE": "CA02050160", "REMARK": "Jalan Lain", "METADATA": "RBI50KPROVINSILAMPUNG", "SRS_ID": "4326", "ARHRJL": 0, "AUTRJL": 0, "FGSRJL": 0, "JARRJL": 0, "JPARJL": 0, "KLLRJL": null, "KONRJL": 0, "KPMSTR": 0.0, "LKONOF": null, "LKSBSP": null, "LKSRTA": null, "LLHRRT": 0.0, "LOCRJL": 0, "LBRBHJ": 0.0, "LBRJLN": 0.0, "MATRJL": 0, "MEDRJL": 0, "SPCRJL": 0, "STARJL": 0, "TOLRJL": 0, "UTKRJL": 0, "VLCPRT": 0.0, "WLYRJL": 0, "TGL_SK": null, "JLNLYG": 0, "KLSRJL": 0, "Shape_Leng": 0.00322146837, "Shape_Le_1": 0.0032214687 }, "geometry": { "type": "MultiLineString", "coordinates": [ [ [ 105.625251252943031, -5.725267094300932, 0.0 ], [ 105.627214119536063, -5.727821505258191, 0.0 ] ] ] } },
{ "type": "Feature", "properties": { "OBJECTID": 6, "NAMOBJ": null, "FCODE": "CA02050160", "REMARK": "Jalan Tol", "METADATA": "RBI50KPROVINSILAMPUNG", "SRS_ID": "4326", "ARHRJL": 0, "AUTRJL": 0, "FGSRJL": 0, "JARRJL": 0, "JPARJL": 0, "KLLRJL": null, "KONRJL": 0, "KPMSTR": 0.0, "LKONOF": null, "LKSBSP": null, "LKSRTA": null, "LLHRRT": 0.0, "LOCRJL": 0, "LBRBHJ": 0.0, "LBRJLN": 0.0, "MATRJL": 0, "MEDRJL": 0, "SPCRJL": 0, "STARJL": 0, "TOLRJL": 0, "UTKRJL": 0, "VLCPRT": 0.0, "WLYRJL": 0, "TGL_SK": null, "JLNLYG": 0, "KLSRJL": 0, "Shape_Leng": 0.0623762238, "Shape_Le_1": 0.01439692632 }, "geometry": { "type": "MultiLineString", "coordinates": [ [ [ 105.644393703106971, -5.708977547275936, 0.0 ], [ 105.644061253424184, -5.708758432855348, 0.0 ], [ 105.640765700376846, -5.706593123473795, 0.0 ], [ 105.637125124225179, -5.704094689917952, 0.0 ], [ 105.634483923294511, -5.702369579792219, 0.0 ], [ 105.632436180485399, -5.700961017536883, 0.0 ] ] ] } },
{ "type": "Feature", "properties": { "OBJECTID": 7, "NAMOBJ": null, "FCODE": null, "REMARK": null, "METADATA": null, "SRS_ID": null, "ARHRJL": 0, "AUTRJL": 0, "FGSRJL": 0, "JARRJL": 0, "JPARJL": 0, "KLLRJL": null, "KONRJL": 0, "KPMSTR": 0.0, "LKONOF": null, "LKSBSP": null, "LKSRTA": null, "LLHRRT": 0.0, "LOCRJL": 0, "LBRBHJ": 0.0, "LBRJLN": 0.0, "MATRJL": 0, "MEDRJL": 0, "SPCRJL": 0, "STARJL": 0, "TOLRJL": 0, "UTKRJL": 0, "VLCPRT": 0.0, "WLYRJL": 0, "TGL_SK": null, "JLNLYG": 0, "KLSRJL": 0, "Shape_Leng": 0.0, "Shape_Le_1": 0.00044818887 }, "geometry": { "type": "MultiLineString", "coordinates": [ [ [ 105.629380869631461, -5.725052868594958, 0.0 ], [ 105.62922868635485, -5.72463130778857, 0.0 ] ] ] } },
{ "type": "Feature", "properties": { "OBJECTID": 8, "NAMOBJ": null, "FCODE": "CA02050160", "REMARK": "Jalan Lain", "METADATA": "RBI50KPROVINSILAMPUNG", "SRS_ID": "4326", "ARHRJL": 0, "AUTRJL": 0, "FGSRJL": 0, "JARRJL": 0, "JPARJL": 0, "KLLRJL": null, "KONRJL": 0, "KPMSTR": 0.0, "LKONOF": null, "LKSBSP": null, "LKSRTA": null, "LLHRRT": 0.0, "LOCRJL": 0, "LBRBHJ": 0.0, "LBRJLN": 0.0, "MATRJL": 0, "MEDRJL": 0, "SPCRJL": 0, "STARJL": 0, "TOLRJL": 0, "UTKRJL": 0, "VLCPRT": 0.0, "WLYRJL": 0, "TGL_SK": null, "JLNLYG": 0, "KLSRJL": 0, "Shape_Leng": 0.01318900433, "Shape_Le_1": 0.01087769547 }, "geometry": { "type": "MultiLineString", "coordinates": [ [ [ 105.655137184133821, -5.688681744466862, 0.0 ], [ 105.655023134809881, -5.689555702033999, 0.0 ], [ 105.655216462070143, -5.690269028992475, 0.0 ], [ 105.655275038512286, -5.691506872044442, 0.0 ], [ 105.6552138531369, -5.692254546809863, 0.0 ], [ 105.654990494815536, -5.693008577983449, 0.0 ], [ 105.654758511995794, -5.693820508409715, 0.0 ], [ 105.65467585620587, -5.69437022710423, 0.0 ], [ 105.654255280157088, -5.69502337952531, 0.0 ], [ 105.653849113046192, -5.695426244325688, 0.0 ], [ 105.65320390073947, -5.696717618623154, 0.0 ], [ 105.652998685341117, -5.697198773904233, 0.0 ], [ 105.652558066101903, -5.69745935876233, 0.0 ], [ 105.652003671832063, -5.697729099618186, 0.0 ], [ 105.651802523167987, -5.698030101807717, 0.0 ], [ 105.651715577611867, -5.698291056287189, 0.0 ] ] ] } },
{ "type": "Feature", "properties": { "OBJECTID": 9, "NAMOBJ": null, "FCODE": "CA02050160", "REMARK": "Jalan Lain", "METADATA": "RBI50KPROVINSILAMPUNG", "SRS_ID": "4326", "ARHRJL": 0, "AUTRJL": 0, "FGSRJL": 0, "JARRJL": 0, "JPARJL": 0, "KLLRJL": null, "KONRJL": 0, "KPMSTR": 0.0, "LKONOF": null, "LKSBSP": null, "LKSRTA": null, "LLHRRT": 0.0, "LOCRJL": 0, "LBRBHJ": 0.0, "LBRJLN": 0.0, "MATRJL": 0, "MEDRJL": 0, "SPCRJL": 0, "STARJL": 0, "TOLRJL": 0, "UTKRJL": 0, "VLCPRT": 0.0, "WLYRJL": 0, "TGL_SK": null, "JLNLYG": 0, "KLSRJL": 0, "Shape_Leng": 0.00263395524, "Shape_Le_1": 0.0026339554 }, "geometry": { "type": "MultiLineString", "coordinates": [ [ [ 105.653424284103494, -5.687942586281281, 0.0 ], [ 105.652545749886485, -5.688382483364876, 0.0 ], [ 105.651069079274635, -5.689121878971491, 0.0 ] ] ] } },
{ "type": "Feature", "properties": { "OBJECTID": 10, "NAMOBJ": null, "FCODE": "CA02050160", "REMARK": "Jalan Lain", "METADATA": "RBI50KPROVINSILAMPUNG", "SRS_ID": "4326", "ARHRJL": 0, "AUTRJL": 0, "FGSRJL": 0, "JARRJL": 0, "JPARJL": 0, "KLLRJL": null, "KONRJL": 0, "KPMSTR": 0.0, "LKONOF": null, "LKSBSP": null, "LKSRTA": null, "LLHRRT": 0.0, "LOCRJL": 0, "LBRBHJ": 0.0, "LBRJLN": 0.0, "MATRJL": 0, "MEDRJL": 0, "SPCRJL": 0, "STARJL": 0, "TOLRJL": 0, "UTKRJL": 0, "VLCPRT": 0.0, "WLYRJL": 0, "TGL_SK": null, "JLNLYG": 0, "KLSRJL": 0, "Shape_Leng": 0.02946397155, "Shape_Le_1": 0.01292519993 }, "geometry": { "type": "MultiLineString", "coordinates": [ [ [ 105.648493237473019, -5.700230498238852, 0.0 ], [ 105.648022321872702, -5.700207205797881, 0.0 ], [ 105.647244035084213, -5.699530547796485, 0.0 ], [ 105.646156088332873, -5.698930219753777, 0.0 ], [ 105.645358565045797, -5.698006627703649, 0.0 ], [ 105.64482048807514, -5.697323363282521, 0.0 ], [ 105.64466154279603, -5.696506701522992, 0.0 ], [ 105.644597758379916, -5.695993873018779, 0.0 ], [ 105.644198724691478, -5.695285123609494, 0.0 ], [ 105.643850312042332, -5.694620642428674, 0.0 ], [ 105.64335464440137, -5.692278319488821, 0.0 ], [ 105.642283282047913, -5.691641255939146, 0.0 ], [ 105.64192160439859, -5.690822721791108, 0.0 ], [ 105.64192160439859, -5.690180824385493, 0.0 ] ] ] } },
{ "type": "Feature", "properties": { "OBJECTID": 11, "NAMOBJ": null, "FCODE": "CA02050160", "REMARK": "Jalan Lain", "METADATA": "RBI50KPROVINSILAMPUNG", "SRS_ID": "4326", "ARHRJL": 0, "AUTRJL": 0, "FGSRJL": 0, "JARRJL": 0, "JPARJL": 0, "KLLRJL": null, "KONRJL": 0, "KPMSTR": 0.0, "LKONOF": null, "LKSBSP": null, "LKSRTA": null, "LLHRRT": 0.0, "LOCRJL": 0, "LBRBHJ": 0.0, "LBRJLN": 0.0, "MATRJL": 0, "MEDRJL": 0, "SPCRJL": 0, "STARJL": 0, "TOLRJL": 0, "UTKRJL": 0, "VLCPRT": 0.0, "WLYRJL": 0, "TGL_SK": null, "JLNLYG": 0, "KLSRJL": 0, "Shape_Leng": 0.00197545473, "Shape_Le_1": 0.00101198504 }, "geometry": { "type": "MultiLineString", "coordinates": [ [ [ 105.631134292213858, -5.72840162103796, 0.0 ], [ 105.631367715747558, -5.729386317524472, 0.0 ] ] ] } },
{ "type": "Feature", "properties": { "OBJECTID": 12, "NAMOBJ": null, "FCODE": "CA02050160", "REMARK": "Jalan Lain", "METADATA": "RBI50KPROVINSILAMPUNG", "SRS_ID": "4326", "ARHRJL": 0, "AUTRJL": 0, "FGSRJL": 0, "JARRJL": 0, "JPARJL": 0, "KLLRJL": null, "KONRJL": 0, "KPMSTR": 0.0, "LKONOF": null, "LKSBSP": null, "LKSRTA": null, "LLHRRT": 0.0, "LOCRJL": 0, "LBRBHJ": 0.0, "LBRJLN": 0.0, "MATRJL": 0, "MEDRJL": 0, "SPCRJL": 0, "STARJL": 0, "TOLRJL": 0, "UTKRJL": 0, "VLCPRT": 0.0, "WLYRJL": 0, "TGL_SK": null, "JLNLYG": 0, "KLSRJL": 0, "Shape_Leng": 0.00269402149, "Shape_Le_1": 1.396675e-05 }, "geometry": { "type": "MultiLineString", "coordinates": [ [ [ 105.619283346449322, -5.723039121957868, 0.0 ], [ 105.619288246855149, -5.723026043117329, 0.0 ] ] ] } },
{ "type": "Feature", "properties": { "OBJECTID": 13, "NAMOBJ": null, "FCODE": "CA02050160", "REMARK": "Jalan Lain", "METADATA": "RBI50KPROVINSILAMPUNG", "SRS_ID": "4326", "ARHRJL": 0, "AUTRJL": 0, "FGSRJL": 0, "JARRJL": 0, "JPARJL": 0, "KLLRJL": null, "KONRJL": 0, "KPMSTR": 0.0, "LKONOF": null, "LKSBSP": null, "LKSRTA": null, "LLHRRT": 0.0, "LOCRJL": 0, "LBRBHJ": 0.0, "LBRJLN": 0.0, "MATRJL": 0, "MEDRJL": 0, "SPCRJL": 0, "STARJL": 0, "TOLRJL": 0, "UTKRJL": 0, "VLCPRT": 0.0, "WLYRJL": 0, "TGL_SK": null, "JLNLYG": 0, "KLSRJL": 0, "Shape_Leng": 0.00520907628, "Shape_Le_1": 0.00517267125 }, "geometry": { "type": "MultiLineString", "coordinates": [ [ [ 105.655137184133821, -5.688681744466862, 0.0 ], [ 105.654765801000963, -5.688537558861185, 0.0 ], [ 105.654078126304569, -5.688324866499329, 0.0 ], [ 105.653424284103494, -5.687942586281281, 0.0 ], [ 105.653149482762501, -5.687781919699773, 0.0 ], [ 105.65241303513352, -5.686990842753119, 0.0 ], [ 105.651972466256382, -5.686447332977991, 0.0 ], [ 105.651786292203667, -5.685944856569847, 0.0 ], [ 105.651492396457002, -5.685351190704864, 0.0 ] ] ] } },
{ "type": "Feature", "properties": { "OBJECTID": 14, "NAMOBJ": null, "FCODE": "CA02050160", "REMARK": "Jalan Lain", "METADATA": "RBI50KPROVINSILAMPUNG", "SRS_ID": "4326", "ARHRJL": 0, "AUTRJL": 0, "FGSRJL": 0, "JARRJL": 0, "JPARJL": 0, "KLLRJL": null, "KONRJL": 0, "KPMSTR": 0.0, "LKONOF": null, "LKSBSP": null, "LKSRTA": null, "LLHRRT": 0.0, "LOCRJL": 0, "LBRBHJ": 0.0, "LBRJLN": 0.0, "MATRJL": 0, "MEDRJL": 0, "SPCRJL": 0, "STARJL": 0, "TOLRJL": 0, "UTKRJL": 0, "VLCPRT": 0.0, "WLYRJL": 0, "TGL_SK": null, "JLNLYG": 0, "KLSRJL": 0, "Shape_Leng": 0.00428909318, "Shape_Le_1": 0.0042890934 }, "geometry": { "type": "MultiLineString", "coordinates": [ [ [ 105.619288246855149, -5.723026043117329, 0.0 ], [ 105.619599843957701, -5.722414874646688, 0.0 ], [ 105.62181274186463, -5.719571418885835, 0.0 ] ] ] } },
{ "type": "Feature", "properties": { "OBJECTID": 15, "NAMOBJ": null, "FCODE": "CA02050160", "REMARK": "Jalan Lain", "METADATA": "RBI50KPROVINSILAMPUNG", "SRS_ID": "4326", "ARHRJL": 0, "AUTRJL": 0, "FGSRJL": 0, "JARRJL": 0, "JPARJL": 0, "KLLRJL": null, "KONRJL": 0, "KPMSTR": 0.0, "LKONOF": null, "LKSBSP": null, "LKSRTA": null, "LLHRRT": 0.0, "LOCRJL": 0, "LBRBHJ": 0.0, "LBRJLN": 0.0, "MATRJL": 0, "MEDRJL": 0, "SPCRJL": 0, "STARJL": 0, "TOLRJL": 0, "UTKRJL": 0, "VLCPRT": 0.0, "WLYRJL": 0, "TGL_SK": null, "JLNLYG": 0, "KLSRJL": 0, "Shape_Leng": 0.00831515699, "Shape_Le_1": 0.00014865422 }, "geometry": { "type": "MultiLineString", "coordinates": [ [ [ 105.631995125974356, -5.733967620509247, 0.0 ], [ 105.632085247036571, -5.733849399230337, 0.0 ] ] ] } },
{ "type": "Feature", "properties": { "OBJECTID": 16, "NAMOBJ": null, "FCODE": "CA02050160", "REMARK": "Jalan Lain", "METADATA": "RBI50KPROVINSILAMPUNG", "SRS_ID": "4326", "ARHRJL": 0, "AUTRJL": 0, "FGSRJL": 0, "JARRJL": 0, "JPARJL": 0, "KLLRJL": null, "KONRJL": 0, "KPMSTR": 0.0, "LKONOF": null, "LKSBSP": null, "LKSRTA": null, "LLHRRT": 0.0, "LOCRJL": 0, "LBRBHJ": 0.0, "LBRJLN": 0.0, "MATRJL": 0, "MEDRJL": 0, "SPCRJL": 0, "STARJL": 0, "TOLRJL": 0, "UTKRJL": 0, "VLCPRT": 0.0, "WLYRJL": 0, "TGL_SK": null, "JLNLYG": 0, "KLSRJL": 0, "Shape_Leng": 0.00235476087, "Shape_Le_1": 0.00235476092 }, "geometry": { "type": "MultiLineString", "coordinates": [ [ [ 105.652545749886485, -5.688382483364876, 0.0 ], [ 105.652687113419631, -5.689426449670862, 0.0 ], [ 105.652553862670686, -5.690720876267392, 0.0 ] ] ] } },
{ "type": "Feature", "properties": { "OBJECTID": 17, "NAMOBJ": null, "FCODE": "CA02050160", "REMARK": "Jalan Lain", "METADATA": "RBI50KPROVINSILAMPUNG", "SRS_ID": "4326", "ARHRJL": 0, "AUTRJL": 0, "FGSRJL": 0, "JARRJL": 0, "JPARJL": 0, "KLLRJL": null, "KONRJL": 0, "KPMSTR": 0.0, "LKONOF": null, "LKSBSP": null, "LKSRTA": null, "LLHRRT": 0.0, "LOCRJL": 0, "LBRBHJ": 0.0, "LBRJLN": 0.0, "MATRJL": 0, "MEDRJL": 0, "SPCRJL": 0, "STARJL": 0, "TOLRJL": 0, "UTKRJL": 0, "VLCPRT": 0.0, "WLYRJL": 0, "TGL_SK": null, "JLNLYG": 0, "KLSRJL": 0, "Shape_Leng": 0.00340781625, "Shape_Le_1": 0.00340781648 }, "geometry": { "type": "MultiLineString", "coordinates": [ [ [ 105.625816926510026, -5.72415640099706, 0.0 ], [ 105.625805647212928, -5.72401167939546, 0.0 ], [ 105.625821388046688, -5.723327074984468, 0.0 ], [ 105.625893952543947, -5.722840963539568, 0.0 ], [ 105.625977156920328, -5.722537755313112, 0.0 ], [ 105.626189001221462, -5.722011186067334, 0.0 ], [ 105.626323522712482, -5.721882720611006, 0.0 ], [ 105.626570396506679, -5.721730295416762, 0.0 ], [ 105.626779245166119, -5.721562696860929, 0.0 ], [ 105.626908306872906, -5.721421811767129, 0.0 ], [ 105.627044882415476, -5.721189623901978, 0.0 ] ] ] } },
{ "type": "Feature", "properties": { "OBJECTID": 18, "NAMOBJ": null, "FCODE": "CA02050160", "REMARK": "Jalan Lain", "METADATA": "RBI50KPROVINSILAMPUNG", "SRS_ID": "4326", "ARHRJL": 0, "AUTRJL": 0, "FGSRJL": 0, "JARRJL": 0, "JPARJL": 0, "KLLRJL": null, "KONRJL": 0, "KPMSTR": 0.0, "LKONOF": null, "LKSBSP": null, "LKSRTA": null, "LLHRRT": 0.0, "LOCRJL": 0, "LBRBHJ": 0.0, "LBRJLN": 0.0, "MATRJL": 0, "MEDRJL": 0, "SPCRJL": 0, "STARJL": 0, "TOLRJL": 0, "UTKRJL": 0, "VLCPRT": 0.0, "WLYRJL": 0, "TGL_SK": null, "JLNLYG": 0, "KLSRJL": 0, "Shape_Leng": 0.02636039883, "Shape_Le_1": 0.01604614567 }, "geometry": { "type": "MultiLineString", "coordinates": [ [ [ 105.635644858123783, -5.716599101966949, 0.0 ], [ 105.63577256095499, -5.716194121961109, 0.0 ], [ 105.635988642861662, -5.715942018609212, 0.0 ], [ 105.636275066141422, -5.715853847277174, 0.0 ], [ 105.636420705950854, -5.715355820714535, 0.0 ], [ 105.636408156811058, -5.714582684343384, 0.0 ], [ 105.636365992096898, -5.713469864142894, 0.0 ], [ 105.636698567684789, -5.712807636663058, 0.0 ], [ 105.636574488222095, -5.711648049917528, 0.0 ], [ 105.636439266159243, -5.710980478666102, 0.0 ], [ 105.636228320280793, -5.71058242254071, 0.0 ], [ 105.636314927691842, -5.709586604138451, 0.0 ], [ 105.636372744206824, -5.70897812464068, 0.0 ], [ 105.636491733506773, -5.707725840275259, 0.0 ], [ 105.63614909000853, -5.705917451129437, 0.0 ], [ 105.635578020509286, -5.705232165931648, 0.0 ], [ 105.635349590910948, -5.703956774385574, 0.0 ], [ 105.634283593013492, -5.703024025438367, 0.0 ], [ 105.634483923294511, -5.702369579792219, 0.0 ] ], [ [ 105.634771574148886, -5.71736915186483, 0.0 ], [ 105.634779702221522, -5.717290511547844, 0.0 ], [ 105.635114357941347, -5.717044794281776, 0.0 ] ], [ [ 105.632601620668311, -5.720888026361308, 0.0 ], [ 105.632602510997117, -5.720848238555334, 0.0 ], [ 105.632610258656598, -5.720837510542651, 0.0 ] ] ] } },
{ "type": "Feature", "properties": { "OBJECTID": 19, "NAMOBJ": null, "FCODE": "CA02050160", "REMARK": "Jalan Tol", "METADATA": "RBI50KPROVINSILAMPUNG", "SRS_ID": "4326", "ARHRJL": 0, "AUTRJL": 0, "FGSRJL": 0, "JARRJL": 0, "JPARJL": 0, "KLLRJL": null, "KONRJL": 0, "KPMSTR": 0.0, "LKONOF": null, "LKSBSP": null, "LKSRTA": null, "LLHRRT": 0.0, "LOCRJL": 0, "LBRBHJ": 0.0, "LBRJLN": 0.0, "MATRJL": 0, "MEDRJL": 0, "SPCRJL": 0, "STARJL": 0, "TOLRJL": 0, "UTKRJL": 0, "VLCPRT": 0.0, "WLYRJL": 0, "TGL_SK": null, "JLNLYG": 0, "KLSRJL": 0, "Shape_Leng": 0.06237324779, "Shape_Le_1": 0.01446017734 }, "geometry": { "type": "MultiLineString", "coordinates": [ [ [ 105.632505958882973, -5.700770253344444, 0.0 ], [ 105.63435305215171, -5.702024558486528, 0.0 ], [ 105.635828318022504, -5.702928753958759, 0.0 ], [ 105.638957309432328, -5.705082165309648, 0.0 ], [ 105.641578451884129, -5.706890773890052, 0.0 ], [ 105.643908455910548, -5.708386952595731, 0.0 ], [ 105.644532563826829, -5.70879410176633, 0.0 ] ] ] } },
{ "type": "Feature", "properties": { "OBJECTID": 20, "NAMOBJ": null, "FCODE": "CA02050160", "REMARK": "Jalan Lain", "METADATA": "RBI50KPROVINSILAMPUNG", "SRS_ID": "4326", "ARHRJL": 0, "AUTRJL": 0, "FGSRJL": 0, "JARRJL": 0, "JPARJL": 0, "KLLRJL": null, "KONRJL": 0, "KPMSTR": 0.0, "LKONOF": null, "LKSBSP": null, "LKSRTA": null, "LLHRRT": 0.0, "LOCRJL": 0, "LBRBHJ": 0.0, "LBRJLN": 0.0, "MATRJL": 0, "MEDRJL": 0, "SPCRJL": 0, "STARJL": 0, "TOLRJL": 0, "UTKRJL": 0, "VLCPRT": 0.0, "WLYRJL": 0, "TGL_SK": null, "JLNLYG": 0, "KLSRJL": 0, "Shape_Leng": 0.00981296621, "Shape_Le_1": 0.00017667578 }, "geometry": { "type": "MultiLineString", "coordinates": [ [ [ 105.655272545591572, -5.688795285673848, 0.0 ], [ 105.655137184133821, -5.688681744466862, 0.0 ] ] ] } },
{ "type": "Feature", "properties": { "OBJECTID": 21, "NAMOBJ": null, "FCODE": "CA02050160", "REMARK": "Jalan Lain", "METADATA": "RBI50KPROVINSILAMPUNG", "SRS_ID": "4326", "ARHRJL": 0, "AUTRJL": 0, "FGSRJL": 0, "JARRJL": 0, "JPARJL": 0, "KLLRJL": null, "KONRJL": 0, "KPMSTR": 0.0, "LKONOF": null, "LKSBSP": null, "LKSRTA": null, "LLHRRT": 0.0, "LOCRJL": 0, "LBRBHJ": 0.0, "LBRJLN": 0.0, "MATRJL": 0, "MEDRJL": 0, "SPCRJL": 0, "STARJL": 0, "TOLRJL": 0, "UTKRJL": 0, "VLCPRT": 0.0, "WLYRJL": 0, "TGL_SK": null, "JLNLYG": 0, "KLSRJL": 0, "Shape_Leng": 0.00382681845, "Shape_Le_1": 0.00339191317 }, "geometry": { "type": "MultiLineString", "coordinates": [ [ [ 105.629255477158608, -5.728406213875644, 0.0 ], [ 105.629463440885161, -5.72714232555785, 0.0 ], [ 105.629526029202964, -5.725560812881156, 0.0 ], [ 105.629380869631461, -5.725052868594958, 0.0 ] ] ] } },
{ "type": "Feature", "properties": { "OBJECTID": 22, "NAMOBJ": null, "FCODE": "CA02050160", "REMARK": "Jalan Lain", "METADATA": "RBI50KPROVINSILAMPUNG", "SRS_ID": "4326", "ARHRJL": 0, "AUTRJL": 0, "FGSRJL": 0, "JARRJL": 0, "JPARJL": 0, "KLLRJL": null, "KONRJL": 0, "KPMSTR": 0.0, "LKONOF": null, "LKSBSP": null, "LKSRTA": null, "LLHRRT": 0.0, "LOCRJL": 0, "LBRBHJ": 0.0, "LBRJLN": 0.0, "MATRJL": 0, "MEDRJL": 0, "SPCRJL": 0, "STARJL": 0, "TOLRJL": 0, "UTKRJL": 0, "VLCPRT": 0.0, "WLYRJL": 0, "TGL_SK": null, "JLNLYG": 0, "KLSRJL": 0, "Shape_Leng": 0.00445500245, "Shape_Le_1": 0.00117845799 }, "geometry": { "type": "MultiLineString", "coordinates": [ [ [ 105.626713702575387, -5.732145014880473, 0.0 ], [ 105.626754883431204, -5.732227375692787, 0.0 ], [ 105.626831026330876, -5.732874588991024, 0.0 ], [ 105.626425581375543, -5.733031360608777, 0.0 ] ] ] } },
{ "type": "Feature", "properties": { "OBJECTID": 23, "NAMOBJ": null, "FCODE": "CA02050160", "REMARK": "Jalan Lokal", "METADATA": "RBI50KPROVINSILAMPUNG", "SRS_ID": "4326", "ARHRJL": 0, "AUTRJL": 0, "FGSRJL": 0, "JARRJL": 0, "JPARJL": 0, "KLLRJL": null, "KONRJL": 0, "KPMSTR": 0.0, "LKONOF": null, "LKSBSP": null, "LKSRTA": null, "LLHRRT": 0.0, "LOCRJL": 0, "LBRBHJ": 0.0, "LBRJLN": 0.0, "MATRJL": 0, "MEDRJL": 0, "SPCRJL": 0, "STARJL": 0, "TOLRJL": 0, "UTKRJL": 0, "VLCPRT": 0.0, "WLYRJL": 0, "TGL_SK": null, "JLNLYG": 0, "KLSRJL": 0, "Shape_Leng": 0.01236290363, "Shape_Le_1": 0.00517598385 }, "geometry": { "type": "MultiLineString", "coordinates": [ [ [ 105.631248974660537, -5.728405276782041, 0.0 ], [ 105.631134292213858, -5.72840162103796, 0.0 ], [ 105.630923581957802, -5.728394903102242, 0.0 ], [ 105.629255477158608, -5.728406213875644, 0.0 ], [ 105.628368544173043, -5.72839285804389, 0.0 ], [ 105.627868053467978, -5.728565350710312, 0.0 ], [ 105.62736793688083, -5.72908172973797, 0.0 ], [ 105.626567475508637, -5.729655752610824, 0.0 ], [ 105.626516273507264, -5.729690709258762, 0.0 ] ] ] } },
{ "type": "Feature", "properties": { "OBJECTID": 24, "NAMOBJ": null, "FCODE": null, "REMARK": null, "METADATA": null, "SRS_ID": null, "ARHRJL": 0, "AUTRJL": 0, "FGSRJL": 0, "JARRJL": 0, "JPARJL": 0, "KLLRJL": null, "KONRJL": 0, "KPMSTR": 0.0, "LKONOF": null, "LKSBSP": null, "LKSRTA": null, "LLHRRT": 0.0, "LOCRJL": 0, "LBRBHJ": 0.0, "LBRJLN": 0.0, "MATRJL": 0, "MEDRJL": 0, "SPCRJL": 0, "STARJL": 0, "TOLRJL": 0, "UTKRJL": 0, "VLCPRT": 0.0, "WLYRJL": 0, "TGL_SK": null, "JLNLYG": 0, "KLSRJL": 0, "Shape_Leng": 0.0, "Shape_Le_1": 0.00342449658 }, "geometry": { "type": "MultiLineString", "coordinates": [ [ [ 105.630501364646307, -5.724695531073849, 0.0 ], [ 105.630723217502521, -5.724733653335363, 0.0 ], [ 105.630911248655252, -5.72476116989202, 0.0 ], [ 105.631075202258842, -5.724780660898716, 0.0 ], [ 105.631367567359405, -5.724820789547778, 0.0 ], [ 105.631720697851961, -5.724866650475519, 0.0 ], [ 105.631950003389989, -5.724884994846605, 0.0 ], [ 105.633179082548679, -5.725038630528331, 0.0 ], [ 105.633644572539026, -5.725100542555936, 0.0 ], [ 105.633898666090602, -5.725119183703328, 0.0 ], [ 105.633898666090602, -5.725119183703328, 0.0 ], [ 105.633898666090602, -5.725119183703328, 0.0 ] ] ] } },
{ "type": "Feature", "properties": { "OBJECTID": 25, "NAMOBJ": null, "FCODE": "CA02050160", "REMARK": "Jalan Arteri", "METADATA": "RBI50KPROVINSILAMPUNG", "SRS_ID": "4326", "ARHRJL": 0, "AUTRJL": 0, "FGSRJL": 1, "JARRJL": 0, "JPARJL": 0, "KLLRJL": null, "KONRJL": 0, "KPMSTR": 0.0, "LKONOF": null, "LKSBSP": null, "LKSRTA": null, "LLHRRT": 0.0, "LOCRJL": 0, "LBRBHJ": 0.0, "LBRJLN": 0.0, "MATRJL": 0, "MEDRJL": 0, "SPCRJL": 0, "STARJL": 0, "TOLRJL": 0, "UTKRJL": 0, "VLCPRT": 0.0, "WLYRJL": 0, "TGL_SK": null, "JLNLYG": 0, "KLSRJL": 0, "Shape_Leng": 0.01207215933, "Shape_Le_1": 0.00012736161 }, "geometry": { "type": "MultiLineString", "coordinates": [ [ [ 105.619288246855149, -5.723026043117329, 0.0 ], [ 105.619162788731785, -5.723004105954658, 0.0 ] ] ] } },
{ "type": "Feature", "properties": { "OBJECTID": 26, "NAMOBJ": null, "FCODE": null, "REMARK": null, "METADATA": null, "SRS_ID": null, "ARHRJL": 0, "AUTRJL": 0, "FGSRJL": 0, "JARRJL": 0, "JPARJL": 0, "KLLRJL": null, "KONRJL": 0, "KPMSTR": 0.0, "LKONOF": null, "LKSBSP": null, "LKSRTA": null, "LLHRRT": 0.0, "LOCRJL": 0, "LBRBHJ": 0.0, "LBRJLN": 0.0, "MATRJL": 0, "MEDRJL": 0, "SPCRJL": 0, "STARJL": 0, "TOLRJL": 0, "UTKRJL": 0, "VLCPRT": 0.0, "WLYRJL": 0, "TGL_SK": null, "JLNLYG": 0, "KLSRJL": 0, "Shape_Leng": 0.0, "Shape_Le_1": 0.00485582059 }, "geometry": { "type": "MultiLineString", "coordinates": [ [ [ 105.631248974660537, -5.728405276782041, 0.0 ], [ 105.631892390121777, -5.72842031614465, 0.0 ], [ 105.63212628220225, -5.728424902687038, 0.0 ], [ 105.632144626573336, -5.728422609415873, 0.0 ], [ 105.632144626573336, -5.728303371003733, 0.0 ], [ 105.632130868744639, -5.728154321864395, 0.0 ], [ 105.632078128003286, -5.727993808167639, 0.0 ], [ 105.632013922704402, -5.727796604829393, 0.0 ], [ 105.632007042890791, -5.727766795001514, 0.0 ], [ 105.632002457247665, -5.727692843749708, 0.0 ], [ 105.632023094889973, -5.727527743510507, 0.0 ], [ 105.632055197089755, -5.727264042501531, 0.0 ], [ 105.632059783632144, -5.726959065308563, 0.0 ], [ 105.632039145989836, -5.726771607923297, 0.0 ], [ 105.632009336162014, -5.726686764982162, 0.0 ], [ 105.631956596319924, -5.726565233298857, 0.0 ], [ 105.631903855578514, -5.726386948099105, 0.0 ], [ 105.631846529194036, -5.726272295330091, 0.0 ], [ 105.631776017849006, -5.726188598125248, 0.0 ], [ 105.631726717014431, -5.726116367276461, 0.0 ], [ 105.631673976273021, -5.726020058878589, 0.0 ], [ 105.631634995158947, -5.725942381735479, 0.0 ], [ 105.631628115345279, -5.725917157550725, 0.0 ], [ 105.631553304341594, -5.725743172009743, 0.0 ], [ 105.631540693148509, -5.725701896725127, 0.0 ], [ 105.631490245678378, -5.725655176045507, 0.0 ], [ 105.631431772658232, -5.725611607489668, 0.0 ], [ 105.631339763919016, -5.725555427740744, 0.0 ], [ 105.631273265348966, -5.725478897233302, 0.0 ], [ 105.63123199006435, -5.725406952368928, 0.0 ], [ 105.631221671243168, -5.725358798169964, 0.0 ], [ 105.631215938065168, -5.725278827755631, 0.0 ], [ 105.631214792328876, -5.725216915728026, 0.0 ], [ 105.631193008050957, -5.725164174986617, 0.0 ], [ 105.63115058613073, -5.725095383145344, 0.0 ], [ 105.631103578567377, -5.724991336081246, 0.0 ], [ 105.631073481855765, -5.724925123495609, 0.0 ], [ 105.631067749577028, -5.724891874660216, 0.0 ], [ 105.631067749577028, -5.724839133918863, 0.0 ], [ 105.631071189483862, -5.72480588508347, 0.0 ], [ 105.631073481855765, -5.724789833084287, 0.0 ], [ 105.631075202258842, -5.724780660898716, 0.0 ], [ 105.631075202258842, -5.724780660898716, 0.0 ], [ 105.631075202258842, -5.724780660898716, 0.0 ] ] ] } },
{ "type": "Feature", "properties": { "OBJECTID": 27, "NAMOBJ": null, "FCODE": "CA02050160", "REMARK": "Jalan Arteri", "METADATA": "RBI50KPROVINSILAMPUNG", "SRS_ID": "4326", "ARHRJL": 0, "AUTRJL": 0, "FGSRJL": 1, "JARRJL": 0, "JPARJL": 0, "KLLRJL": null, "KONRJL": 0, "KPMSTR": 0.0, "LKONOF": null, "LKSBSP": null, "LKSRTA": null, "LLHRRT": 0.0, "LOCRJL": 0, "LBRBHJ": 0.0, "LBRJLN": 0.0, "MATRJL": 0, "MEDRJL": 0, "SPCRJL": 0, "STARJL": 0, "TOLRJL": 0, "UTKRJL": 0, "VLCPRT": 0.0, "WLYRJL": 0, "TGL_SK": null, "JLNLYG": 0, "KLSRJL": 0, "Shape_Leng": 0.0066396331, "Shape_Le_1": 0.00435731768 }, "geometry": { "type": "MultiLineString", "coordinates": [ [ [ 105.619617008418288, -5.723083527782535, 0.0 ], [ 105.619288246855149, -5.723026043117329, 0.0 ] ], [ [ 105.625816926510026, -5.72415640099706, 0.0 ], [ 105.625781148781073, -5.724150355754261, 0.0 ], [ 105.624999999450495, -5.724050621838671, 0.0 ], [ 105.624612743283535, -5.724001178911237, 0.0 ], [ 105.62394503083857, -5.723868170979244, 0.0 ], [ 105.623285682088635, -5.723751870652279, 0.0 ], [ 105.62270154274205, -5.723735788975432, 0.0 ], [ 105.622017178450108, -5.723636230427644, 0.0 ], [ 105.621836477671366, -5.723606647228962, 0.0 ] ] ] } },
{ "type": "Feature", "properties": { "OBJECTID": 28, "NAMOBJ": null, "FCODE": null, "REMARK": null, "METADATA": null, "SRS_ID": null, "ARHRJL": 0, "AUTRJL": 0, "FGSRJL": 0, "JARRJL": 0, "JPARJL": 0, "KLLRJL": null, "KONRJL": 0, "KPMSTR": 0.0, "LKONOF": null, "LKSBSP": null, "LKSRTA": null, "LLHRRT": 0.0, "LOCRJL": 0, "LBRBHJ": 0.0, "LBRJLN": 0.0, "MATRJL": 0, "MEDRJL": 0, "SPCRJL": 0, "STARJL": 0, "TOLRJL": 0, "UTKRJL": 0, "VLCPRT": 0.0, "WLYRJL": 0, "TGL_SK": null, "JLNLYG": 0, "KLSRJL": 0, "Shape_Leng": 0.0, "Shape_Le_1": 0.00176481958 }, "geometry": { "type": "MultiLineString", "coordinates": [ [ [ 105.632144626573336, -5.728422609415873, 0.0 ], [ 105.632759462479271, -5.72847662269794, 0.0 ], [ 105.633099491648295, -5.728495690123964, 0.0 ], [ 105.633388674947469, -5.728540179585593, 0.0 ], [ 105.633703281181567, -5.728568780724629, 0.0 ], [ 105.633899046503871, -5.728601996285079, 0.0 ] ] ] } },
{ "type": "Feature", "properties": { "OBJECTID": 29, "NAMOBJ": null, "FCODE": null, "REMARK": null, "METADATA": null, "SRS_ID": null, "ARHRJL": 0, "AUTRJL": 0, "FGSRJL": 0, "JARRJL": 0, "JPARJL": 0, "KLLRJL": null, "KONRJL": 0, "KPMSTR": 0.0, "LKONOF": null, "LKSBSP": null, "LKSRTA": null, "LLHRRT": 0.0, "LOCRJL": 0, "LBRBHJ": 0.0, "LBRJLN": 0.0, "MATRJL": 0, "MEDRJL": 0, "SPCRJL": 0, "STARJL": 0, "TOLRJL": 0, "UTKRJL": 0, "VLCPRT": 0.0, "WLYRJL": 0, "TGL_SK": null, "JLNLYG": 0, "KLSRJL": 0, "Shape_Leng": 0.0, "Shape_Le_1": 0.00356787496 }, "geometry": { "type": "MultiLineString", "coordinates": [ [ [ 105.62922868635485, -5.72463130778857, 0.0 ], [ 105.629231010203, -5.724539603919538, 0.0 ], [ 105.629664398892942, -5.72459922267592, 0.0 ], [ 105.629742362020465, -5.724606102489588, 0.0 ], [ 105.630301868036838, -5.7246886521595, 0.0 ], [ 105.630304161308061, -5.724681773245209, 0.0 ], [ 105.630304161308061, -5.724677186702763, 0.0 ], [ 105.630501364646307, -5.724695531073849, 0.0 ], [ 105.630496778103861, -5.7246886521595, 0.0 ], [ 105.630496778103861, -5.724601515947143, 0.0 ], [ 105.630510536831878, -5.72453272410587, 0.0 ], [ 105.630501364646307, -5.724479984263837, 0.0 ], [ 105.630476140461553, -5.724399726965771, 0.0 ], [ 105.630425693890743, -5.724305711839065, 0.0 ], [ 105.630350022235802, -5.724136025057476, 0.0 ], [ 105.630315626764798, -5.724040863295158, 0.0 ], [ 105.630312186858021, -5.723913598433796, 0.0 ], [ 105.63031792003602, -5.723836781042564, 0.0 ], [ 105.63033970431394, -5.723797799029171, 0.0 ], [ 105.630371806513722, -5.723718689266036, 0.0 ], [ 105.630386711877293, -5.723660216245946, 0.0 ], [ 105.630474134074063, -5.723592571040285, 0.0 ], [ 105.630571589107603, -5.723521772811523, 0.0 ], [ 105.630640380948876, -5.723464446426988, 0.0 ], [ 105.630626623120236, -5.723427757684817, 0.0 ], [ 105.630514262723125, -5.723231127214717, 0.0 ], [ 105.630438591967504, -5.723102716617007, 0.0 ], [ 105.630430205789423, -5.722744717194871, 0.0 ] ] ] } },
{ "type": "Feature", "properties": { "OBJECTID": 30, "NAMOBJ": null, "FCODE": "CA02050160", "REMARK": "Jalan Lain", "METADATA": "RBI50KPROVINSILAMPUNG", "SRS_ID": "4326", "ARHRJL": 0, "AUTRJL": 0, "FGSRJL": 0, "JARRJL": 0, "JPARJL": 0, "KLLRJL": null, "KONRJL": 0, "KPMSTR": 0.0, "LKONOF": null, "LKSBSP": null, "LKSRTA": null, "LLHRRT": 0.0, "LOCRJL": 0, "LBRBHJ": 0.0, "LBRJLN": 0.0, "MATRJL": 0, "MEDRJL": 0, "SPCRJL": 0, "STARJL": 0, "TOLRJL": 0, "UTKRJL": 0, "VLCPRT": 0.0, "WLYRJL": 0, "TGL_SK": null, "JLNLYG": 0, "KLSRJL": 0, "Shape_Leng": 0.00587095469, "Shape_Le_1": 0.00253236766 }, "geometry": { "type": "MultiLineString", "coordinates": [ [ [ 105.624674180469128, -5.72633527395368, 0.0 ], [ 105.624702982156975, -5.726273070545744, 0.0 ], [ 105.624787694696408, -5.726067003489391, 0.0 ], [ 105.624979564155637, -5.725739921859883, 0.0 ], [ 105.625000000349814, -5.725710483452019, 0.0 ], [ 105.625251252943031, -5.725267094300932, 0.0 ], [ 105.625397464721289, -5.725102815142748, 0.0 ], [ 105.625491040978829, -5.725000136846802, 0.0 ], [ 105.625567090349023, -5.724932646324532, 0.0 ], [ 105.625729703063428, -5.724738546546632, 0.0 ], [ 105.625806263248535, -5.724578924977379, 0.0 ], [ 105.625835578449255, -5.724395719586767, 0.0 ], [ 105.625816926510026, -5.72415640099706, 0.0 ] ] ] } },
{ "type": "Feature", "properties": { "OBJECTID": 31, "NAMOBJ": null, "FCODE": "CA02050160", "REMARK": "Jalan Arteri", "METADATA": "RBI50KPROVINSILAMPUNG", "SRS_ID": "4326", "ARHRJL": 0, "AUTRJL": 0, "FGSRJL": 1, "JARRJL": 0, "JPARJL": 0, "KLLRJL": null, "KONRJL": 0, "KPMSTR": 0.0, "LKONOF": null, "LKSBSP": null, "LKSRTA": null, "LLHRRT": 0.0, "LOCRJL": 0, "LBRBHJ": 0.0, "LBRJLN": 0.0, "MATRJL": 0, "MEDRJL": 0, "SPCRJL": 0, "STARJL": 0, "TOLRJL": 0, "UTKRJL": 0, "VLCPRT": 0.0, "WLYRJL": 0, "TGL_SK": null, "JLNLYG": 0, "KLSRJL": 0, "Shape_Leng": 0.04163056071, "Shape_Le_1": 0.0034461756 }, "geometry": { "type": "MultiLineString", "coordinates": [ [ [ 105.62922868635485, -5.72463130778857, 0.0 ], [ 105.628910862346459, -5.724598284683054, 0.0 ], [ 105.627959423688537, -5.724457235912666, 0.0 ], [ 105.627296793312439, -5.724392896614859, 0.0 ], [ 105.627108184794963, -5.724374582820701, 0.0 ], [ 105.625816926510026, -5.72415640099706, 0.0 ] ] ] } }
]
}
