{
"type": "FeatureCollection",
"name": "JALAN NEW",
"crs": { "type": "name", "properties": { "name": "urn:ogc:def:crs:OGC:1.3:CRS84" } },
"features": [
{ "type": "Feature", "properties": { "NAMOBJ": null, "FCODE": "CA02050160", "REMARK": "Jalan Lain", "METADATA": "RBI50KPROVINSILAMPUNG", "SRS_ID": "4326", "ARHRJL": 0, "AUTRJL": 0, "FGSRJL": 0, "JARRJL": 0, "JPARJL": 0, "KLLRJL": null, "KONRJL": 0, "KPMSTR": 0.0, "LKONOF": null, "LKSBSP": null, "LKSRTA": null, "LLHRRT": 0.0, "LOCRJL": 0, "LBRBHJ": 0.0, "LBRJLN": 0.0, "MATRJL": 0, "MEDRJL": 0, "SPCRJL": 0, "STARJL": 0, "TOLRJL": 0, "UTKRJL": 0, "VLCPRT": 0.0, "WLYRJL": 0, "TGL_SK": null, "JLNLYG": 0, "KLSRJL": 0, "Shape_Leng": 0.00981296621 }, "geometry": { "type": "MultiLineString", "coordinates": [ [ [ 105.655272545328572, -5.688795285743274, 0.0 ], [ 105.655137184000026, -5.688681744999978, 0.0 ] ] ] } },
{ "type": "Feature", "properties": { "NAMOBJ": null, "FCODE": "CA02050160", "REMARK": "Jalan Lain", "METADATA": "RBI50KPROVINSILAMPUNG", "SRS_ID": "4326", "ARHRJL": 0, "AUTRJL": 0, "FGSRJL": 0, "JARRJL": 0, "JPARJL": 0, "KLLRJL": null, "KONRJL": 0, "KPMSTR": 0.0, "LKONOF": null, "LKSBSP": null, "LKSRTA": null, "LLHRRT": 0.0, "LOCRJL": 0, "LBRBHJ": 0.0, "LBRJLN": 0.0, "MATRJL": 0, "MEDRJL": 0, "SPCRJL": 0, "STARJL": 0, "TOLRJL": 0, "UTKRJL": 0, "VLCPRT": 0.0, "WLYRJL": 0, "TGL_SK": null, "JLNLYG": 0, "KLSRJL": 0, "Shape_Leng": 0.00340781625 }, "geometry": { "type": "MultiLineString", "coordinates": [ [ [ 105.625816926000113, -5.724156401, 0.0 ], [ 105.625805647000078, -5.724011679999928, 0.0 ], [ 105.625821388000048, -5.72332707499995, 0.0 ], [ 105.625893952000098, -5.722840963999963, 0.0 ], [ 105.625977157000051, -5.722537755999922, 0.0 ], [ 105.626189001000085, -5.722011185999963, 0.0 ], [ 105.626323523000025, -5.721882720999903, 0.0 ], [ 105.62657039600002, -5.721730296, 0.0 ], [ 105.626779245000066, -5.721562696999981, 0.0 ], [ 105.626908307000093, -5.721421811999959, 0.0 ], [ 105.627044882000021, -5.721189623999932, 0.0 ] ] ] } },
{ "type": "Feature", "properties": { "NAMOBJ": null, "FCODE": "CA02050160", "REMARK": "Jalan Lokal", "METADATA": "RBI50KPROVINSILAMPUNG", "SRS_ID": "4326", "ARHRJL": 0, "AUTRJL": 0, "FGSRJL": 0, "JARRJL": 0, "JPARJL": 0, "KLLRJL": null, "KONRJL": 0, "KPMSTR": 0.0, "LKONOF": null, "LKSBSP": null, "LKSRTA": null, "LLHRRT": 0.0, "LOCRJL": 0, "LBRBHJ": 0.0, "LBRJLN": 0.0, "MATRJL": 0, "MEDRJL": 0, "SPCRJL": 0, "STARJL": 0, "TOLRJL": 0, "UTKRJL": 0, "VLCPRT": 0.0, "WLYRJL": 0, "TGL_SK": null, "JLNLYG": 0, "KLSRJL": 0, "Shape_Leng": 0.01236290363 }, "geometry": { "type": "MultiLineString", "coordinates": [ [ [ 105.631248974909823, -5.728405277453695, 0.0 ], [ 105.63113429200007, -5.728401620999889, 0.0 ], [ 105.630923582000051, -5.728394902999955, 0.0 ], [ 105.629255477000058, -5.728406214, 0.0 ], [ 105.628368544000026, -5.728392857999963, 0.0 ], [ 105.627868053000014, -5.728565350999935, 0.0 ], [ 105.627367937000102, -5.729081729999939, 0.0 ], [ 105.626567475000044, -5.729655753, 0.0 ], [ 105.626516273500116, -5.72969070917858, 0.0 ] ] ] } },
{ "type": "Feature", "properties": { "NAMOBJ": null, "FCODE": "CA02050160", "REMARK": "Jalan Arteri", "METADATA": "RBI50KPROVINSILAMPUNG", "SRS_ID": "4326", "ARHRJL": 0, "AUTRJL": 0, "FGSRJL": 1, "JARRJL": 0, "JPARJL": 0, "KLLRJL": null, "KONRJL": 0, "KPMSTR": 0.0, "LKONOF": null, "LKSBSP": null, "LKSRTA": null, "LLHRRT": 0.0, "LOCRJL": 0, "LBRBHJ": 0.0, "LBRJLN": 0.0, "MATRJL": 0, "MEDRJL": 0, "SPCRJL": 0, "STARJL": 0, "TOLRJL": 0, "UTKRJL": 0, "VLCPRT": 0.0, "WLYRJL": 0, "TGL_SK": null, "JLNLYG": 0, "KLSRJL": 0, "Shape_Leng": 0.04163056071 }, "geometry": { "type": "MultiLineString", "coordinates": [ [ [ 105.629228685841966, -5.724631308284965, 0.0 ], [ 105.628910862000055, -5.72459828499997, 0.0 ], [ 105.627959424000025, -5.724457235999934, 0.0 ], [ 105.627296793000085, -5.72439289699994, 0.0 ], [ 105.627108185000026, -5.724374582999935, 0.0 ], [ 105.625816926000113, -5.724156401, 0.0 ] ] ] } },
{ "type": "Feature", "properties": { "NAMOBJ": null, "FCODE": "CA02050160", "REMARK": "Jalan Lain", "METADATA": "RBI50KPROVINSILAMPUNG", "SRS_ID": "4326", "ARHRJL": 0, "AUTRJL": 0, "FGSRJL": 0, "JARRJL": 0, "JPARJL": 0, "KLLRJL": null, "KONRJL": 0, "KPMSTR": 0.0, "LKONOF": null, "LKSBSP": null, "LKSRTA": null, "LLHRRT": 0.0, "LOCRJL": 0, "LBRBHJ": 0.0, "LBRJLN": 0.0, "MATRJL": 0, "MEDRJL": 0, "SPCRJL": 0, "STARJL": 0, "TOLRJL": 0, "UTKRJL": 0, "VLCPRT": 0.0, "WLYRJL": 0, "TGL_SK": null, "JLNLYG": 0, "KLSRJL": 0, "Shape_Leng": 0.00720457792 }, "geometry": { "type": "MultiLineString", "coordinates": [ [ [ 105.647154507000081, -5.70690494, 0.0 ], [ 105.647349668000061, -5.706188243999942, 0.0 ], [ 105.647363207815374, -5.706169456098485, 0.0 ] ] ] } },
{ "type": "Feature", "properties": { "NAMOBJ": null, "FCODE": "CA02050160", "REMARK": "Jalan Lain", "METADATA": "RBI50KPROVINSILAMPUNG", "SRS_ID": "4326", "ARHRJL": 0, "AUTRJL": 0, "FGSRJL": 0, "JARRJL": 0, "JPARJL": 0, "KLLRJL": null, "KONRJL": 0, "KPMSTR": 0.0, "LKONOF": null, "LKSBSP": null, "LKSRTA": null, "LLHRRT": 0.0, "LOCRJL": 0, "LBRBHJ": 0.0, "LBRJLN": 0.0, "MATRJL": 0, "MEDRJL": 0, "SPCRJL": 0, "STARJL": 0, "TOLRJL": 0, "UTKRJL": 0, "VLCPRT": 0.0, "WLYRJL": 0, "TGL_SK": null, "JLNLYG": 0, "KLSRJL": 0, "Shape_Leng": 0.00587095469 }, "geometry": { "type": "MultiLineString", "coordinates": [ [ [ 105.6246741803715, -5.726335273954329, 0.0 ], [ 105.624702982000059, -5.726273070999986, 0.0 ], [ 105.624787695000052, -5.726067003999989, 0.0 ], [ 105.624979564000029, -5.725739921999927, 0.0 ], [ 105.625, -5.725710483999889, 0.0 ], [ 105.62525125300003, -5.725267094999974, 0.0 ], [ 105.625397465000049, -5.72510281499997, 0.0 ], [ 105.62549104100006, -5.725000136999912, 0.0 ], [ 105.625567090000047, -5.724932646999924, 0.0 ], [ 105.625729703, -5.72473854699994, 0.0 ], [ 105.62580626300003, -5.724578924999967, 0.0 ], [ 105.625835578000064, -5.72439572, 0.0 ], [ 105.625816926000113, -5.724156401, 0.0 ] ] ] } },
{ "type": "Feature", "properties": { "NAMOBJ": null, "FCODE": "CA02050160", "REMARK": "Jalan Lain", "METADATA": "RBI50KPROVINSILAMPUNG", "SRS_ID": "4326", "ARHRJL": 0, "AUTRJL": 0, "FGSRJL": 0, "JARRJL": 0, "JPARJL": 0, "KLLRJL": null, "KONRJL": 0, "KPMSTR": 0.0, "LKONOF": null, "LKSBSP": null, "LKSRTA": null, "LLHRRT": 0.0, "LOCRJL": 0, "LBRBHJ": 0.0, "LBRJLN": 0.0, "MATRJL": 0, "MEDRJL": 0, "SPCRJL": 0, "STARJL": 0, "TOLRJL": 0, "UTKRJL": 0, "VLCPRT": 0.0, "WLYRJL": 0, "TGL_SK": null, "JLNLYG": 0, "KLSRJL": 0, "Shape_Leng": 0.01967350422 }, "geometry": { "type": "MultiLineString", "coordinates": [ [ [ 105.63637274400007, -5.70897812499994, 0.0 ], [ 105.634150343000044, -5.709096410999957, 0.0 ], [ 105.633388915000111, -5.709762659999927, 0.0 ], [ 105.632456167000029, -5.710257587999933, 0.0 ], [ 105.632303881000041, -5.710809622999956, 0.0 ], [ 105.631142704000055, -5.711323585999938, 0.0 ], [ 105.631314025000023, -5.712256334999931, 0.0 ], [ 105.630819098000103, -5.713493654999989, 0.0 ], [ 105.631180776000107, -5.714883259999946, 0.0 ], [ 105.630876205000035, -5.715263974, 0.0 ], [ 105.63064777600006, -5.715777936999898, 0.0 ], [ 105.630305134000125, -5.71598733, 0.0 ], [ 105.630590669000043, -5.716862970999968, 0.0 ], [ 105.630495491000062, -5.717319827999932, 0.0 ], [ 105.6308952400001, -5.718918825999896, 0.0 ], [ 105.630838133000083, -5.719337611, 0.0 ], [ 105.630685848000013, -5.719661216999948, 0.0 ], [ 105.630704883000078, -5.719927716999972, 0.0 ], [ 105.629981527000083, -5.720384573999936, 0.0 ], [ 105.630571634000063, -5.722478499, 0.0 ], [ 105.630430205233765, -5.722744717597116, 0.0 ] ] ] } },
{ "type": "Feature", "properties": { "NAMOBJ": null, "FCODE": "CA02050160", "REMARK": "Jalan Arteri", "METADATA": "RBI50KPROVINSILAMPUNG", "SRS_ID": "4326", "ARHRJL": 0, "AUTRJL": 0, "FGSRJL": 1, "JARRJL": 0, "JPARJL": 0, "KLLRJL": null, "KONRJL": 0, "KPMSTR": 0.0, "LKONOF": null, "LKSBSP": null, "LKSRTA": null, "LLHRRT": 0.0, "LOCRJL": 0, "LBRBHJ": 0.0, "LBRJLN": 0.0, "MATRJL": 0, "MEDRJL": 0, "SPCRJL": 0, "STARJL": 0, "TOLRJL": 0, "UTKRJL": 0, "VLCPRT": 0.0, "WLYRJL": 0, "TGL_SK": null, "JLNLYG": 0, "KLSRJL": 0, "Shape_Leng": 0.01207215933 }, "geometry": { "type": "MultiLineString", "coordinates": [ [ [ 105.619288247000028, -5.723026042999911, 0.0 ], [ 105.619162788339153, -5.723004106063377, 0.0 ] ] ] } },
{ "type": "Feature", "properties": { "NAMOBJ": null, "FCODE": "CA02050160", "REMARK": "Jalan Lain", "METADATA": "RBI50KPROVINSILAMPUNG", "SRS_ID": "4326", "ARHRJL": 0, "AUTRJL": 0, "FGSRJL": 0, "JARRJL": 0, "JPARJL": 0, "KLLRJL": null, "KONRJL": 0, "KPMSTR": 0.0, "LKONOF": null, "LKSBSP": null, "LKSRTA": null, "LLHRRT": 0.0, "LOCRJL": 0, "LBRBHJ": 0.0, "LBRJLN": 0.0, "MATRJL": 0, "MEDRJL": 0, "SPCRJL": 0, "STARJL": 0, "TOLRJL": 0, "UTKRJL": 0, "VLCPRT": 0.0, "WLYRJL": 0, "TGL_SK": null, "JLNLYG": 0, "KLSRJL": 0, "Shape_Leng": 0.00445500245 }, "geometry": { "type": "MultiLineString", "coordinates": [ [ [ 105.626713702420446, -5.732145014840838, 0.0 ], [ 105.626754883, -5.732227375999975, 0.0 ], [ 105.62683102600009, -5.732874588999969, 0.0 ], [ 105.626425581309832, -5.733031360916573, 0.0 ] ] ] } },
{ "type": "Feature", "properties": { "NAMOBJ": null, "FCODE": "CA02050160", "REMARK": "Jalan Lain", "METADATA": "RBI50KPROVINSILAMPUNG", "SRS_ID": "4326", "ARHRJL": 0, "AUTRJL": 0, "FGSRJL": 0, "JARRJL": 0, "JPARJL": 0, "KLLRJL": null, "KONRJL": 0, "KPMSTR": 0.0, "LKONOF": null, "LKSBSP": null, "LKSRTA": null, "LLHRRT": 0.0, "LOCRJL": 0, "LBRBHJ": 0.0, "LBRJLN": 0.0, "MATRJL": 0, "MEDRJL": 0, "SPCRJL": 0, "STARJL": 0, "TOLRJL": 0, "UTKRJL": 0, "VLCPRT": 0.0, "WLYRJL": 0, "TGL_SK": null, "JLNLYG": 0, "KLSRJL": 0, "Shape_Leng": 0.02946397155 }, "geometry": { "type": "MultiLineString", "coordinates": [ [ [ 105.648493237509996, -5.700230498541635, 0.0 ], [ 105.648022322000116, -5.700207205999962, 0.0 ], [ 105.647244035000114, -5.69953054799993, 0.0 ], [ 105.646156088000069, -5.69893022, 0.0 ], [ 105.645358565000066, -5.698006627999962, 0.0 ], [ 105.64482048800005, -5.697323363999916, 0.0 ], [ 105.644661543000041, -5.696506701999936, 0.0 ], [ 105.644597758000089, -5.695993872999959, 0.0 ], [ 105.644198725000123, -5.695285123999937, 0.0 ], [ 105.643850312000069, -5.694620642999936, 0.0 ], [ 105.643354644000084, -5.692278319999931, 0.0 ], [ 105.642283282000079, -5.691641255999978, 0.0 ], [ 105.641921604000089, -5.690822721999932, 0.0 ], [ 105.641921604000089, -5.690180824968048, 0.0 ] ] ] } },
{ "type": "Feature", "properties": { "NAMOBJ": null, "FCODE": "CA02050160", "REMARK": "Jalan Lain", "METADATA": "RBI50KPROVINSILAMPUNG", "SRS_ID": "4326", "ARHRJL": 0, "AUTRJL": 0, "FGSRJL": 0, "JARRJL": 0, "JPARJL": 0, "KLLRJL": null, "KONRJL": 0, "KPMSTR": 0.0, "LKONOF": null, "LKSBSP": null, "LKSRTA": null, "LLHRRT": 0.0, "LOCRJL": 0, "LBRBHJ": 0.0, "LBRJLN": 0.0, "MATRJL": 0, "MEDRJL": 0, "SPCRJL": 0, "STARJL": 0, "TOLRJL": 0, "UTKRJL": 0, "VLCPRT": 0.0, "WLYRJL": 0, "TGL_SK": null, "JLNLYG": 0, "KLSRJL": 0, "Shape_Leng": 0.00310062497 }, "geometry": { "type": "MultiLineString", "coordinates": [ [ [ 105.646860814380787, -5.708012849842802, 0.0 ], [ 105.646979085000041, -5.707749205999955, 0.0 ], [ 105.647154507000081, -5.70690494, 0.0 ] ] ] } },
{ "type": "Feature", "properties": { "NAMOBJ": null, "FCODE": "CA02050160", "REMARK": "Jalan Arteri", "METADATA": "RBI50KPROVINSILAMPUNG", "SRS_ID": "4326", "ARHRJL": 0, "AUTRJL": 0, "FGSRJL": 1, "JARRJL": 0, "JPARJL": 0, "KLLRJL": null, "KONRJL": 0, "KPMSTR": 0.0, "LKONOF": null, "LKSBSP": null, "LKSRTA": null, "LLHRRT": 0.0, "LOCRJL": 0, "LBRBHJ": 0.0, "LBRJLN": 0.0, "MATRJL": 0, "MEDRJL": 0, "SPCRJL": 0, "STARJL": 0, "TOLRJL": 0, "UTKRJL": 0, "VLCPRT": 0.0, "WLYRJL": 0, "TGL_SK": null, "JLNLYG": 0, "KLSRJL": 0, "Shape_Leng": 0.0066396331 }, "geometry": { "type": "MultiLineString", "coordinates": [ [ [ 105.61961700789054, -5.723083527745053, 0.0 ], [ 105.619288247000028, -5.723026042999911, 0.0 ] ], [ [ 105.625816926000113, -5.724156401, 0.0 ], [ 105.625781149, -5.724150355999945, 0.0 ], [ 105.624999999000025, -5.724050621999953, 0.0 ], [ 105.624612743000043, -5.724001178999948, 0.0 ], [ 105.623945031000048, -5.723868170999956, 0.0 ], [ 105.623285682000116, -5.723751870999926, 0.0 ], [ 105.622701543000105, -5.723735788999927, 0.0 ], [ 105.62201717800005, -5.72363623099995, 0.0 ], [ 105.621836477752041, -5.723606647343181, 0.0 ] ] ] } },
{ "type": "Feature", "properties": { "NAMOBJ": null, "FCODE": "CA02050160", "REMARK": "Jalan Lain", "METADATA": "RBI50KPROVINSILAMPUNG", "SRS_ID": "4326", "ARHRJL": 0, "AUTRJL": 0, "FGSRJL": 0, "JARRJL": 0, "JPARJL": 0, "KLLRJL": null, "KONRJL": 0, "KPMSTR": 0.0, "LKONOF": null, "LKSBSP": null, "LKSRTA": null, "LLHRRT": 0.0, "LOCRJL": 0, "LBRBHJ": 0.0, "LBRJLN": 0.0, "MATRJL": 0, "MEDRJL": 0, "SPCRJL": 0, "STARJL": 0, "TOLRJL": 0, "UTKRJL": 0, "VLCPRT": 0.0, "WLYRJL": 0, "TGL_SK": null, "JLNLYG": 0, "KLSRJL": 0, "Shape_Leng": 0.00197545473 }, "geometry": { "type": "MultiLineString", "coordinates": [ [ [ 105.63113429200007, -5.728401620999889, 0.0 ], [ 105.631367715372178, -5.729386318091399, 0.0 ] ] ] } },
{ "type": "Feature", "properties": { "NAMOBJ": null, "FCODE": "CA02050160", "REMARK": "Jalan Lain", "METADATA": "RBI50KPROVINSILAMPUNG", "SRS_ID": "4326", "ARHRJL": 0, "AUTRJL": 0, "FGSRJL": 0, "JARRJL": 0, "JPARJL": 0, "KLLRJL": null, "KONRJL": 0, "KPMSTR": 0.0, "LKONOF": null, "LKSBSP": null, "LKSRTA": null, "LLHRRT": 0.0, "LOCRJL": 0, "LBRBHJ": 0.0, "LBRJLN": 0.0, "MATRJL": 0, "MEDRJL": 0, "SPCRJL": 0, "STARJL": 0, "TOLRJL": 0, "UTKRJL": 0, "VLCPRT": 0.0, "WLYRJL": 0, "TGL_SK": null, "JLNLYG": 0, "KLSRJL": 0, "Shape_Leng": 0.01318900433 }, "geometry": { "type": "MultiLineString", "coordinates": [ [ [ 105.655137184000026, -5.688681744999978, 0.0 ], [ 105.655023135000093, -5.689555702, 0.0 ], [ 105.655216462000013, -5.690269028999949, 0.0 ], [ 105.65527503800007, -5.691506871999962, 0.0 ], [ 105.655213853000063, -5.692254546999918, 0.0 ], [ 105.654990495000064, -5.693008577999957, 0.0 ], [ 105.654758512000043, -5.693820509, 0.0 ], [ 105.654675856000054, -5.694370227, 0.0 ], [ 105.654255280000072, -5.695023379999951, 0.0 ], [ 105.653849113000035, -5.695426244999978, 0.0 ], [ 105.653203901000026, -5.696717618999979, 0.0 ], [ 105.652998685000099, -5.697198774, 0.0 ], [ 105.652558066000054, -5.697459358999978, 0.0 ], [ 105.652003672000021, -5.697729099999914, 0.0 ], [ 105.651802523000072, -5.69803010199995, 0.0 ], [ 105.651715577137381, -5.69829105691425, 0.0 ] ] ] } },
{ "type": "Feature", "properties": { "NAMOBJ": null, "FCODE": "CA02050160", "REMARK": "Jalan Tol", "METADATA": "RBI50KPROVINSILAMPUNG", "SRS_ID": "4326", "ARHRJL": 0, "AUTRJL": 0, "FGSRJL": 0, "JARRJL": 0, "JPARJL": 0, "KLLRJL": null, "KONRJL": 0, "KPMSTR": 0.0, "LKONOF": null, "LKSBSP": null, "LKSRTA": null, "LLHRRT": 0.0, "LOCRJL": 0, "LBRBHJ": 0.0, "LBRJLN": 0.0, "MATRJL": 0, "MEDRJL": 0, "SPCRJL": 0, "STARJL": 0, "TOLRJL": 0, "UTKRJL": 0, "VLCPRT": 0.0, "WLYRJL": 0, "TGL_SK": null, "JLNLYG": 0, "KLSRJL": 0, "Shape_Leng": 0.06237324779 }, "geometry": { "type": "MultiLineString", "coordinates": [ [ [ 105.632505958653226, -5.700770253594643, 0.0 ], [ 105.634353052000037, -5.702024558999962, 0.0 ], [ 105.635828318000065, -5.702928754, 0.0 ], [ 105.638957309000048, -5.705082166, 0.0 ], [ 105.641578452000033, -5.706890773999894, 0.0 ], [ 105.643908456000077, -5.708386952999965, 0.0 ], [ 105.644532564115664, -5.708794102373914, 0.0 ] ] ] } },
{ "type": "Feature", "properties": { "NAMOBJ": null, "FCODE": "CA02050160", "REMARK": "Jalan Lain", "METADATA": "RBI50KPROVINSILAMPUNG", "SRS_ID": "4326", "ARHRJL": 0, "AUTRJL": 0, "FGSRJL": 0, "JARRJL": 0, "JPARJL": 0, "KLLRJL": null, "KONRJL": 0, "KPMSTR": 0.0, "LKONOF": null, "LKSBSP": null, "LKSRTA": null, "LLHRRT": 0.0, "LOCRJL": 0, "LBRBHJ": 0.0, "LBRJLN": 0.0, "MATRJL": 0, "MEDRJL": 0, "SPCRJL": 0, "STARJL": 0, "TOLRJL": 0, "UTKRJL": 0, "VLCPRT": 0.0, "WLYRJL": 0, "TGL_SK": null, "JLNLYG": 0, "KLSRJL": 0, "Shape_Leng": 0.00322146837 }, "geometry": { "type": "MultiLineString", "coordinates": [ [ [ 105.62525125300003, -5.725267094999974, 0.0 ], [ 105.627214119000087, -5.72782150599994, 0.0 ] ] ] } },
{ "type": "Feature", "properties": { "NAMOBJ": null, "FCODE": "CA02050160", "REMARK": "Jalan Lain", "METADATA": "RBI50KPROVINSILAMPUNG", "SRS_ID": "4326", "ARHRJL": 0, "AUTRJL": 0, "FGSRJL": 0, "JARRJL": 0, "JPARJL": 0, "KLLRJL": null, "KONRJL": 0, "KPMSTR": 0.0, "LKONOF": null, "LKSBSP": null, "LKSRTA": null, "LLHRRT": 0.0, "LOCRJL": 0, "LBRBHJ": 0.0, "LBRJLN": 0.0, "MATRJL": 0, "MEDRJL": 0, "SPCRJL": 0, "STARJL": 0, "TOLRJL": 0, "UTKRJL": 0, "VLCPRT": 0.0, "WLYRJL": 0, "TGL_SK": null, "JLNLYG": 0, "KLSRJL": 0, "Shape_Leng": 0.00269402149 }, "geometry": { "type": "MultiLineString", "coordinates": [ [ [ 105.61928334610559, -5.723039122073291, 0.0 ], [ 105.619288247000028, -5.723026042999911, 0.0 ] ] ] } },
{ "type": "Feature", "properties": { "NAMOBJ": null, "FCODE": "CA02050160", "REMARK": "Jalan Lain", "METADATA": "RBI50KPROVINSILAMPUNG", "SRS_ID": "4326", "ARHRJL": 0, "AUTRJL": 0, "FGSRJL": 0, "JARRJL": 0, "JPARJL": 0, "KLLRJL": null, "KONRJL": 0, "KPMSTR": 0.0, "LKONOF": null, "LKSBSP": null, "LKSRTA": null, "LLHRRT": 0.0, "LOCRJL": 0, "LBRBHJ": 0.0, "LBRJLN": 0.0, "MATRJL": 0, "MEDRJL": 0, "SPCRJL": 0, "STARJL": 0, "TOLRJL": 0, "UTKRJL": 0, "VLCPRT": 0.0, "WLYRJL": 0, "TGL_SK": null, "JLNLYG": 0, "KLSRJL": 0, "Shape_Leng": 0.00382681845 }, "geometry": { "type": "MultiLineString", "coordinates": [ [ [ 105.629255477000058, -5.728406214, 0.0 ], [ 105.629463441000027, -5.727142325999966, 0.0 ], [ 105.629526029000061, -5.72556081299994, 0.0 ], [ 105.629380869611197, -5.725052869220902, 0.0 ] ] ] } },
{ "type": "Feature", "properties": { "NAMOBJ": null, "FCODE": "CA02050160", "REMARK": "Jalan Lain", "METADATA": "RBI50KPROVINSILAMPUNG", "SRS_ID": "4326", "ARHRJL": 0, "AUTRJL": 0, "FGSRJL": 0, "JARRJL": 0, "JPARJL": 0, "KLLRJL": null, "KONRJL": 0, "KPMSTR": 0.0, "LKONOF": null, "LKSBSP": null, "LKSRTA": null, "LLHRRT": 0.0, "LOCRJL": 0, "LBRBHJ": 0.0, "LBRJLN": 0.0, "MATRJL": 0, "MEDRJL": 0, "SPCRJL": 0, "STARJL": 0, "TOLRJL": 0, "UTKRJL": 0, "VLCPRT": 0.0, "WLYRJL": 0, "TGL_SK": null, "JLNLYG": 0, "KLSRJL": 0, "Shape_Leng": 0.0155645686 }, "geometry": { "type": "MultiLineString", "coordinates": [ [ [ 105.647154507000081, -5.70690494, 0.0 ], [ 105.647437733579068, -5.706936937622952, 0.0 ] ] ] } },
{ "type": "Feature", "properties": { "NAMOBJ": null, "FCODE": "CA02050160", "REMARK": "Jalan Lain", "METADATA": "RBI50KPROVINSILAMPUNG", "SRS_ID": "4326", "ARHRJL": 0, "AUTRJL": 0, "FGSRJL": 0, "JARRJL": 0, "JPARJL": 0, "KLLRJL": null, "KONRJL": 0, "KPMSTR": 0.0, "LKONOF": null, "LKSBSP": null, "LKSRTA": null, "LLHRRT": 0.0, "LOCRJL": 0, "LBRBHJ": 0.0, "LBRJLN": 0.0, "MATRJL": 0, "MEDRJL": 0, "SPCRJL": 0, "STARJL": 0, "TOLRJL": 0, "UTKRJL": 0, "VLCPRT": 0.0, "WLYRJL": 0, "TGL_SK": null, "JLNLYG": 0, "KLSRJL": 0, "Shape_Leng": 0.00428909318 }, "geometry": { "type": "MultiLineString", "coordinates": [ [ [ 105.619288247000028, -5.723026042999911, 0.0 ], [ 105.619599844000064, -5.722414874999969, 0.0 ], [ 105.621812742000103, -5.719571418999979, 0.0 ] ] ] } },
{ "type": "Feature", "properties": { "NAMOBJ": null, "FCODE": "CA02050160", "REMARK": "Jalan Lain", "METADATA": "RBI50KPROVINSILAMPUNG", "SRS_ID": "4326", "ARHRJL": 0, "AUTRJL": 0, "FGSRJL": 0, "JARRJL": 0, "JPARJL": 0, "KLLRJL": null, "KONRJL": 0, "KPMSTR": 0.0, "LKONOF": null, "LKSBSP": null, "LKSRTA": null, "LLHRRT": 0.0, "LOCRJL": 0, "LBRBHJ": 0.0, "LBRJLN": 0.0, "MATRJL": 0, "MEDRJL": 0, "SPCRJL": 0, "STARJL": 0, "TOLRJL": 0, "UTKRJL": 0, "VLCPRT": 0.0, "WLYRJL": 0, "TGL_SK": null, "JLNLYG": 0, "KLSRJL": 0, "Shape_Leng": 0.00235476087 }, "geometry": { "type": "MultiLineString", "coordinates": [ [ [ 105.652545750000016, -5.688382483999908, 0.0 ], [ 105.652687113000084, -5.689426449999956, 0.0 ], [ 105.652553863000065, -5.690720876999943, 0.0 ] ] ] } },
{ "type": "Feature", "properties": { "NAMOBJ": null, "FCODE": "CA02050160", "REMARK": "Jalan Lain", "METADATA": "RBI50KPROVINSILAMPUNG", "SRS_ID": "4326", "ARHRJL": 0, "AUTRJL": 0, "FGSRJL": 0, "JARRJL": 0, "JPARJL": 0, "KLLRJL": null, "KONRJL": 0, "KPMSTR": 0.0, "LKONOF": null, "LKSBSP": null, "LKSRTA": null, "LLHRRT": 0.0, "LOCRJL": 0, "LBRBHJ": 0.0, "LBRJLN": 0.0, "MATRJL": 0, "MEDRJL": 0, "SPCRJL": 0, "STARJL": 0, "TOLRJL": 0, "UTKRJL": 0, "VLCPRT": 0.0, "WLYRJL": 0, "TGL_SK": null, "JLNLYG": 0, "KLSRJL": 0, "Shape_Leng": 0.00831515699 }, "geometry": { "type": "MultiLineString", "coordinates": [ [ [ 105.631995125521868, -5.73396762077981, 0.0 ], [ 105.632085246477544, -5.733849399172729, 0.0 ] ] ] } },
{ "type": "Feature", "properties": { "NAMOBJ": null, "FCODE": "CA02050160", "REMARK": "Jalan Lain", "METADATA": "RBI50KPROVINSILAMPUNG", "SRS_ID": "4326", "ARHRJL": 0, "AUTRJL": 0, "FGSRJL": 0, "JARRJL": 0, "JPARJL": 0, "KLLRJL": null, "KONRJL": 0, "KPMSTR": 0.0, "LKONOF": null, "LKSBSP": null, "LKSRTA": null, "LLHRRT": 0.0, "LOCRJL": 0, "LBRBHJ": 0.0, "LBRJLN": 0.0, "MATRJL": 0, "MEDRJL": 0, "SPCRJL": 0, "STARJL": 0, "TOLRJL": 0, "UTKRJL": 0, "VLCPRT": 0.0, "WLYRJL": 0, "TGL_SK": null, "JLNLYG": 0, "KLSRJL": 0, "Shape_Leng": 0.02636039883 }, "geometry": { "type": "MultiLineString", "coordinates": [ [ [ 105.635644857702346, -5.716599101875196, 0.0 ], [ 105.635772561000067, -5.716194121999961, 0.0 ], [ 105.63598864300009, -5.715942018999974, 0.0 ], [ 105.636275066000081, -5.715853847999962, 0.0 ], [ 105.636420706000052, -5.715355820999966, 0.0 ], [ 105.636408157000076, -5.714582684999946, 0.0 ], [ 105.636365992000052, -5.713469863999975, 0.0 ], [ 105.636698568000028, -5.712807636999982, 0.0 ], [ 105.636574488000065, -5.711648049999961, 0.0 ], [ 105.636439266000068, -5.710980478999971, 0.0 ], [ 105.636228320000029, -5.710582422999987, 0.0 ], [ 105.63631492800009, -5.709586604000015, 0.0 ], [ 105.63637274400007, -5.70897812499994, 0.0 ], [ 105.636491733000057, -5.707725840999976, 0.0 ], [ 105.636149090000046, -5.705917450999919, 0.0 ], [ 105.63557802000004, -5.705232165999973, 0.0 ], [ 105.635349591000065, -5.703956774999962, 0.0 ], [ 105.634283593000063, -5.703024025999968, 0.0 ], [ 105.634483923000019, -5.70236958, 0.0 ] ], [ [ 105.63477157429827, -5.717369151850536, 0.0 ], [ 105.634779702000074, -5.717290512, 0.0 ], [ 105.635114357445559, -5.717044794982594, 0.0 ] ], [ [ 105.63260162010603, -5.720888026712877, 0.0 ], [ 105.632602511000059, -5.72084823899993, 0.0 ], [ 105.632610258156475, -5.720837510499709, 0.0 ] ] ] } },
{ "type": "Feature", "properties": { "NAMOBJ": null, "FCODE": "CA02050160", "REMARK": "Jalan Lain", "METADATA": "RBI50KPROVINSILAMPUNG", "SRS_ID": "4326", "ARHRJL": 0, "AUTRJL": 0, "FGSRJL": 0, "JARRJL": 0, "JPARJL": 0, "KLLRJL": null, "KONRJL": 0, "KPMSTR": 0.0, "LKONOF": null, "LKSBSP": null, "LKSRTA": null, "LLHRRT": 0.0, "LOCRJL": 0, "LBRBHJ": 0.0, "LBRJLN": 0.0, "MATRJL": 0, "MEDRJL": 0, "SPCRJL": 0, "STARJL": 0, "TOLRJL": 0, "UTKRJL": 0, "VLCPRT": 0.0, "WLYRJL": 0, "TGL_SK": null, "JLNLYG": 0, "KLSRJL": 0, "Shape_Leng": 0.00263395524 }, "geometry": { "type": "MultiLineString", "coordinates": [ [ [ 105.653424284000053, -5.687942586999926, 0.0 ], [ 105.652545750000016, -5.688382483999908, 0.0 ], [ 105.651069079000052, -5.68912187899998, 0.0 ] ] ] } },
{ "type": "Feature", "properties": { "NAMOBJ": null, "FCODE": "CA02050160", "REMARK": "Jalan Lain", "METADATA": "RBI50KPROVINSILAMPUNG", "SRS_ID": "4326", "ARHRJL": 0, "AUTRJL": 0, "FGSRJL": 0, "JARRJL": 0, "JPARJL": 0, "KLLRJL": null, "KONRJL": 0, "KPMSTR": 0.0, "LKONOF": null, "LKSBSP": null, "LKSRTA": null, "LLHRRT": 0.0, "LOCRJL": 0, "LBRBHJ": 0.0, "LBRJLN": 0.0, "MATRJL": 0, "MEDRJL": 0, "SPCRJL": 0, "STARJL": 0, "TOLRJL": 0, "UTKRJL": 0, "VLCPRT": 0.0, "WLYRJL": 0, "TGL_SK": null, "JLNLYG": 0, "KLSRJL": 0, "Shape_Leng": 0.00520907628 }, "geometry": { "type": "MultiLineString", "coordinates": [ [ [ 105.655137184000026, -5.688681744999978, 0.0 ], [ 105.654765801000025, -5.68853755899995, 0.0 ], [ 105.654078126000059, -5.688324866999937, 0.0 ], [ 105.653424284000053, -5.687942586999926, 0.0 ], [ 105.65314948300005, -5.687781919999956, 0.0 ], [ 105.652413035000052, -5.68699084299996, 0.0 ], [ 105.651972466000103, -5.686447332999932, 0.0 ], [ 105.651786292000068, -5.685944857000012, 0.0 ], [ 105.651492396581304, -5.685351191040954, 0.0 ] ] ] } },
{ "type": "Feature", "properties": { "NAMOBJ": null, "FCODE": "CA02050160", "REMARK": "Jalan Tol", "METADATA": "RBI50KPROVINSILAMPUNG", "SRS_ID": "4326", "ARHRJL": 0, "AUTRJL": 0, "FGSRJL": 0, "JARRJL": 0, "JPARJL": 0, "KLLRJL": null, "KONRJL": 0, "KPMSTR": 0.0, "LKONOF": null, "LKSBSP": null, "LKSRTA": null, "LLHRRT": 0.0, "LOCRJL": 0, "LBRBHJ": 0.0, "LBRJLN": 0.0, "MATRJL": 0, "MEDRJL": 0, "SPCRJL": 0, "STARJL": 0, "TOLRJL": 0, "UTKRJL": 0, "VLCPRT": 0.0, "WLYRJL": 0, "TGL_SK": null, "JLNLYG": 0, "KLSRJL": 0, "Shape_Leng": 0.0623762238 }, "geometry": { "type": "MultiLineString", "coordinates": [ [ [ 105.644393703372586, -5.70897754787386, 0.0 ], [ 105.644061253000118, -5.708758432999971, 0.0 ], [ 105.640765700000102, -5.706593123999958, 0.0 ], [ 105.637125124000065, -5.70409469, 0.0 ], [ 105.634483923000019, -5.70236958, 0.0 ], [ 105.632436180364124, -5.700961017600657, 0.0 ] ] ] } },
{ "type": "Feature", "properties": { "NAMOBJ": null, "FCODE": null, "REMARK": null, "METADATA": null, "SRS_ID": null, "ARHRJL": null, "AUTRJL": null, "FGSRJL": null, "JARRJL": null, "JPARJL": null, "KLLRJL": null, "KONRJL": null, "KPMSTR": null, "LKONOF": null, "LKSBSP": null, "LKSRTA": null, "LLHRRT": null, "LOCRJL": null, "LBRBHJ": null, "LBRJLN": null, "MATRJL": null, "MEDRJL": null, "SPCRJL": null, "STARJL": null, "TOLRJL": null, "UTKRJL": null, "VLCPRT": null, "WLYRJL": null, "TGL_SK": null, "JLNLYG": null, "KLSRJL": null, "Shape_Leng": null }, "geometry": { "type": "MultiLineString", "coordinates": [ [ [ 105.629228685841966, -5.724631308284965, 0.0 ], [ 105.6292310105204, -5.724539603779839, 0.0 ], [ 105.62966439837696, -5.724599223273334, 0.0 ], [ 105.629742362329992, -5.724606102445661, 0.0 ], [ 105.630301868345882, -5.724688652513578, 0.0 ], [ 105.63030416140333, -5.724681773341254, 0.0 ], [ 105.63030416140333, -5.72467718722637, 0.0 ], [ 105.63050136434336, -5.724695531685907, 0.0 ], [ 105.630496778228476, -5.724688652513581, 0.0 ], [ 105.630496778228476, -5.72460151633078, 0.0 ], [ 105.630510536573127, -5.724532724607515, 0.0 ], [ 105.63050136434336, -5.724479984286346, 0.0 ], [ 105.630476140711494, -5.724399727275872, 0.0 ], [ 105.630425693447762, -5.724305711920743, 0.0 ], [ 105.630350022552136, -5.724136025670025, 0.0 ], [ 105.630315626690518, -5.724040863786175, 0.0 ], [ 105.63031218710438, -5.723913599098135, 0.0 ], [ 105.630317919747995, -5.723836781673823, 0.0 ], [ 105.630339703793695, -5.723797799697307, 0.0 ], [ 105.630371806597879, -5.723718689215553, 0.0 ], [ 105.630386711471346, -5.72366021625078, 0.0 ], [ 105.630474134286317, -5.723592571056236, 0.0 ], [ 105.630571589227614, -5.72352177290771, 0.0 ], [ 105.630640380950865, -5.723464446471656, 0.0 ], [ 105.630626622606215, -5.723427757552582, 0.0 ], [ 105.630514262791536, -5.723231127876918, 0.0 ], [ 105.630438591895953, -5.723102716660158, 0.0 ], [ 105.630430205233765, -5.722744717597116, 0.0 ] ] ] } },
{ "type": "Feature", "properties": { "NAMOBJ": null, "FCODE": null, "REMARK": null, "METADATA": null, "SRS_ID": null, "ARHRJL": null, "AUTRJL": null, "FGSRJL": null, "JARRJL": null, "JPARJL": null, "KLLRJL": null, "KONRJL": null, "KPMSTR": null, "LKONOF": null, "LKSBSP": null, "LKSRTA": null, "LLHRRT": null, "LOCRJL": null, "LBRBHJ": null, "LBRJLN": null, "MATRJL": null, "MEDRJL": null, "SPCRJL": null, "STARJL": null, "TOLRJL": null, "UTKRJL": null, "VLCPRT": null, "WLYRJL": null, "TGL_SK": null, "JLNLYG": null, "KLSRJL": null, "Shape_Leng": null }, "geometry": { "type": "MultiLineString", "coordinates": [ [ [ 105.631248974909823, -5.728405277453695, 0.0 ], [ 105.631892390314206, -5.728420316868487, 0.0 ], [ 105.632126282173317, -5.728424902983371, 0.0 ], [ 105.632144626632879, -5.728422609925929, 0.0 ], [ 105.632144626632879, -5.728303370938938, 0.0 ], [ 105.632130868288215, -5.728154322205198, 0.0 ], [ 105.632078127967048, -5.727993808184248, 0.0 ], [ 105.632013922358666, -5.727796605244224, 0.0 ], [ 105.632007043186348, -5.727766795497476, 0.0 ], [ 105.632002457071465, -5.727692844394967, 0.0 ], [ 105.632023094588433, -5.727527744259133, 0.0 ], [ 105.632055197392631, -5.727264042653286, 0.0 ], [ 105.632059783507515, -5.726959066013481, 0.0 ], [ 105.632039145990532, -5.726771608567586, 0.0 ], [ 105.632009336243783, -5.726686765442227, 0.0 ], [ 105.631956595922617, -5.726565233397793, 0.0 ], [ 105.63190385560145, -5.726386948181666, 0.0 ], [ 105.631846529165401, -5.72627229530956, 0.0 ], [ 105.631776017649045, -5.72618859871292, 0.0 ], [ 105.631726716914031, -5.726116367403493, 0.0 ], [ 105.631673976592865, -5.726020058990922, 0.0 ], [ 105.631634994616348, -5.72594238167007, 0.0 ], [ 105.63162811544403, -5.725917158038206, 0.0 ], [ 105.631553304444978, -5.725743172304783, 0.0 ], [ 105.631540692629045, -5.725701897270825, 0.0 ], [ 105.631490245365313, -5.725655176225441, 0.0 ], [ 105.631431772400546, -5.725611608134041, 0.0 ], [ 105.631339763470677, -5.725555428226708, 0.0 ], [ 105.631273264804861, -5.725478897434576, 0.0 ], [ 105.631231989770896, -5.725406952757329, 0.0 ], [ 105.631221671012412, -5.725358798551045, 0.0 ], [ 105.631215938368797, -5.725278828172749, 0.0 ], [ 105.63121479184008, -5.725216915621812, 0.0 ], [ 105.63119300779438, -5.725164175300643, 0.0 ], [ 105.631150586231698, -5.725095383577378, 0.0 ], [ 105.631103578554132, -5.724991336095941, 0.0 ], [ 105.631073482175211, -5.724925124062299, 0.0 ], [ 105.63106774953161, -5.724891874729388, 0.0 ], [ 105.63106774953161, -5.724839134408219, 0.0 ], [ 105.631071189117776, -5.724805885075308, 0.0 ], [ 105.631073482175211, -5.724789833673213, 0.0 ], [ 105.631075201968301, -5.724780661443446, 0.0 ], [ 105.631075201968301, -5.724780661443446, 0.0 ], [ 105.631075201968301, -5.724780661443446, 0.0 ] ] ] } },
{ "type": "Feature", "properties": { "NAMOBJ": null, "FCODE": null, "REMARK": null, "METADATA": null, "SRS_ID": null, "ARHRJL": null, "AUTRJL": null, "FGSRJL": null, "JARRJL": null, "JPARJL": null, "KLLRJL": null, "KONRJL": null, "KPMSTR": null, "LKONOF": null, "LKSBSP": null, "LKSRTA": null, "LLHRRT": null, "LOCRJL": null, "LBRBHJ": null, "LBRJLN": null, "MATRJL": null, "MEDRJL": null, "SPCRJL": null, "STARJL": null, "TOLRJL": null, "UTKRJL": null, "VLCPRT": null, "WLYRJL": null, "TGL_SK": null, "JLNLYG": null, "KLSRJL": null, "Shape_Leng": null }, "geometry": { "type": "MultiLineString", "coordinates": [ [ [ 105.63050136434336, -5.724695531685907, 0.0 ], [ 105.630723217650925, -5.724733653765881, 0.0 ], [ 105.630911248361173, -5.724761170455187, 0.0 ], [ 105.631075201968301, -5.724780661443446, 0.0 ], [ 105.631367566792164, -5.724820789948683, 0.0 ], [ 105.631720697638258, -5.724866651097526, 0.0 ], [ 105.631950003382471, -5.724884995557063, 0.0 ], [ 105.633179082171452, -5.725038630405686, 0.0 ], [ 105.633644572832196, -5.725100542956624, 0.0 ], [ 105.633898665752326, -5.725119184341481, 0.0 ], [ 105.633898665752326, -5.725119184341481, 0.0 ], [ 105.633898665752326, -5.725119184341481, 0.0 ] ] ] } }
]
}
